{"type": "FeatureCollection", "features": [{"type": "Feature", "properties": {"Name": "Baksa"}, "geometry": {"type": "Polygon", "coordinates": [[[91.58608, 26.56285], [91.58843, 26.56262], [91.5913, 26.56235], [91.59315, 26.5628], [91.59433, 26.56309], [91.5949, 26.5632], [91.59661, 26.56355], [91.59917, 26.56358], [91.6015, 26.56363], [91.60385, 26.5632], [91.60437, 26.5631], [91.60311, 26.5665], [91.60142, 26.56785], [91.60112, 26.5685], [91.60001, 26.57091], [91.5997, 26.57318], [91.5991, 26.57521], [91.60003, 26.57548], [91.60109, 26.57557], [91.6034, 26.57577], [91.60349, 26.57578], [91.60514, 26.57593], [91.60637, 26.57604], [91.61076, 26.57644], [91.61056, 26.57368], [91.60986, 26.57129], [91.60877, 26.57007], [91.60859, 26.56987], [91.60843, 26.56961], [91.60874, 26.56949], [91.60904, 26.56886], [91.61097, 26.56475], [91.61121, 26.56166], [91.61169, 26.55537], [91.61191, 26.55255], [91.61204, 26.55088], [91.61198, 26.54742], [91.61192, 26.54412], [91.61184, 26.53976], [91.61183, 26.5394], [91.61181, 26.53787], [91.61164, 26.52868], [91.61161, 26.5269], [91.61146, 26.51885], [91.61135, 26.5131], [91.61131, 26.51078], [91.61125, 26.50775], [91.61122, 26.50585], [91.61117, 26.50327], [91.61112, 26.50022], [91.6112, 26.49944], [91.61135, 26.49798], [91.6114, 26.49746], [91.6121, 26.49036], [91.61228, 26.48853], [91.61475, 26.48665], [91.61519, 26.48631], [91.61524, 26.48615], [91.61539, 26.48591], [91.61571, 26.48564], [91.61585, 26.48552], [91.61591, 26.48506], [91.61584, 26.48461], [91.61497, 26.48407], [91.61379, 26.48382], [91.61291, 26.48426], [91.61224, 26.48428], [91.61187, 26.48405], [91.61117, 26.48314], [91.6114, 26.48257], [91.61175, 26.48211], [91.61208, 26.48177], [91.6117, 26.48156], [91.61145, 26.48144], [91.60861, 26.48116], [91.60757, 26.48077], [91.60743, 26.47991], [91.60779, 26.47867], [91.60738, 26.47788], [91.6058, 26.47662], [91.60587, 26.47622], [91.60592, 26.47597], [91.60963, 26.47581], [91.61, 26.47543], [91.60957, 26.47481], [91.60791, 26.47324], [91.60786, 26.47211], [91.6085, 26.47119], [91.60996, 26.47114], [91.6121, 26.47187], [91.61358, 26.47238], [91.61499, 26.47315], [91.61575, 26.47359], [91.61611, 26.47276], [91.6173, 26.47211], [91.61781, 26.47192], [91.6183, 26.47174], [91.61858, 26.47163], [91.61819, 26.47032], [91.61593, 26.4697], [91.61531, 26.46953], [91.61415, 26.46831], [91.6137, 26.46623], [91.61367, 26.46611], [91.6136, 26.46522], [91.61354, 26.46429], [91.61354, 26.46423], [91.61351, 26.46382], [91.61351, 26.46372], [91.61352, 26.46271], [91.61353, 26.46139], [91.61499, 26.45959], [91.61506, 26.45954], [91.61566, 26.45917], [91.61751, 26.45772], [91.61867, 26.45731], [91.61878, 26.45724], [91.62023, 26.45682], [91.62078, 26.45661], [91.62141, 26.45596], [91.62216, 26.45596], [91.6225, 26.45585], [91.62296, 26.45581], [91.6234, 26.45597], [91.62465, 26.45596], [91.62543, 26.45595], [91.62744, 26.45593], [91.62761, 26.45593], [91.62876, 26.45596], [91.63014, 26.456], [91.63166, 26.45605], [91.63256, 26.45609], [91.6329, 26.4561], [91.6357, 26.45646], [91.63955, 26.45672], [91.64038, 26.45678], [91.64253, 26.45627], [91.64741, 26.45682], [91.648, 26.45702], [91.648, 26.45678], [91.64798, 26.45595], [91.6475, 26.45445], [91.64843, 26.45155], [91.64859, 26.44938], [91.64894, 26.44447], [91.64872, 26.44297], [91.65078, 26.44297], [91.65114, 26.44311], [91.65141, 26.4431], [91.65323, 26.44298], [91.65379, 26.44292], [91.65493, 26.44281], [91.65664, 26.44265], [91.6636, 26.44289], [91.66581, 26.44355], [91.66618, 26.44367], [91.66844, 26.4436], [91.67096, 26.44354], [91.67305, 26.44342], [91.67446, 26.44334], [91.67634, 26.44307], [91.67742, 26.44291], [91.67751, 26.44286], [91.67892, 26.44207], [91.67901, 26.44202], [91.67934, 26.44249], [91.67999, 26.44351], [91.68004, 26.44369], [91.68014, 26.44469], [91.68015, 26.4448], [91.67956, 26.44523], [91.67941, 26.44534], [91.6781, 26.44622], [91.67738, 26.44671], [91.67604, 26.44762], [91.67448, 26.44931], [91.67406, 26.45105], [91.67416, 26.45295], [91.67428, 26.4539], [91.67681, 26.45379], [91.6771, 26.4538], [91.67785, 26.45383], [91.67925, 26.45389], [91.67964, 26.45391], [91.68155, 26.45402], [91.68281, 26.45409], [91.68394, 26.45452], [91.6843, 26.4552], [91.68511, 26.45668], [91.68698, 26.45731], [91.68787, 26.45708], [91.68912, 26.45452], [91.68992, 26.45381], [91.69295, 26.45369], [91.69472, 26.45351], [91.69739, 26.45325], [91.69758, 26.45323], [91.70097, 26.45344], [91.70315, 26.45344], [91.70321, 26.4532], [91.7118, 26.46344], [91.71481, 26.46703], [91.71856, 26.4715], [91.71895, 26.47215], [91.72273, 26.47844], [91.72384, 26.48085], [91.72649, 26.48659], [91.7269, 26.48747], [91.7283, 26.48679], [91.7307, 26.48563], [91.73221, 26.4849], [91.7424, 26.47996], [91.7484, 26.47706], [91.75063, 26.47598], [91.75615, 26.47331], [91.75712, 26.47284], [91.76047, 26.47122], [91.76414, 26.46959], [91.7714, 26.46636], [91.77271, 26.46636], [91.77625, 26.46637], [91.77675, 26.46708], [91.77741, 26.46802], [91.77859, 26.46969], [91.77989, 26.47377], [91.77999, 26.47408], [91.77999, 26.47536], [91.77992, 26.47657], [91.7798, 26.47865], [91.77977, 26.47922], [91.77986, 26.47949], [91.78117, 26.48363], [91.78081, 26.48429], [91.7799, 26.48592], [91.77931, 26.48699], [91.77968, 26.48917], [91.78009, 26.49158], [91.78349, 26.4957], [91.78379, 26.49606], [91.78768, 26.49923], [91.78784, 26.49981], [91.78786, 26.4999], [91.78774, 26.5003], [91.78742, 26.50128], [91.78691, 26.5029], [91.78684, 26.50313], [91.78662, 26.5038], [91.78644, 26.50438], [91.78624, 26.50501], [91.78564, 26.50587], [91.78531, 26.50634], [91.7851, 26.50663], [91.78491, 26.5069], [91.78242, 26.51045], [91.78168, 26.5115], [91.78186, 26.51473], [91.78313, 26.51576], [91.78351, 26.51608], [91.78421, 26.51664], [91.78437, 26.51677], [91.78458, 26.51694], [91.7848, 26.51789], [91.78526, 26.51992], [91.78435, 26.52038], [91.7805, 26.5223], [91.77899, 26.52305], [91.78034, 26.52412], [91.78119, 26.5248], [91.78523, 26.52573], [91.7861, 26.52894], [91.78299, 26.52938], [91.77882, 26.52852], [91.77999, 26.52994], [91.78229, 26.53274], [91.78246, 26.53295], [91.78532, 26.53666], [91.78494, 26.5373], [91.78338, 26.53857], [91.78151, 26.5401], [91.78137, 26.54022], [91.78074, 26.54212], [91.78041, 26.54314], [91.77991, 26.54467], [91.7806, 26.54811], [91.77978, 26.54835], [91.77692, 26.54919], [91.77559, 26.55071], [91.77419, 26.55232], [91.77397, 26.55257], [91.77283, 26.55457], [91.77253, 26.5551], [91.77224, 26.55561], [91.76802, 26.56305], [91.76741, 26.56413], [91.76735, 26.56424], [91.76727, 26.56438], [91.76707, 26.56474], [91.76711, 26.56553], [91.76716, 26.56653], [91.76725, 26.56836], [91.76573, 26.57033], [91.76281, 26.57411], [91.76004, 26.57651], [91.75918, 26.57642], [91.7586, 26.57636], [91.75816, 26.57632], [91.75809, 26.57632], [91.75799, 26.57631], [91.7573, 26.57624], [91.75679, 26.57619], [91.75486, 26.576], [91.75037, 26.57895], [91.75001, 26.58004], [91.74987, 26.58046], [91.74936, 26.58205], [91.74909, 26.58287], [91.74928, 26.58498], [91.74939, 26.58609], [91.74907, 26.58636], [91.74887, 26.58653], [91.7488, 26.5866], [91.74854, 26.58682], [91.74781, 26.58745], [91.74697, 26.58818], [91.74657, 26.58853], [91.74605, 26.58898], [91.74556, 26.5894], [91.74473, 26.59012], [91.74582, 26.59153], [91.74592, 26.59165], [91.74598, 26.59174], [91.7487, 26.59524], [91.74953, 26.59932], [91.75188, 26.6021], [91.75182, 26.60226], [91.75107, 26.60419], [91.74894, 26.60393], [91.74817, 26.60388], [91.74628, 26.60362], [91.74534, 26.60317], [91.74152, 26.60132], [91.74135, 26.60216], [91.74133, 26.60225], [91.74095, 26.60411], [91.74081, 26.60484], [91.74196, 26.60646], [91.74233, 26.60698], [91.74382, 26.60906], [91.74491, 26.61059], [91.74512, 26.61088], [91.74366, 26.61144], [91.74155, 26.61225], [91.74168, 26.61587], [91.74367, 26.61887], [91.74384, 26.61912], [91.74421, 26.62029], [91.74471, 26.62185], [91.74497, 26.62267], [91.74577, 26.62343], [91.74604, 26.62368], [91.74691, 26.6245], [91.74802, 26.62557], [91.74747, 26.6273], [91.74629, 26.62713], [91.74382, 26.62676], [91.7389, 26.62603], [91.73806, 26.62989], [91.7402, 26.63188], [91.74486, 26.63084], [91.74524, 26.63097], [91.74736, 26.63167], [91.74775, 26.63205], [91.74901, 26.63324], [91.74975, 26.63394], [91.74972, 26.63481], [91.74971, 26.63509], [91.74966, 26.63652], [91.74693, 26.63718], [91.74534, 26.63756], [91.74049, 26.63769], [91.74027, 26.64014], [91.74021, 26.64074], [91.74076, 26.64101], [91.74363, 26.64244], [91.74504, 26.64315], [91.7454, 26.64376], [91.74688, 26.64624], [91.74701, 26.64646], [91.74684, 26.64654], [91.7444, 26.64761], [91.74352, 26.64799], [91.74257, 26.64841], [91.74063, 26.65178], [91.73598, 26.65271], [91.73569, 26.65398], [91.73479, 26.65784], [91.73498, 26.65955], [91.73519, 26.66156], [91.73536, 26.66307], [91.73553, 26.66467], [91.73705, 26.66833], [91.73915, 26.66853], [91.74269, 26.66889], [91.7427, 26.66896], [91.74282, 26.67055], [91.74309, 26.67403], [91.74317, 26.67503], [91.74421, 26.67708], [91.74453, 26.67771], [91.74509, 26.67884], [91.7455, 26.683], [91.74554, 26.68335], [91.74539, 26.68407], [91.74496, 26.68611], [91.74477, 26.68703], [91.7437, 26.6884], [91.74293, 26.68939], [91.74056, 26.69244], [91.74147, 26.6957], [91.74233, 26.6988], [91.74198, 26.69944], [91.73856, 26.70569], [91.73814, 26.70647], [91.7376, 26.70746], [91.73493, 26.71236], [91.73498, 26.71341], [91.73518, 26.71717], [91.7354, 26.7214], [91.73565, 26.72606], [91.73567, 26.72652], [91.73574, 26.72783], [91.73583, 26.72949], [91.73424, 26.73121], [91.73105, 26.73466], [91.72986, 26.73595], [91.72826, 26.73836], [91.72752, 26.73949], [91.72702, 26.74024], [91.72529, 26.74285], [91.72365, 26.74626], [91.72231, 26.74904], [91.72218, 26.74931], [91.72201, 26.74965], [91.72027, 26.75327], [91.72026, 26.75331], [91.72021, 26.75353], [91.7201, 26.75398], [91.71966, 26.75581], [91.71956, 26.75623], [91.71592, 26.77127], [91.71521, 26.7742], [91.71474, 26.77615], [91.71455, 26.77692], [91.71439, 26.7802], [91.7143, 26.78223], [91.71426, 26.78309], [91.71425, 26.78316], [91.71421, 26.78401], [91.71155, 26.78967], [91.71128, 26.79089], [91.71118, 26.79115], [91.71108, 26.79141], [91.71046, 26.79387], [91.70971, 26.79678], [91.70957, 26.79747], [91.70884, 26.80096], [91.70845, 26.80284], [91.70843, 26.80293], [91.70737, 26.80804], [91.70721, 26.80879], [91.70674, 26.81108], [91.70474, 26.8111], [91.69978, 26.81108], [91.68979, 26.80433], [91.68184, 26.804], [91.67596, 26.8064], [91.67345, 26.80743], [91.663, 26.81158], [91.65954, 26.81301], [91.65878, 26.81334], [91.6569, 26.81407], [91.65554, 26.81453], [91.65283, 26.81524], [91.65022, 26.81599], [91.64636, 26.81707], [91.635, 26.82014], [91.62644, 26.82061], [91.61482, 26.81609], [91.60581, 26.80986], [91.60294, 26.80787], [91.60028, 26.80681], [91.59997, 26.80669], [91.59973, 26.8066], [91.59342, 26.80408], [91.59084, 26.80366], [91.56189, 26.79907], [91.56045, 26.79887], [91.55293, 26.79784], [91.54383, 26.79658], [91.54047, 26.79611], [91.54032, 26.79609], [91.53759, 26.79571], [91.53684, 26.79561], [91.53676, 26.7956], [91.53453, 26.79529], [91.53366, 26.79517], [91.5277, 26.79428], [91.51511, 26.7924], [91.51368, 26.79219], [91.51278, 26.79204], [91.51233, 26.79195], [91.49551, 26.78914], [91.48901, 26.79004], [91.481, 26.79117], [91.47677, 26.79369], [91.47057, 26.79739], [91.46223, 26.80359], [91.45738, 26.80719], [91.45039, 26.81128], [91.44605, 26.81363], [91.43946, 26.81668], [91.43565, 26.81918], [91.42334, 26.82726], [91.41893, 26.83009], [91.41862, 26.83029], [91.41127, 26.835], [91.40504, 26.83458], [91.40481, 26.83429], [91.40119, 26.8297], [91.40088, 26.8293], [91.39278, 26.81694], [91.38765, 26.80878], [91.38526, 26.80513], [91.38492, 26.80463], [91.38474, 26.80435], [91.38387, 26.80302], [91.38257, 26.80104], [91.38189, 26.80047], [91.38186, 26.80045], [91.37564, 26.79565], [91.36254, 26.78893], [91.34749, 26.78265], [91.34414, 26.78125], [91.33924, 26.77913], [91.33038, 26.77993], [91.32017, 26.78162], [91.31811, 26.78197], [91.31364, 26.78271], [91.31219, 26.78292], [91.29803, 26.78466], [91.29255, 26.78838], [91.28934, 26.79039], [91.2879, 26.79131], [91.27987, 26.79637], [91.26665, 26.80593], [91.25811, 26.81078], [91.25151, 26.81261], [91.24549, 26.81084], [91.23997, 26.80849], [91.23874, 26.80848], [91.23613, 26.80848], [91.22035, 26.80844], [91.20546, 26.80828], [91.18349, 26.81101], [91.17921, 26.81073], [91.17871, 26.8107], [91.14718, 26.80861], [91.13293, 26.80808], [91.1201, 26.81181], [91.109, 26.81384], [91.09987, 26.81942], [91.09235, 26.81806], [91.07884, 26.80012], [91.07109, 26.79231], [91.06599, 26.78717], [91.0608, 26.78194], [91.05723, 26.7791], [91.04476, 26.77868], [91.03418, 26.78053], [91.0171, 26.7851], [91.00652, 26.78632], [91.00381, 26.78693], [90.99934, 26.78793], [90.9991, 26.78791], [90.99072, 26.7872], [90.97929, 26.78507], [90.96591, 26.78442], [90.96421, 26.78434], [90.95812, 26.78353], [90.95791, 26.78289], [90.95674, 26.7793], [90.95634, 26.77774], [90.95518, 26.77624], [90.95456, 26.77562], [90.9541, 26.77522], [90.95347, 26.7745], [90.9532, 26.77403], [90.9532, 26.77337], [90.95228, 26.77304], [90.95229, 26.77207], [90.95178, 26.77196], [90.95149, 26.77198], [90.95075, 26.77157], [90.95042, 26.77132], [90.94966, 26.77055], [90.94862, 26.76974], [90.94733, 26.76833], [90.9464, 26.76741], [90.94569, 26.76668], [90.94545, 26.76623], [90.94504, 26.76564], [90.9443, 26.76529], [90.94347, 26.76489], [90.94288, 26.76411], [90.94206, 26.76314], [90.94121, 26.76283], [90.93947, 26.76211], [90.93861, 26.76087], [90.93775, 26.75883], [90.93705, 26.75786], [90.93651, 26.75713], [90.93535, 26.75562], [90.93452, 26.75492], [90.93231, 26.75317], [90.93107, 26.75262], [90.93031, 26.75089], [90.92915, 26.74822], [90.92933, 26.74627], [90.92878, 26.74461], [90.9278, 26.744], [90.92599, 26.74289], [90.92389, 26.74152], [90.92314, 26.74088], [90.92284, 26.74005], [90.92284, 26.73883], [90.92276, 26.73779], [90.92238, 26.73694], [90.92171, 26.73638], [90.92087, 26.73484], [90.92072, 26.73299], [90.91963, 26.73189], [90.91893, 26.73091], [90.91845, 26.72989], [90.91812, 26.72889], [90.91755, 26.72819], [90.91674, 26.72738], [90.91609, 26.72664], [90.91581, 26.72597], [90.91572, 26.72525], [90.91558, 26.72426], [90.91546, 26.72325], [90.91545, 26.72203], [90.91549, 26.72095], [90.91529, 26.72012], [90.91501, 26.71933], [90.91487, 26.71861], [90.91504, 26.71776], [90.91555, 26.71669], [90.9164, 26.71552], [90.91702, 26.71456], [90.9174, 26.71365], [90.91744, 26.71193], [90.91731, 26.71047], [90.91682, 26.70928], [90.9154, 26.70799], [90.91416, 26.70716], [90.91325, 26.70549], [90.91267, 26.70341], [90.91206, 26.70141], [90.91133, 26.69993], [90.9107, 26.69798], [90.90995, 26.69614], [90.90882, 26.69491], [90.90782, 26.6941], [90.90612, 26.69316], [90.90405, 26.69207], [90.90239, 26.69108], [90.90168, 26.69042], [90.90137, 26.68981], [90.90141, 26.68866], [90.90093, 26.68761], [90.90053, 26.68672], [90.90031, 26.68603], [90.90101, 26.68468], [90.9018, 26.68347], [90.90209, 26.68286], [90.90226, 26.68259], [90.90174, 26.68174], [90.90092, 26.68035], [90.90005, 26.67872], [90.89949, 26.67794], [90.89921, 26.67749], [90.89917, 26.67742], [90.89908, 26.67727], [90.89653, 26.66991], [90.89596, 26.66617], [90.89664, 26.66398], [90.88372, 26.65876], [90.88345, 26.65847], [90.87803, 26.65269], [90.87537, 26.64281], [90.87537, 26.64107], [90.87537, 26.63865], [90.87537, 26.6384], [90.87537, 26.63741], [90.87537, 26.63712], [90.87576, 26.63166], [90.87613, 26.62648], [90.87776, 26.62094], [90.87788, 26.62053], [90.87803, 26.62003], [90.88005, 26.61942], [90.88125, 26.62026], [90.88473, 26.62113], [90.88541, 26.6213], [90.88588, 26.62142], [90.8862, 26.62157], [90.88887, 26.62285], [90.89236, 26.62452], [90.89274, 26.6247], [90.89283, 26.62475], [90.89329, 26.62522], [90.89367, 26.62562], [90.89754, 26.62963], [90.89946, 26.63161], [90.90276, 26.62973], [90.90341, 26.62936], [90.90575, 26.62817], [90.90761, 26.62778], [90.90825, 26.6275], [90.91541, 26.6243], [90.91751, 26.62299], [90.91951, 26.62174], [90.92147, 26.62051], [90.92419, 26.61881], [90.92887, 26.61589], [90.92966, 26.61405], [90.92987, 26.61355], [90.93139, 26.61001], [90.92971, 26.5974], [90.92654, 26.59344], [90.92634, 26.59319], [90.92117, 26.58802], [90.91831, 26.58516], [90.9171, 26.58395], [90.91582, 26.58216], [90.91435, 26.5801], [90.91289, 26.57806], [90.91329, 26.57053], [90.91367, 26.5633], [90.91373, 26.56209], [90.91476, 26.55977], [90.91622, 26.55649], [90.91761, 26.55335], [90.9196, 26.54887], [90.91971, 26.54863], [90.92046, 26.54695], [90.92575, 26.54431], [90.93055, 26.54191], [90.9369, 26.54418], [90.94232, 26.54611], [90.94233, 26.54618], [90.94405, 26.55711], [90.94406, 26.55717], [90.94484, 26.56209], [90.94965, 26.56529], [90.95493, 26.56881], [90.956, 26.56868], [90.95747, 26.56849], [90.96083, 26.56807], [90.96165, 26.56797], [90.96169, 26.56772], [90.96231, 26.564], [90.96334, 26.55788], [90.96433, 26.557], [90.9709, 26.55116], [90.97849, 26.55362], [90.97895, 26.55365], [90.97931, 26.55368], [90.97913, 26.55439], [90.97887, 26.5554], [90.97813, 26.56193], [90.97763, 26.56545], [90.97931, 26.57386], [90.98228, 26.57224], [90.98349, 26.57158], [90.98852, 26.56883], [90.98856, 26.56881], [90.98886, 26.56373], [90.98916, 26.55858], [90.9894, 26.55452], [90.98599, 26.5448], [90.98413, 26.53948], [90.98351, 26.53771], [90.98191, 26.53578], [90.97511, 26.52762], [90.97462, 26.52692], [90.97062, 26.52121], [90.97002, 26.52035], [90.96999, 26.52031], [90.96922, 26.51921], [90.96978, 26.51856], [90.97101, 26.51712], [90.97184, 26.51615], [90.972, 26.51597], [90.97228, 26.51564], [90.97264, 26.51522], [90.97305, 26.51474], [90.97427, 26.51333], [90.97718, 26.51333], [90.98435, 26.51333], [90.98685, 26.51687], [90.99379, 26.5267], [90.99444, 26.52762], [90.99493, 26.53056], [90.99619, 26.5381], [90.99741, 26.54538], [90.99781, 26.5478], [90.99835, 26.54915], [90.99956, 26.55219], [90.9996, 26.55228], [91.00232, 26.55908], [91.00285, 26.56041], [91.00498, 26.56117], [91.00504, 26.56119], [91.01308, 26.56406], [91.01462, 26.56461], [91.01495, 26.5646], [91.02142, 26.56435], [91.02147, 26.56435], [91.02724, 26.56413], [91.03648, 26.56377], [91.0393, 26.56467], [91.04287, 26.56581], [91.04375, 26.56506], [91.05009, 26.55967], [91.05555, 26.55504], [91.05785, 26.55309], [91.0617, 26.55168], [91.06659, 26.54989], [91.07304, 26.54752], [91.07726, 26.54597], [91.07734, 26.54594], [91.07868, 26.54545], [91.09468, 26.54109], [91.10159, 26.5392], [91.10502, 26.53996], [91.10731, 26.54047], [91.11409, 26.54198], [91.11493, 26.54228], [91.115, 26.5423], [91.1259, 26.54615], [91.1339, 26.55281], [91.13423, 26.55309], [91.13898, 26.56157], [91.13902, 26.56164], [91.14072, 26.56469], [91.14076, 26.56476], [91.14179, 26.56659], [91.14166, 26.56713], [91.14165, 26.56719], [91.14139, 26.56828], [91.1425, 26.56951], [91.14345, 26.57183], [91.14425, 26.57427], [91.14428, 26.57456], [91.14432, 26.57501], [91.14447, 26.57677], [91.14455, 26.57707], [91.14513, 26.5792], [91.14535, 26.58071], [91.14523, 26.58133], [91.14489, 26.58303], [91.14455, 26.58336], [91.14352, 26.58343], [91.14311, 26.58346], [91.14184, 26.58332], [91.1418, 26.5836], [91.14174, 26.58406], [91.14245, 26.58461], [91.14303, 26.58506], [91.14326, 26.58545], [91.1435, 26.58586], [91.14313, 26.5859], [91.14291, 26.58592], [91.14234, 26.58598], [91.14178, 26.58691], [91.14203, 26.58709], [91.14322, 26.58793], [91.14385, 26.58852], [91.14411, 26.58877], [91.14396, 26.58897], [91.14359, 26.58946], [91.14213, 26.58967], [91.14167, 26.59099], [91.1417, 26.59296], [91.14166, 26.59432], [91.14256, 26.59516], [91.14257, 26.59536], [91.14262, 26.59578], [91.142, 26.59605], [91.1417, 26.59618], [91.1422, 26.59661], [91.14365, 26.59788], [91.14327, 26.59857], [91.14249, 26.59852], [91.14073, 26.5984], [91.14013, 26.59836], [91.14066, 26.59879], [91.14182, 26.59975], [91.14258, 26.6], [91.14348, 26.6003], [91.14358, 26.60179], [91.14264, 26.60253], [91.14247, 26.60266], [91.14192, 26.60303], [91.14105, 26.60362], [91.14061, 26.60493], [91.14137, 26.60575], [91.14172, 26.60641], [91.14072, 26.60753], [91.14057, 26.60875], [91.14192, 26.60961], [91.14076, 26.61046], [91.14044, 26.6107], [91.14099, 26.61136], [91.14189, 26.61264], [91.14215, 26.613], [91.1436, 26.61339], [91.14558, 26.61616], [91.14739, 26.61746], [91.14807, 26.61795], [91.14838, 26.6182], [91.14993, 26.61943], [91.15064, 26.62033], [91.15029, 26.6211], [91.14904, 26.62131], [91.14821, 26.62159], [91.14809, 26.62163], [91.14723, 26.6218], [91.14602, 26.62294], [91.14582, 26.62319], [91.14546, 26.62361], [91.1454, 26.62369], [91.14559, 26.62417], [91.14678, 26.62721], [91.14353, 26.62864], [91.1423, 26.62918], [91.14158, 26.6295], [91.13954, 26.63114], [91.13922, 26.63271], [91.13741, 26.63234], [91.13633, 26.63212], [91.13606, 26.63469], [91.13816, 26.63497], [91.13943, 26.63514], [91.13941, 26.6357], [91.13933, 26.63807], [91.13918, 26.6422], [91.13892, 26.64313], [91.13878, 26.64365], [91.13824, 26.64558], [91.13753, 26.65], [91.1377, 26.65001], [91.13799, 26.65373], [91.1382, 26.65651], [91.13833, 26.65791], [91.13854, 26.66016], [91.14839, 26.65664], [91.14985, 26.65612], [91.15127, 26.65561], [91.1535, 26.65482], [91.16086, 26.64746], [91.16573, 26.64259], [91.16646, 26.64186], [91.16739, 26.64093], [91.16804, 26.63968], [91.16902, 26.63779], [91.17123, 26.63353], [91.17361, 26.62894], [91.17711, 26.62218], [91.17818, 26.62069], [91.17845, 26.62031], [91.18143, 26.61618], [91.18375, 26.61296], [91.18746, 26.6078], [91.18961, 26.60482], [91.20002, 26.60135], [91.20029, 26.60136], [91.20083, 26.60139], [91.20117, 26.60141], [91.20371, 26.60155], [91.20377, 26.60155], [91.20726, 26.60175], [91.20903, 26.60184], [91.21252, 26.60204], [91.2143, 26.60402], [91.21693, 26.60694], [91.21778, 26.60789], [91.21877, 26.60899], [91.21971, 26.60979], [91.224, 26.61347], [91.22849, 26.61732], [91.23052, 26.6179], [91.23383, 26.61883], [91.23759, 26.61989], [91.2385, 26.62015], [91.24169, 26.62105], [91.2406, 26.62069], [91.2402, 26.61718], [91.24017, 26.6169], [91.24045, 26.61613], [91.24062, 26.61565], [91.24152, 26.61314], [91.24561, 26.61428], [91.24813, 26.61498], [91.24849, 26.61508], [91.2489, 26.61519], [91.25093, 26.61575], [91.25184, 26.61601], [91.25567, 26.61707], [91.26677, 26.62014], [91.26618, 26.61865], [91.26362, 26.61221], [91.26291, 26.61043], [91.26276, 26.61005], [91.26273, 26.60997], [91.25926, 26.60125], [91.25924, 26.6012], [91.25782, 26.59763], [91.25556, 26.59419], [91.25425, 26.5922], [91.2529, 26.59199], [91.24786, 26.59123], [91.24333, 26.59173], [91.24207, 26.58933], [91.2415, 26.58824], [91.24219, 26.5879], [91.24506, 26.58648], [91.2479, 26.58508], [91.24861, 26.58473], [91.2517, 26.58442], [91.25232, 26.58435], [91.25827, 26.58375], [91.25856, 26.58372], [91.26188, 26.58338], [91.26217, 26.58335], [91.26709, 26.58285], [91.26803, 26.58275], [91.26867, 26.58269], [91.2743, 26.58212], [91.2797, 26.58156], [91.27978, 26.58155], [91.28324, 26.5812], [91.28563, 26.58096], [91.29078, 26.58043], [91.29131, 26.58038], [91.29306, 26.58021], [91.29419, 26.57403], [91.29456, 26.57203], [91.29612, 26.56943], [91.29488, 26.56819], [91.29321, 26.56652], [91.29317, 26.56232], [91.29249, 26.56195], [91.29316, 26.56189], [91.29311, 26.55887], [91.293, 26.55108], [91.29299, 26.55074], [91.29296, 26.54908], [91.29294, 26.54885], [91.29206, 26.53647], [91.29177, 26.53248], [91.29164, 26.53128], [91.29019, 26.51786], [91.29028, 26.51728], [91.2903, 26.51715], [91.29292, 26.50113], [91.29296, 26.50087], [91.29539, 26.4983], [91.29545, 26.49824], [91.29845, 26.49505], [91.29967, 26.49376], [91.30104, 26.49334], [91.30876, 26.49099], [91.30918, 26.49081], [91.30929, 26.49077], [91.31186, 26.4897], [91.31355, 26.489], [91.32009, 26.48629], [91.32017, 26.48626], [91.32066, 26.48605], [91.32218, 26.48676], [91.3253, 26.48583], [91.32555, 26.48575], [91.326, 26.48562], [91.32659, 26.48552], [91.32823, 26.48526], [91.33088, 26.48483], [91.33293, 26.48445], [91.33362, 26.48432], [91.33635, 26.48381], [91.34011, 26.48336], [91.34148, 26.48326], [91.34213, 26.48321], [91.34267, 26.48317], [91.34235, 26.48293], [91.34251, 26.48172], [91.34273, 26.48088], [91.34304, 26.47972], [91.34388, 26.47802], [91.34424, 26.4773], [91.34778, 26.47726], [91.35078, 26.47722], [91.3539, 26.47741], [91.35388, 26.47724], [91.35374, 26.47565], [91.35317, 26.47448], [91.35286, 26.47384], [91.3522, 26.47258], [91.35265, 26.47126], [91.35329, 26.4705], [91.35551, 26.46929], [91.35744, 26.46928], [91.35922, 26.46939], [91.36154, 26.46739], [91.36183, 26.46731], [91.36313, 26.46695], [91.36555, 26.46629], [91.36552, 26.46701], [91.36591, 26.46928], [91.36593, 26.46937], [91.36622, 26.47102], [91.36691, 26.47208], [91.36742, 26.47285], [91.37002, 26.47406], [91.37054, 26.47423], [91.37134, 26.47449], [91.37312, 26.47507], [91.37392, 26.47538], [91.37404, 26.47542], [91.37495, 26.47576], [91.37592, 26.47664], [91.37606, 26.47719], [91.37679, 26.48007], [91.37794, 26.48265], [91.37818, 26.48319], [91.37947, 26.48443], [91.38193, 26.48667], [91.38269, 26.48838], [91.38304, 26.48918], [91.38379, 26.49118], [91.38438, 26.49275], [91.38457, 26.4938], [91.38488, 26.49544], [91.38431, 26.49901], [91.38341, 26.50129], [91.38139, 26.50292], [91.38112, 26.50318], [91.38024, 26.50398], [91.37935, 26.50479], [91.37917, 26.50563], [91.37879, 26.50732], [91.37834, 26.50956], [91.37816, 26.51043], [91.37721, 26.51143], [91.37649, 26.5122], [91.37468, 26.51512], [91.37463, 26.51533], [91.37416, 26.51742], [91.37475, 26.5204], [91.37477, 26.52051], [91.37481, 26.52069], [91.37484, 26.52083], [91.37637, 26.52427], [91.37692, 26.525], [91.37828, 26.52681], [91.37846, 26.52705], [91.379, 26.52777], [91.38308, 26.53055], [91.38466, 26.53066], [91.38609, 26.53076], [91.39033, 26.53106], [91.39175, 26.53121], [91.39998, 26.53206], [91.40018, 26.53209], [91.40447, 26.53269], [91.40462, 26.53271], [91.4083, 26.53323], [91.41092, 26.53361], [91.41261, 26.53382], [91.41459, 26.53407], [91.41788, 26.53448], [91.41959, 26.53469], [91.42248, 26.53513], [91.4232, 26.53524], [91.42699, 26.5356], [91.42767, 26.53567], [91.42828, 26.53573], [91.42924, 26.53559], [91.42946, 26.53456], [91.42749, 26.53179], [91.42722, 26.53141], [91.42669, 26.52952], [91.42662, 26.52778], [91.42692, 26.52754], [91.42702, 26.52745], [91.42927, 26.52786], [91.43168, 26.5283], [91.43469, 26.52987], [91.43808, 26.53182], [91.43987, 26.53285], [91.44244, 26.53407], [91.44611, 26.53581], [91.44802, 26.53671], [91.45354, 26.53952], [91.4571, 26.54133], [91.45991, 26.54256], [91.46835, 26.54624], [91.47405, 26.54854], [91.4773, 26.54985], [91.47959, 26.55094], [91.48172, 26.55195], [91.4843, 26.55318], [91.48442, 26.55324], [91.48504, 26.55353], [91.4865, 26.55413], [91.48775, 26.55465], [91.49262, 26.55727], [91.49322, 26.5576], [91.49658, 26.55882], [91.49835, 26.55947], [91.49992, 26.56005], [91.50152, 26.56064], [91.50693, 26.56185], [91.51023, 26.56235], [91.51443, 26.56298], [91.51874, 26.5633], [91.52285, 26.56361], [91.52862, 26.56397], [91.53068, 26.5641], [91.53172, 26.56432], [91.53188, 26.56436], [91.5328, 26.56456], [91.53386, 26.56479], [91.53575, 26.56521], [91.54216, 26.56669], [91.54339, 26.56691], [91.54369, 26.56696], [91.54374, 26.56697], [91.54437, 26.56709], [91.5453, 26.56726], [91.54737, 26.56764], [91.5506, 26.56867], [91.5513, 26.56881], [91.5526, 26.56908], [91.55782, 26.57015], [91.55817, 26.57025], [91.55914, 26.57052], [91.56113, 26.57108], [91.56509, 26.57221], [91.56855, 26.5732], [91.5689, 26.57334], [91.56922, 26.57346], [91.57395, 26.5753], [91.57533, 26.57583], [91.57609, 26.57622], [91.57868, 26.57754], [91.57909, 26.57775], [91.5797, 26.5779], [91.58132, 26.5783], [91.58314, 26.57811], [91.58363, 26.57726], [91.58338, 26.5755], [91.58331, 26.57533], [91.58247, 26.57318], [91.58226, 26.572], [91.5826, 26.57195], [91.58339, 26.57183], [91.58481, 26.5719], [91.58533, 26.57192], [91.5856, 26.57174], [91.58614, 26.57137], [91.58685, 26.56978], [91.58664, 26.56828], [91.58631, 26.56593], [91.58598, 26.56354], [91.58608, 26.56285]]]}}]}