{"type": "FeatureCollection", "features": [{"type": "Feature", "properties": {"Name": "Barpeta"}, "geometry": {"type": "Polygon", "coordinates": [[[90.93806, 26.09399], [90.94421, 26.0945], [90.95083, 26.09506], [90.95246, 26.0952], [90.95726, 26.09712], [90.95825, 26.09785], [90.9611, 26.09994], [90.96851, 26.10537], [90.96854, 26.10539], [90.96948, 26.10608], [90.97114, 26.1073], [90.97472, 26.11168], [90.98624, 26.12022], [90.99079, 26.12442], [90.99909, 26.12722], [91.00417, 26.12958], [91.00813, 26.12879], [91.0085, 26.12863], [91.01195, 26.12709], [91.01283, 26.1267], [91.01454, 26.12594], [91.01844, 26.12421], [91.01969, 26.12366], [91.02033, 26.12337], [91.02148, 26.12272], [91.02342, 26.12161], [91.02541, 26.12049], [91.02548, 26.12045], [91.02692, 26.11963], [91.03324, 26.12102], [91.03568, 26.12314], [91.03639, 26.12375], [91.03811, 26.12524], [91.03889, 26.12559], [91.04131, 26.1267], [91.04469, 26.12824], [91.04483, 26.12825], [91.04753, 26.12838], [91.04998, 26.1285], [91.05067, 26.12854], [91.05137, 26.12918], [91.05285, 26.13055], [91.05369, 26.13133], [91.054, 26.1336], [91.05424, 26.13535], [91.05463, 26.1358], [91.05778, 26.13952], [91.05942, 26.14106], [91.06487, 26.14618], [91.06549, 26.14677], [91.07186, 26.15274], [91.07428, 26.15501], [91.07563, 26.15628], [91.07709, 26.15706], [91.0828, 26.16013], [91.09288, 26.16401], [91.0957, 26.16336], [91.09862, 26.16269], [91.10161, 26.16201], [91.10196, 26.16193], [91.10287, 26.16145], [91.10455, 26.1606], [91.10523, 26.16025], [91.10781, 26.15892], [91.10958, 26.158], [91.11223, 26.15664], [91.11266, 26.15642], [91.11307, 26.15621], [91.11433, 26.15556], [91.11508, 26.15518], [91.11542, 26.155], [91.11608, 26.15466], [91.1181, 26.15362], [91.12325, 26.15538], [91.12726, 26.15674], [91.13095, 26.158], [91.13259, 26.15855], [91.14792, 26.15956], [91.15539, 26.16345], [91.16018, 26.16595], [91.16451, 26.16821], [91.16711, 26.16957], [91.17033, 26.17045], [91.18267, 26.17386], [91.18874, 26.17471], [91.18908, 26.17476], [91.21468, 26.17837], [91.22118, 26.17929], [91.22709, 26.18012], [91.23569, 26.18237], [91.24115, 26.18093], [91.2424, 26.18934], [91.2428, 26.19202], [91.25052, 26.19931], [91.24959, 26.19991], [91.24921, 26.20015], [91.24858, 26.20055], [91.24376, 26.20363], [91.23898, 26.20973], [91.23718, 26.21203], [91.23554, 26.21273], [91.23039, 26.21491], [91.22701, 26.21533], [91.2423, 26.23037], [91.24407, 26.23377], [91.24494, 26.23574], [91.24557, 26.23718], [91.24611, 26.23821], [91.2434, 26.23986], [91.23499, 26.24619], [91.23454, 26.24674], [91.24016, 26.25169], [91.24156, 26.25674], [91.24064, 26.25832], [91.2396, 26.26007], [91.23887, 26.26131], [91.23806, 26.26157], [91.23599, 26.26225], [91.23558, 26.26238], [91.23196, 26.26236], [91.22692, 26.26234], [91.22684, 26.26249], [91.22808, 26.26281], [91.22983, 26.26355], [91.23039, 26.26379], [91.23059, 26.26423], [91.23125, 26.26568], [91.23171, 26.26668], [91.23186, 26.27017], [91.23191, 26.27037], [91.23259, 26.2729], [91.23279, 26.27382], [91.23298, 26.27478], [91.23146, 26.27684], [91.23071, 26.27826], [91.23032, 26.27908], [91.22923, 26.28095], [91.23457, 26.27914], [91.23786, 26.27808], [91.23755, 26.2759], [91.23868, 26.27682], [91.23964, 26.27741], [91.24191, 26.27832], [91.24515, 26.27961], [91.24696, 26.28033], [91.24875, 26.28104], [91.24592, 26.28353], [91.24583, 26.28354], [91.24373, 26.28367], [91.24252, 26.28375], [91.24168, 26.28515], [91.24084, 26.28664], [91.24064, 26.28818], [91.23996, 26.28975], [91.24034, 26.29187], [91.23991, 26.29292], [91.23994, 26.29324], [91.24003, 26.29434], [91.23963, 26.29529], [91.24051, 26.29589], [91.24365, 26.29771], [91.24498, 26.29846], [91.24632, 26.29922], [91.24837, 26.30038], [91.25062, 26.30226], [91.25143, 26.30253], [91.25159, 26.30276], [91.25258, 26.30369], [91.25296, 26.30741], [91.25304, 26.30825], [91.25267, 26.31045], [91.25458, 26.31153], [91.25746, 26.31387], [91.25879, 26.31527], [91.25843, 26.31566], [91.25843, 26.31571], [91.25845, 26.31749], [91.25952, 26.3194], [91.25936, 26.32032], [91.25892, 26.32184], [91.25876, 26.32239], [91.2583, 26.32483], [91.25805, 26.32618], [91.25772, 26.3284], [91.25847, 26.33004], [91.25856, 26.33024], [91.25984, 26.33147], [91.26082, 26.33144], [91.26049, 26.33252], [91.26032, 26.33308], [91.25992, 26.33593], [91.25822, 26.33866], [91.2563, 26.34066], [91.2556, 26.34095], [91.25601, 26.34366], [91.25741, 26.34744], [91.25944, 26.3505], [91.26062, 26.35221], [91.26045, 26.35233], [91.26006, 26.35541], [91.25998, 26.35661], [91.25993, 26.35734], [91.26254, 26.35985], [91.26437, 26.36112], [91.26429, 26.36227], [91.26422, 26.36322], [91.26412, 26.36472], [91.26391, 26.36787], [91.26201, 26.36779], [91.25684, 26.36758], [91.25491, 26.3675], [91.25048, 26.36733], [91.25008, 26.36731], [91.25007, 26.36771], [91.25005, 26.36868], [91.25005, 26.36885], [91.24934, 26.36924], [91.24864, 26.36963], [91.24692, 26.36884], [91.24685, 26.36978], [91.24597, 26.3693], [91.24538, 26.36895], [91.24369, 26.36796], [91.24283, 26.36745], [91.24171, 26.36662], [91.24164, 26.36657], [91.24071, 26.36606], [91.2389, 26.366], [91.23784, 26.36597], [91.23678, 26.36594], [91.23633, 26.36585], [91.23187, 26.36496], [91.22741, 26.36444], [91.22875, 26.36642], [91.22871, 26.36696], [91.22859, 26.36875], [91.22857, 26.36895], [91.22858, 26.36909], [91.22863, 26.36961], [91.22876, 26.37123], [91.22901, 26.37425], [91.22904, 26.37466], [91.22909, 26.37526], [91.22915, 26.37603], [91.2279, 26.3771], [91.22579, 26.37888], [91.22521, 26.37862], [91.22439, 26.37919], [91.22397, 26.37949], [91.22324, 26.38155], [91.22427, 26.38231], [91.22459, 26.38254], [91.22515, 26.38291], [91.22601, 26.38348], [91.22943, 26.38574], [91.23247, 26.38804], [91.23309, 26.38848], [91.2355, 26.39042], [91.23654, 26.39229], [91.23703, 26.39439], [91.2375, 26.39639], [91.23761, 26.39688], [91.23811, 26.39784], [91.23904, 26.39964], [91.2397, 26.40092], [91.23987, 26.40124], [91.24029, 26.40205], [91.24093, 26.40329], [91.24078, 26.40427], [91.24073, 26.40457], [91.24027, 26.40757], [91.24017, 26.40819], [91.23981, 26.41049], [91.23956, 26.41209], [91.23901, 26.41561], [91.24023, 26.41604], [91.24522, 26.41468], [91.24816, 26.41465], [91.25211, 26.41564], [91.25452, 26.41641], [91.25521, 26.41757], [91.25449, 26.4196], [91.25375, 26.42201], [91.25402, 26.42267], [91.25517, 26.42383], [91.25602, 26.42445], [91.2559, 26.4245], [91.25496, 26.42492], [91.25396, 26.42535], [91.25218, 26.4269], [91.25065, 26.42912], [91.25064, 26.42917], [91.24996, 26.43259], [91.24965, 26.43351], [91.24958, 26.43373], [91.24935, 26.43444], [91.24811, 26.43598], [91.24787, 26.43628], [91.24671, 26.43638], [91.24637, 26.43641], [91.24503, 26.43603], [91.24408, 26.43576], [91.24363, 26.43545], [91.2409, 26.43361], [91.24078, 26.43344], [91.23777, 26.42941], [91.2374, 26.42871], [91.23588, 26.42583], [91.23615, 26.42445], [91.23434, 26.42406], [91.23437, 26.42517], [91.2345, 26.43179], [91.23457, 26.43562], [91.2346, 26.43693], [91.23462, 26.43798], [91.23466, 26.43987], [91.23525, 26.44088], [91.23765, 26.44495], [91.23882, 26.44693], [91.23998, 26.44891], [91.24004, 26.45013], [91.24013, 26.45173], [91.24015, 26.45209], [91.24031, 26.45523], [91.24093, 26.4558], [91.24286, 26.45754], [91.24506, 26.45953], [91.24547, 26.4599], [91.24721, 26.46148], [91.25048, 26.46444], [91.25185, 26.46568], [91.25326, 26.46695], [91.256, 26.47071], [91.25703, 26.47212], [91.25711, 26.47223], [91.2576, 26.4729], [91.2586, 26.47427], [91.26115, 26.47776], [91.26187, 26.47875], [91.26266, 26.47983], [91.26313, 26.48048], [91.26656, 26.48517], [91.26718, 26.48602], [91.2681, 26.48729], [91.26822, 26.48946], [91.26825, 26.49005], [91.26826, 26.49012], [91.26843, 26.4932], [91.26757, 26.49441], [91.26505, 26.49794], [91.2646, 26.49849], [91.2642, 26.49896], [91.26377, 26.49946], [91.26045, 26.50335], [91.25695, 26.50546], [91.25494, 26.50668], [91.2542, 26.50713], [91.25225, 26.50832], [91.25129, 26.50889], [91.2512, 26.50895], [91.24967, 26.50989], [91.25004, 26.51182], [91.25026, 26.51298], [91.25074, 26.5155], [91.25093, 26.51649], [91.25109, 26.51735], [91.25112, 26.51829], [91.25125, 26.52335], [91.25128, 26.52449], [91.25132, 26.52627], [91.25188, 26.53008], [91.25235, 26.53325], [91.25237, 26.5334], [91.25257, 26.53471], [91.25359, 26.53549], [91.25535, 26.53689], [91.25624, 26.5376], [91.25685, 26.53919], [91.25697, 26.53951], [91.25756, 26.54104], [91.25944, 26.54142], [91.26069, 26.54167], [91.26255, 26.54204], [91.26435, 26.54373], [91.26669, 26.54344], [91.26675, 26.54343], [91.26831, 26.54324], [91.26782, 26.54518], [91.26742, 26.54675], [91.26739, 26.54687], [91.26753, 26.54687], [91.27052, 26.5469], [91.27025, 26.54951], [91.27011, 26.55082], [91.27009, 26.55099], [91.27006, 26.55128], [91.27221, 26.55116], [91.27517, 26.551], [91.27529, 26.55099], [91.27778, 26.55284], [91.27853, 26.5534], [91.28041, 26.55479], [91.28333, 26.55695], [91.28379, 26.55729], [91.28878, 26.55996], [91.29249, 26.56195], [91.29317, 26.56232], [91.29321, 26.56652], [91.29488, 26.56819], [91.29612, 26.56943], [91.29456, 26.57203], [91.29419, 26.57403], [91.29306, 26.58021], [91.29131, 26.58038], [91.29078, 26.58043], [91.28563, 26.58096], [91.28324, 26.5812], [91.27978, 26.58155], [91.2797, 26.58156], [91.2743, 26.58212], [91.26867, 26.58269], [91.26803, 26.58275], [91.26709, 26.58285], [91.26217, 26.58335], [91.26188, 26.58338], [91.25856, 26.58372], [91.25827, 26.58375], [91.25232, 26.58435], [91.2517, 26.58442], [91.24861, 26.58473], [91.2479, 26.58508], [91.24506, 26.58648], [91.24219, 26.5879], [91.2415, 26.58824], [91.24207, 26.58933], [91.24333, 26.59173], [91.24786, 26.59123], [91.2529, 26.59199], [91.25425, 26.5922], [91.25556, 26.59419], [91.25782, 26.59763], [91.25924, 26.6012], [91.25926, 26.60125], [91.26273, 26.60997], [91.26276, 26.61005], [91.26291, 26.61043], [91.26362, 26.61221], [91.26618, 26.61865], [91.26677, 26.62014], [91.25567, 26.61707], [91.25184, 26.61601], [91.25093, 26.61575], [91.2489, 26.61519], [91.24849, 26.61508], [91.24813, 26.61498], [91.24561, 26.61428], [91.24152, 26.61314], [91.24062, 26.61565], [91.24045, 26.61613], [91.24017, 26.6169], [91.2402, 26.61718], [91.2406, 26.62069], [91.24169, 26.62105], [91.2385, 26.62015], [91.23759, 26.61989], [91.23383, 26.61883], [91.23052, 26.6179], [91.22849, 26.61732], [91.224, 26.61347], [91.21971, 26.60979], [91.21877, 26.60899], [91.21778, 26.60789], [91.21693, 26.60694], [91.2143, 26.60402], [91.21252, 26.60204], [91.20903, 26.60184], [91.20726, 26.60175], [91.20377, 26.60155], [91.20371, 26.60155], [91.20117, 26.60141], [91.20083, 26.60139], [91.20029, 26.60136], [91.20002, 26.60135], [91.18961, 26.60482], [91.18746, 26.6078], [91.18375, 26.61296], [91.18143, 26.61618], [91.17845, 26.62031], [91.17818, 26.62069], [91.17711, 26.62218], [91.17361, 26.62894], [91.17123, 26.63353], [91.16902, 26.63779], [91.16804, 26.63968], [91.16739, 26.64093], [91.16646, 26.64186], [91.16573, 26.64259], [91.16086, 26.64746], [91.1535, 26.65482], [91.15127, 26.65561], [91.14985, 26.65612], [91.14839, 26.65664], [91.13854, 26.66016], [91.13833, 26.65791], [91.1382, 26.65651], [91.13799, 26.65373], [91.1377, 26.65001], [91.13753, 26.65], [91.13824, 26.64558], [91.13878, 26.64365], [91.13892, 26.64313], [91.13918, 26.6422], [91.13933, 26.63807], [91.13941, 26.6357], [91.13943, 26.63514], [91.13816, 26.63497], [91.13606, 26.63469], [91.13633, 26.63212], [91.13741, 26.63234], [91.13922, 26.63271], [91.13954, 26.63114], [91.14158, 26.6295], [91.1423, 26.62918], [91.14353, 26.62864], [91.14678, 26.62721], [91.14559, 26.62417], [91.1454, 26.62369], [91.14546, 26.62361], [91.14582, 26.62319], [91.14602, 26.62294], [91.14723, 26.6218], [91.14809, 26.62163], [91.14821, 26.62159], [91.14904, 26.62131], [91.15029, 26.6211], [91.15064, 26.62033], [91.14993, 26.61943], [91.14838, 26.6182], [91.14807, 26.61795], [91.14739, 26.61746], [91.14558, 26.61616], [91.1436, 26.61339], [91.14215, 26.613], [91.14189, 26.61264], [91.14099, 26.61136], [91.14044, 26.6107], [91.14076, 26.61046], [91.14192, 26.60961], [91.14057, 26.60875], [91.14072, 26.60753], [91.14172, 26.60641], [91.14137, 26.60575], [91.14061, 26.60493], [91.14105, 26.60362], [91.14192, 26.60303], [91.14247, 26.60266], [91.14264, 26.60253], [91.14358, 26.60179], [91.14348, 26.6003], [91.14258, 26.6], [91.14182, 26.59975], [91.14066, 26.59879], [91.14013, 26.59836], [91.14073, 26.5984], [91.14249, 26.59852], [91.14327, 26.59857], [91.14365, 26.59788], [91.1422, 26.59661], [91.1417, 26.59618], [91.142, 26.59605], [91.14262, 26.59578], [91.14257, 26.59536], [91.14256, 26.59516], [91.14166, 26.59432], [91.1417, 26.59296], [91.14167, 26.59099], [91.14213, 26.58967], [91.14359, 26.58946], [91.14396, 26.58897], [91.14411, 26.58877], [91.14385, 26.58852], [91.14322, 26.58793], [91.14203, 26.58709], [91.14178, 26.58691], [91.14234, 26.58598], [91.14291, 26.58592], [91.14313, 26.5859], [91.1435, 26.58586], [91.14326, 26.58545], [91.14303, 26.58506], [91.14245, 26.58461], [91.14174, 26.58406], [91.1418, 26.5836], [91.14184, 26.58332], [91.14311, 26.58346], [91.14352, 26.58343], [91.14455, 26.58336], [91.14489, 26.58303], [91.14523, 26.58133], [91.14535, 26.58071], [91.14513, 26.5792], [91.14455, 26.57707], [91.14447, 26.57677], [91.14432, 26.57501], [91.14428, 26.57456], [91.14425, 26.57427], [91.14345, 26.57183], [91.1425, 26.56951], [91.14139, 26.56828], [91.14165, 26.56719], [91.14166, 26.56713], [91.14179, 26.56659], [91.14076, 26.56476], [91.14072, 26.56469], [91.13902, 26.56164], [91.13898, 26.56157], [91.13423, 26.55309], [91.1339, 26.55281], [91.1259, 26.54615], [91.115, 26.5423], [91.11493, 26.54228], [91.11409, 26.54198], [91.10731, 26.54047], [91.10502, 26.53996], [91.10159, 26.5392], [91.09468, 26.54109], [91.07868, 26.54545], [91.07734, 26.54594], [91.07726, 26.54597], [91.07304, 26.54752], [91.06659, 26.54989], [91.0617, 26.55168], [91.05785, 26.55309], [91.05555, 26.55504], [91.05009, 26.55967], [91.04375, 26.56506], [91.04287, 26.56581], [91.0393, 26.56467], [91.03648, 26.56377], [91.02724, 26.56413], [91.02147, 26.56435], [91.02142, 26.56435], [91.01495, 26.5646], [91.01462, 26.56461], [91.01308, 26.56406], [91.00504, 26.56119], [91.00498, 26.56117], [91.00285, 26.56041], [91.00232, 26.55908], [90.9996, 26.55228], [90.99956, 26.55219], [90.99835, 26.54915], [90.99781, 26.5478], [90.99741, 26.54538], [90.99619, 26.5381], [90.99493, 26.53056], [90.99444, 26.52762], [90.99379, 26.5267], [90.98685, 26.51687], [90.98435, 26.51333], [90.97718, 26.51333], [90.97427, 26.51333], [90.97305, 26.51474], [90.97264, 26.51522], [90.97228, 26.51564], [90.972, 26.51597], [90.97184, 26.51615], [90.97101, 26.51712], [90.96978, 26.51856], [90.96922, 26.51921], [90.96999, 26.52031], [90.97002, 26.52035], [90.97062, 26.52121], [90.97462, 26.52692], [90.97511, 26.52762], [90.98191, 26.53578], [90.98351, 26.53771], [90.98413, 26.53948], [90.98599, 26.5448], [90.9894, 26.55452], [90.98916, 26.55858], [90.98886, 26.56373], [90.98856, 26.56881], [90.98852, 26.56883], [90.98349, 26.57158], [90.98228, 26.57224], [90.97931, 26.57386], [90.97763, 26.56545], [90.97813, 26.56193], [90.97887, 26.5554], [90.97913, 26.55439], [90.97931, 26.55368], [90.97895, 26.55365], [90.97849, 26.55362], [90.9709, 26.55116], [90.96433, 26.557], [90.96334, 26.55788], [90.96231, 26.564], [90.96169, 26.56772], [90.96165, 26.56797], [90.96083, 26.56807], [90.95747, 26.56849], [90.956, 26.56868], [90.95493, 26.56881], [90.94965, 26.56529], [90.94484, 26.56209], [90.94406, 26.55717], [90.94405, 26.55711], [90.94233, 26.54618], [90.94232, 26.54611], [90.9369, 26.54418], [90.93055, 26.54191], [90.92575, 26.54431], [90.92046, 26.54695], [90.91971, 26.54863], [90.9196, 26.54887], [90.91761, 26.55335], [90.91622, 26.55649], [90.91476, 26.55977], [90.91373, 26.56209], [90.91367, 26.5633], [90.91329, 26.57053], [90.91289, 26.57806], [90.91435, 26.5801], [90.91582, 26.58216], [90.9171, 26.58395], [90.91831, 26.58516], [90.92117, 26.58802], [90.92634, 26.59319], [90.92654, 26.59344], [90.92971, 26.5974], [90.93139, 26.61001], [90.92987, 26.61355], [90.92966, 26.61405], [90.92887, 26.61589], [90.92419, 26.61881], [90.92147, 26.62051], [90.91951, 26.62174], [90.91751, 26.62299], [90.91541, 26.6243], [90.90825, 26.6275], [90.90761, 26.62778], [90.90575, 26.62817], [90.90341, 26.62936], [90.90276, 26.62973], [90.89946, 26.63161], [90.89754, 26.62963], [90.89367, 26.62562], [90.89329, 26.62522], [90.89283, 26.62475], [90.89274, 26.6247], [90.89236, 26.62452], [90.88887, 26.62285], [90.8862, 26.62157], [90.88588, 26.62142], [90.88541, 26.6213], [90.88473, 26.62113], [90.88125, 26.62026], [90.88005, 26.61942], [90.87596, 26.61657], [90.87518, 26.61335], [90.87498, 26.61253], [90.87427, 26.60961], [90.87381, 26.60773], [90.87349, 26.60644], [90.87304, 26.6051], [90.87249, 26.60349], [90.87216, 26.60254], [90.87039, 26.60002], [90.86823, 26.59884], [90.86749, 26.59843], [90.86574, 26.59868], [90.86264, 26.59912], [90.85785, 26.59818], [90.85675, 26.59797], [90.85668, 26.59785], [90.8559, 26.59666], [90.85511, 26.59544], [90.855, 26.59487], [90.85455, 26.59259], [90.85385, 26.59254], [90.85348, 26.59251], [90.85258, 26.59245], [90.85241, 26.59241], [90.85154, 26.59219], [90.85076, 26.592], [90.85055, 26.59195], [90.84862, 26.59138], [90.84846, 26.59084], [90.8484, 26.59064], [90.84783, 26.58762], [90.84771, 26.58658], [90.84769, 26.58638], [90.8467, 26.58517], [90.84611, 26.58486], [90.84575, 26.58497], [90.84492, 26.58407], [90.84459, 26.58335], [90.84489, 26.5835], [90.84503, 26.58357], [90.84736, 26.58479], [90.84982, 26.58631], [90.85072, 26.58648], [90.85107, 26.58655], [90.85325, 26.58601], [90.85269, 26.58314], [90.85306, 26.58305], [90.8544, 26.58271], [90.85295, 26.5801], [90.85282, 26.57987], [90.85275, 26.57974], [90.85243, 26.57916], [90.85082, 26.57779], [90.85002, 26.57494], [90.8499, 26.57452], [90.8492, 26.57205], [90.84849, 26.57183], [90.84738, 26.57149], [90.84727, 26.57146], [90.84643, 26.57121], [90.84521, 26.57153], [90.8435, 26.57197], [90.83921, 26.57308], [90.83869, 26.57321], [90.83759, 26.5735], [90.83743, 26.57354], [90.83338, 26.57458], [90.82995, 26.57547], [90.82872, 26.57465], [90.82849, 26.57449], [90.8265, 26.57316], [90.82528, 26.57235], [90.82493, 26.57212], [90.82418, 26.57162], [90.82163, 26.56991], [90.82151, 26.56983], [90.82128, 26.56968], [90.82005, 26.56886], [90.81923, 26.56831], [90.82064, 26.56391], [90.82117, 26.56311], [90.82308, 26.5602], [90.827, 26.55831], [90.82729, 26.55817], [90.82812, 26.55777], [90.82991, 26.55691], [90.83053, 26.55661], [90.831, 26.55638], [90.83098, 26.55572], [90.83098, 26.55567], [90.83172, 26.55574], [90.83223, 26.55626], [90.83233, 26.5563], [90.83392, 26.5569], [90.83567, 26.55757], [90.83927, 26.55896], [90.83974, 26.55914], [90.84132, 26.5595], [90.84485, 26.56029], [90.84589, 26.56052], [90.84789, 26.56065], [90.8478, 26.55997], [90.8475, 26.55791], [90.84745, 26.55758], [90.84643, 26.55049], [90.84607, 26.54796], [90.84598, 26.54663], [90.84573, 26.54328], [90.8457, 26.54294], [90.84541, 26.54114], [90.84472, 26.5368], [90.84456, 26.53602], [90.84607, 26.5353], [90.84751, 26.53461], [90.8495, 26.53366], [90.85418, 26.53396], [90.85492, 26.53401], [90.85559, 26.53406], [90.8554, 26.53299], [90.85513, 26.53152], [90.85492, 26.53039], [90.85473, 26.52933], [90.85415, 26.52611], [90.85413, 26.526], [90.85412, 26.52597], [90.85411, 26.52591], [90.85405, 26.52554], [90.85371, 26.52478], [90.85333, 26.52394], [90.85303, 26.52328], [90.85294, 26.52307], [90.85233, 26.5217], [90.85323, 26.5176], [90.85284, 26.5153], [90.85273, 26.51466], [90.85252, 26.51339], [90.85213, 26.51108], [90.85209, 26.51085], [90.85162, 26.50805], [90.85408, 26.50197], [90.85321, 26.49973], [90.85294, 26.49904], [90.85183, 26.4986], [90.84826, 26.49719], [90.84578, 26.49854], [90.84384, 26.50068], [90.84332, 26.50126], [90.84227, 26.50242], [90.84051, 26.50436], [90.83763, 26.50427], [90.83615, 26.50369], [90.8333, 26.50256], [90.8305, 26.50146], [90.82753, 26.49925], [90.82706, 26.49834], [90.82658, 26.4974], [90.82621, 26.49668], [90.82594, 26.49615], [90.82526, 26.49482], [90.82463, 26.49359], [90.82412, 26.4926], [90.81877, 26.49438], [90.81647, 26.4972], [90.81527, 26.49868], [90.81437, 26.49908], [90.81127, 26.50045], [90.81034, 26.50026], [90.80864, 26.4999], [90.80844, 26.49792], [90.80816, 26.49517], [90.808, 26.49354], [90.8079, 26.49259], [90.80728, 26.49304], [90.80543, 26.4944], [90.80601, 26.49193], [90.80678, 26.48867], [90.80679, 26.48856], [90.8073, 26.48643], [90.80695, 26.48523], [90.80693, 26.48514], [90.80621, 26.48258], [90.80634, 26.47877], [90.80919, 26.4769], [90.81043, 26.47685], [90.81451, 26.4767], [90.8186, 26.47654], [90.81897, 26.47652], [90.81934, 26.47651], [90.81952, 26.47471], [90.81957, 26.47418], [90.81968, 26.47309], [90.8199, 26.47095], [90.82007, 26.46921], [90.82059, 26.464], [90.82074, 26.46249], [90.82082, 26.4617], [90.82084, 26.46145], [90.82674, 26.45457], [90.82783, 26.4533], [90.82787, 26.45325], [90.82788, 26.44985], [90.82763, 26.44955], [90.82753, 26.44943], [90.82238, 26.44323], [90.82072, 26.44123], [90.81712, 26.43919], [90.81603, 26.43918], [90.81199, 26.43914], [90.81283, 26.43832], [90.81443, 26.43677], [90.81488, 26.43628], [90.81666, 26.43438], [90.81754, 26.43191], [90.81755, 26.43186], [90.82016, 26.43246], [90.82247, 26.43383], [90.82458, 26.4338], [90.82573, 26.4333], [90.82753, 26.43253], [90.828, 26.43233], [90.8291, 26.43235], [90.8296, 26.43237], [90.83126, 26.43241], [90.83472, 26.4337], [90.83519, 26.4341], [90.83897, 26.43731], [90.84061, 26.43871], [90.84078, 26.43898], [90.84227, 26.44135], [90.8436, 26.44347], [90.84413, 26.44432], [90.84568, 26.44516], [90.84577, 26.44521], [90.84652, 26.44562], [90.84818, 26.44457], [90.84905, 26.44402], [90.85355, 26.44118], [90.85366, 26.44111], [90.85772, 26.43786], [90.85837, 26.43734], [90.85921, 26.43667], [90.86081, 26.43462], [90.86134, 26.43393], [90.86112, 26.43163], [90.86088, 26.43113], [90.8608, 26.43096], [90.85801, 26.42509], [90.85749, 26.42439], [90.85671, 26.42333], [90.8548, 26.42075], [90.8532, 26.41858], [90.85294, 26.41823], [90.85193, 26.41429], [90.8519, 26.41419], [90.85173, 26.41349], [90.85171, 26.41343], [90.85144, 26.41237], [90.85132, 26.41214], [90.85048, 26.41055], [90.85031, 26.41022], [90.84995, 26.40954], [90.84985, 26.40933], [90.84699, 26.4039], [90.84623, 26.40243], [90.84842, 26.39787], [90.84797, 26.39606], [90.84753, 26.39424], [90.84784, 26.39356], [90.84799, 26.39323], [90.84963, 26.38966], [90.85051, 26.38863], [90.85057, 26.38856], [90.8521, 26.38676], [90.85245, 26.38635], [90.85262, 26.3862], [90.85674, 26.38277], [90.85767, 26.38199], [90.85817, 26.38157], [90.85875, 26.38109], [90.85981, 26.37956], [90.8619, 26.37653], [90.86227, 26.37599], [90.86249, 26.37567], [90.86256, 26.37557], [90.86258, 26.37531], [90.86266, 26.37365], [90.86273, 26.37205], [90.86281, 26.37029], [90.86283, 26.36976], [90.86289, 26.36855], [90.86289, 26.36847], [90.86253, 26.3675], [90.86249, 26.36739], [90.86193, 26.36593], [90.86169, 26.36529], [90.86108, 26.36368], [90.86037, 26.36181], [90.86004, 26.36171], [90.85724, 26.36087], [90.85576, 26.36083], [90.8539, 26.36079], [90.8506, 26.36071], [90.85043, 26.36065], [90.84895, 26.36012], [90.84631, 26.35917], [90.84522, 26.35878], [90.84392, 26.35832], [90.84309, 26.35802], [90.84222, 26.35807], [90.84169, 26.3581], [90.84046, 26.35857], [90.84029, 26.35863], [90.83857, 26.35929], [90.83649, 26.36008], [90.83408, 26.361], [90.83088, 26.36366], [90.82971, 26.36463], [90.82926, 26.365], [90.82859, 26.36556], [90.82716, 26.36616], [90.82588, 26.36669], [90.82578, 26.36667], [90.82447, 26.36644], [90.82128, 26.36589], [90.82051, 26.36576], [90.81768, 26.36286], [90.81667, 26.36182], [90.81662, 26.36177], [90.81615, 26.36129], [90.81569, 26.36081], [90.81151, 26.35652], [90.81107, 26.35606], [90.81057, 26.35555], [90.81019, 26.35516], [90.81001, 26.35498], [90.80888, 26.35338], [90.80714, 26.35092], [90.80699, 26.3505], [90.80695, 26.35038], [90.80641, 26.34885], [90.80663, 26.34366], [90.80665, 26.34325], [90.80496, 26.34113], [90.80314, 26.33885], [90.80094, 26.33675], [90.7993, 26.33517], [90.79563, 26.33166], [90.79437, 26.33046], [90.79398, 26.33009], [90.79268, 26.32884], [90.79194, 26.32814], [90.79183, 26.32684], [90.79172, 26.32561], [90.7931, 26.32545], [90.79415, 26.32532], [90.7944, 26.32529], [90.79591, 26.32418], [90.79679, 26.32353], [90.80063, 26.32208], [90.80101, 26.32194], [90.80383, 26.32086], [90.80566, 26.31551], [90.80639, 26.31339], [90.80533, 26.31088], [90.80369, 26.30701], [90.80202, 26.30606], [90.8016, 26.30621], [90.80097, 26.30645], [90.80088, 26.30648], [90.79717, 26.30565], [90.79644, 26.30519], [90.79456, 26.30401], [90.79266, 26.30282], [90.78904, 26.30301], [90.7829, 26.30332], [90.77912, 26.30352], [90.77845, 26.30355], [90.77506, 26.30476], [90.76951, 26.30674], [90.76926, 26.30683], [90.76839, 26.30779], [90.76776, 26.30849], [90.76667, 26.3097], [90.76575, 26.31073], [90.76379, 26.31187], [90.76163, 26.31313], [90.75636, 26.31056], [90.75271, 26.30878], [90.75138, 26.30737], [90.74908, 26.30491], [90.74829, 26.3025], [90.74467, 26.30006], [90.73851, 26.29766], [90.73768, 26.29734], [90.73549, 26.29649], [90.73502, 26.29631], [90.73327, 26.29563], [90.73248, 26.2948], [90.7301, 26.29229], [90.72992, 26.2921], [90.72682, 26.28883], [90.72547, 26.28741], [90.72517, 26.2871], [90.72394, 26.2858], [90.72233, 26.2841], [90.72201, 26.28376], [90.72129, 26.28255], [90.72103, 26.2821], [90.72093, 26.28096], [90.72057, 26.2768], [90.72082, 26.27521], [90.72122, 26.27261], [90.72131, 26.27205], [90.72148, 26.27093], [90.72181, 26.26873], [90.72189, 26.26823], [90.72192, 26.26809], [90.72325, 26.26811], [90.73191, 26.26827], [90.73288, 26.26829], [90.73378, 26.2683], [90.73404, 26.26765], [90.73482, 26.2657], [90.73493, 26.26327], [90.73497, 26.26245], [90.73497, 26.26235], [90.73511, 26.25925], [90.73494, 26.25915], [90.7348, 26.25906], [90.73261, 26.25771], [90.73117, 26.25745], [90.72907, 26.25707], [90.72788, 26.25685], [90.72559, 26.25762], [90.72521, 26.25794], [90.72375, 26.25918], [90.72231, 26.26041], [90.72121, 26.26135], [90.72042, 26.26203], [90.7204, 26.26205], [90.72021, 26.2622], [90.71841, 26.26374], [90.71408, 26.2613], [90.71317, 26.26078], [90.70512, 26.25623], [90.7046, 26.25594], [90.70204, 26.25615], [90.69468, 26.25677], [90.69214, 26.25699], [90.69198, 26.257], [90.68919, 26.25723], [90.68876, 26.25727], [90.68665, 26.25745], [90.68469, 26.25721], [90.6807, 26.25673], [90.68057, 26.25671], [90.67963, 26.2566], [90.67442, 26.25477], [90.67362, 26.25449], [90.6705, 26.25339], [90.66688, 26.25211], [90.66588, 26.25123], [90.66353, 26.24916], [90.6605, 26.24769], [90.65791, 26.24642], [90.6575, 26.24622], [90.65684, 26.24499], [90.65633, 26.24404], [90.65553, 26.24254], [90.65502, 26.24158], [90.65486, 26.23963], [90.65463, 26.23663], [90.65798, 26.23215], [90.65856, 26.23138], [90.6607, 26.22851], [90.66272, 26.22415], [90.6629, 26.22376], [90.66302, 26.22349], [90.66324, 26.22301], [90.66506, 26.2208], [90.66559, 26.21787], [90.6677, 26.21358], [90.66909, 26.2123], [90.66948, 26.20855], [90.67142, 26.2056], [90.67165, 26.20524], [90.67172, 26.20514], [90.67241, 26.20409], [90.67345, 26.20043], [90.67439, 26.1971], [90.6777, 26.18544], [90.68204, 26.17745], [90.68565, 26.17079], [90.68772, 26.16698], [90.68775, 26.16693], [90.6895, 26.1637], [90.69242, 26.15833], [90.69251, 26.15805], [90.69413, 26.15319], [90.69734, 26.15062], [90.69975, 26.14967], [90.70889, 26.14739], [90.71183, 26.13918], [90.71414, 26.13903], [90.7152, 26.13897], [90.71473, 26.1381], [90.71448, 26.13766], [90.71455, 26.13676], [90.71464, 26.13546], [90.71629, 26.13521], [90.71672, 26.13493], [90.72008, 26.13271], [90.72115, 26.132], [90.72209, 26.13286], [90.72425, 26.13484], [90.73226, 26.13533], [90.73281, 26.13536], [90.73337, 26.1354], [90.73368, 26.13542], [90.74065, 26.1373], [90.75752, 26.13716], [90.76086, 26.13672], [90.76129, 26.13672], [90.76331, 26.13672], [90.7649, 26.13633], [90.76508, 26.13629], [90.76532, 26.13629], [90.76727, 26.13629], [90.76892, 26.13593], [90.77249, 26.1353], [90.77487, 26.13488], [90.77588, 26.1347], [90.77712, 26.13454], [90.7804, 26.13411], [90.78181, 26.13367], [90.78774, 26.13184], [90.80087, 26.1259], [90.80609, 26.12353], [90.80881, 26.12285], [90.8168, 26.12085], [90.82274, 26.11811], [90.82452, 26.11729], [90.8249, 26.1172], [90.83366, 26.11526], [90.83638, 26.11366], [90.84048, 26.11125], [90.84223, 26.11233], [90.84322, 26.11293], [90.84464, 26.1138], [90.84573, 26.11447], [90.84953, 26.11681], [90.85558, 26.11498], [90.85936, 26.11384], [90.86046, 26.11351], [90.86132, 26.11325], [90.86245, 26.11266], [90.8653, 26.1064], [90.86577, 26.10566], [90.86702, 26.10368], [90.87036, 26.09839], [90.87045, 26.09826], [90.87076, 26.09775], [90.87641, 26.09613], [90.87653, 26.09613], [90.87783, 26.09578], [90.8781, 26.09573], [90.87834, 26.0957], [90.87845, 26.0957], [90.87858, 26.0955], [90.87974, 26.09517], [90.88001, 26.0951], [90.88017, 26.09509], [90.88403, 26.09501], [90.88715, 26.09495], [90.8889, 26.09492], [90.88897, 26.09379], [90.88879, 26.09072], [90.8885, 26.09039], [90.88706, 26.08878], [90.88491, 26.08793], [90.8845, 26.08777], [90.88056, 26.08621], [90.87895, 26.08489], [90.87603, 26.08249], [90.87562, 26.08238], [90.87438, 26.08203], [90.87234, 26.08146], [90.87061, 26.08148], [90.8693, 26.0815], [90.86895, 26.0815], [90.86644, 26.08179], [90.86797, 26.07962], [90.86816, 26.07914], [90.86834, 26.07867], [90.86899, 26.07697], [90.86932, 26.07611], [90.86967, 26.07522], [90.87092, 26.07294], [90.87139, 26.07251], [90.87375, 26.07037], [90.88231, 26.07085], [90.88244, 26.07088], [90.8845, 26.06483], [90.88472, 26.05962], [90.88492, 26.05605], [90.88495, 26.05561], [90.8869, 26.05527], [90.88765, 26.05508], [90.8899, 26.05447], [90.89041, 26.05427], [90.8905, 26.05423], [90.89372, 26.05296], [90.89373, 26.05296], [90.89549, 26.05309], [90.89624, 26.05314], [90.8976, 26.0534], [90.90063, 26.05399], [90.90156, 26.05472], [90.90314, 26.05595], [90.9042, 26.05678], [90.90329, 26.06032], [90.90105, 26.06254], [90.89613, 26.06605], [90.89388, 26.06902], [90.89381, 26.06985], [90.89356, 26.07301], [90.89569, 26.07296], [90.89797, 26.07258], [90.90028, 26.0722], [90.90529, 26.07246], [90.90725, 26.07291], [90.91013, 26.07357], [90.9145, 26.07573], [90.91538, 26.07616], [90.9161, 26.07652], [90.91732, 26.07736], [90.91743, 26.07743], [90.91763, 26.07757], [90.9177, 26.07761], [90.9193, 26.07871], [90.9201, 26.07926], [90.92016, 26.0793], [90.92381, 26.08107], [90.92563, 26.08324], [90.92634, 26.08406], [90.92796, 26.08679], [90.92805, 26.08735], [90.92849, 26.09011], [90.92864, 26.09028], [90.92883, 26.0905], [90.92956, 26.09133], [90.93024, 26.09207], [90.93033, 26.09232], [90.932, 26.09701], [90.93512, 26.09783], [90.93806, 26.09399]]]}}]}