{"type": "FeatureCollection", "features": [{"type": "Feature", "properties": {"Name": "Biswanath"}, "geometry": {"type": "Polygon", "coordinates": [[[93.39152, 26.95755], [93.39007441900009, 26.95758333300006], [93.37509084000004, 26.957928827000046], [93.37504, 26.95793], [93.34876, 26.96082], [93.34812581900007, 26.960765329000026], [93.34702, 26.96067], [93.3457, 26.96055], [93.3351, 26.95962], [93.33282, 26.95942], [93.33178, 26.95933], [93.32572, 26.95879], [93.31295, 26.95767], [93.30017, 26.95654], [93.28764, 26.95543], [93.26779, 26.95368], [93.25366, 26.95151], [93.25331317200005, 26.951457790000063], [93.25273, 26.95137], [93.25162173300004, 26.951197079000053], [93.25132, 26.95115], [93.25114669800007, 26.951123860000052], [93.25055539100003, 26.951034668000034], [93.24953, 26.95088], [93.244, 26.95003], [93.22337, 26.94687], [93.20217086400004, 26.94111037500005], [93.20055, 26.94067], [93.19154, 26.93822], [93.18806, 26.93727], [93.18528, 26.93652], [93.18317, 26.9362], [93.16386663600008, 26.93328559100007], [93.14641, 26.93065], [93.1453, 26.93048], [93.1435, 26.93021], [93.14283, 26.93011], [93.14257, 26.93007], [93.12413, 26.92728], [93.11196, 26.92543], [93.11004, 26.92514], [93.10784, 26.92363], [93.09316293100005, 26.913556149000044], [93.09295, 26.91341], [93.0874, 26.915], [93.08404, 26.91596], [93.08228267600003, 26.91646399700005], [93.07747478300007, 26.917828918000055], [93.07544088600008, 26.918987508000043], [93.07520420200007, 26.91911605200005], [93.07322288900008, 26.920267979000073], [93.07064702400004, 26.921737938000035], [93.06996, 26.92213], [93.06369, 26.91994], [93.06243852300008, 26.919727306000027], [93.06244603200008, 26.919658355000024], [93.06252695900008, 26.918915294000044], [93.06253900400009, 26.918804699000077], [93.06317021200005, 26.91300906200007], [93.06319613300008, 26.91301022300007], [93.06327223500006, 26.912245471000062], [93.06449082200004, 26.90922679700003], [93.06564005600006, 26.90578475700005], [93.06692295400006, 26.90084184400007], [93.07067627500004, 26.89234796200003], [93.07225303200005, 26.883660192000036], [93.07345108800007, 26.880225694000046], [93.07597143500004, 26.874965683000028], [93.07773612000005, 26.869171533000042], [93.07885941700005, 26.86488439900006], [93.07917432200009, 26.863033984000026], [93.07842621000003, 26.860317464000047], [93.07802806000007, 26.858871661000023], [93.07499755700007, 26.853075661000048], [93.07240365700005, 26.85111647800005], [93.07171848300004, 26.85059894500006], [93.06797834900004, 26.846564588000035], [93.06743101700005, 26.845762233000073], [93.06514845000004, 26.842415989000074], [93.06125002400006, 26.840163645000075], [93.06130153400005, 26.838463447000038], [93.06200830000006, 26.832774692000044], [93.06251362000006, 26.83188846200005], [93.06262653400006, 26.831690434000052], [93.06402241500007, 26.82924225000005], [93.06799920000003, 26.82611945800005], [93.07022374800005, 26.82358848100006], [93.07157494600006, 26.822387309000078], [93.07466183100007, 26.81964300900006], [93.07507206100007, 26.819278306000058], [93.07867286000004, 26.813928673000078], [93.07917632800007, 26.811436074000028], [93.08031464600003, 26.805799988000047], [93.08030840200007, 26.805070370000067], [93.08027768900007, 26.801481886000033], [93.08026521000005, 26.800023907000025], [93.08025814900003, 26.799198982000064], [93.08028177200003, 26.791696622000075], [93.08101311200005, 26.789183399000024], [93.08171972000008, 26.786755027000027], [93.08203670400007, 26.785665661000053], [93.08347488000004, 26.77856335000007], [93.08410173900006, 26.77546736900007], [93.08432516100004, 26.77436383400004], [93.08498969400006, 26.771081554000034], [93.08556651600009, 26.768125646000044], [93.08627027400007, 26.764519152000048], [93.08672337100006, 26.758626106000065], [93.08683295200007, 26.757200831000034], [93.08568739200007, 26.755404915000042], [93.08459835300005, 26.75369758200003], [93.08348292400007, 26.74820268800005], [93.08360998800003, 26.74504552700006], [93.08373598500003, 26.741914655000073], [93.08412814200005, 26.74062519100005], [93.08471546600003, 26.73869381000003], [93.08572986700005, 26.735358012000063], [93.08673813500008, 26.732042383000078], [93.08675525500007, 26.731986083000038], [93.08800415200005, 26.728236932000073], [93.08835092100009, 26.72657267200003], [93.08943802800007, 26.72135527000006], [93.09137053000006, 26.715938495000046], [93.09318348100004, 26.71329066800007], [93.09408391100004, 26.71251490700007], [93.09474884900004, 26.711942032000024], [93.09537046900004, 26.71140646400005], [93.09807375100007, 26.708886834000054], [93.09915477400006, 26.70787923200004], [93.10106290300007, 26.705578227000046], [93.10119151600009, 26.705095554000025], [93.10217803100005, 26.701393248000045], [93.10263527700005, 26.70061783500006], [93.10406016900004, 26.698201375000053], [93.10411984400008, 26.697882796000044], [93.10435033800007, 26.69665229800006], [93.10517805000006, 26.692233286000032], [93.10660564400007, 26.68371693100005], [93.10768167400005, 26.68158940400008], [93.10834005000004, 26.68028766300006], [93.10867152900005, 26.680057301000033], [93.11129938800008, 26.678231063000055], [93.11389938800005, 26.677971539000055], [93.11571464900004, 26.677790344000073], [93.12012517700003, 26.67547406500006], [93.12065704700007, 26.675194727000076], [93.12501615200006, 26.67269419300004], [93.13179683400006, 26.669666991000042], [93.13491849300004, 26.66676886700003], [93.13851362200006, 26.66123383200005], [93.13893826300006, 26.66058001500005], [93.13999156700004, 26.65933440400005], [93.14000302300008, 26.659320858000058], [93.14310704000007, 26.65564992000003], [93.14782991400006, 26.649354896000034], [93.14942202800006, 26.645879854000043], [93.15092921900003, 26.642589955000062], [93.15246917400003, 26.634172154000055], [93.15411722000005, 26.628551361000063], [93.15665905200007, 26.617813950000027], [93.15799793500008, 26.613685342000053], [93.15827823400008, 26.60707018900007], [93.15828879800006, 26.606820886000037], [93.15568951900008, 26.606561122000073], [93.15613630200005, 26.60589465700008], [93.15998996900004, 26.600124013000027], [93.16076609000004, 26.598990266000044], [93.16077, 26.59897], [93.16584, 26.60372], [93.16854971300006, 26.606262556000047], [93.16892, 26.60661], [93.16989, 26.60752], [93.17027839100007, 26.607885088000046], [93.17230685200008, 26.60979184000007], [93.17239, 26.60987], [93.17867, 26.61223], [93.18288826200006, 26.61310370800004], [93.19074, 26.61473], [93.19437, 26.61549], [93.19509, 26.61582], [93.21318, 26.624], [93.21659721000003, 26.625545659000068], [93.21685, 26.62566], [93.21956, 26.62916], [93.22041, 26.63025], [93.22069, 26.63061], [93.22300291100004, 26.633572018000052], [93.22379, 26.63458], [93.22382617800008, 26.634640416000025], [93.22526681700003, 26.63704621200003], [93.22988, 26.64475], [93.23122716700004, 26.65202124500007], [93.23378, 26.6658], [93.23398023900006, 26.666199564000067], [93.23651535200008, 26.671258243000068], [93.23817, 26.67456], [93.23832698000007, 26.67475797700007], [93.24550849000008, 26.683815038000034], [93.24556, 26.68388], [93.25064, 26.68338], [93.25517109700007, 26.682558113000027], [93.25698, 26.68223], [93.25808829300007, 26.682178640000075], [93.26501012600005, 26.68185787300007], [93.26518, 26.68185], [93.27448, 26.68276], [93.27488681500006, 26.682886694000047], [93.28890772900007, 26.68725323600006], [93.28909, 26.68731], [93.29057094300003, 26.693867287000046], [93.29089, 26.69528], [93.29361, 26.69669], [93.29716, 26.69854], [93.30029863000004, 26.697954270000025], [93.30284, 26.69748], [93.30500326000003, 26.697829187000025], [93.30667145400008, 26.698098462000075], [93.30792, 26.6983], [93.31954, 26.70261], [93.32366563100004, 26.706278332000068], [93.32369, 26.7063], [93.32501631400004, 26.706330281000078], [93.33026, 26.70645], [93.33564, 26.7075], [93.33637, 26.70764], [93.33639690900009, 26.70768826400007], [93.33819380200003, 26.710911132000035], [93.34073, 26.71546], [93.34074159100004, 26.715507140000057], [93.34266, 26.72331], [93.34277814500007, 26.723496305000026], [93.34292, 26.72372], [93.34796, 26.73173], [93.34911467900008, 26.732411111000033], [93.35803, 26.73767], [93.37264, 26.74278], [93.37403, 26.74307], [93.37527830100004, 26.743344017000027], [93.37567, 26.74343], [93.37609857100006, 26.743040390000033], [93.37672812400007, 26.74246807000003], [93.37677, 26.74243], [93.40047, 26.73981], [93.40346883400008, 26.739642867000043], [93.40675, 26.73946], [93.41441594400004, 26.740717694000068], [93.41443, 26.74072], [93.42158, 26.74662], [93.42967, 26.74515], [93.43223, 26.74468], [93.432405, 26.74470238200007], [93.43900435300009, 26.74554641900005], [93.44388, 26.74617], [93.44398765900007, 26.74626863800006], [93.44567, 26.74781], [93.44957765500004, 26.75138214900005], [93.44963, 26.75143], [93.46008003100007, 26.756551327000068], [93.46122, 26.75711], [93.47153, 26.75915], [93.48605, 26.75779], [93.49284108600006, 26.757160102000057], [93.49295, 26.75715], [93.50232954400008, 26.759042733000058], [93.50633, 26.75985], [93.50975, 26.76054], [93.51052517800008, 26.760231499000042], [93.52090176900003, 26.756101874000024], [93.52259, 26.75543], [93.52262239500004, 26.755425914000057], [93.52388737300004, 26.75526632900005], [93.53448, 26.75393], [93.53451107800004, 26.75390130100004], [93.54049, 26.74838], [93.54386, 26.74431], [93.54567, 26.74213], [93.55408, 26.73759], [93.55891498300008, 26.736894557000028], [93.56108117600007, 26.736582982000073], [93.56272320100004, 26.736346800000035], [93.56283965300008, 26.736328787000048], [93.56146376300006, 26.731518953000034], [93.56046, 26.72801], [93.56278919800008, 26.726363923000065], [93.56612, 26.72401], [93.57012000500004, 26.723088094000047], [93.58187, 26.72038], [93.58321, 26.72007], [93.58662, 26.71929], [93.60125, 26.71592], [93.61889, 26.71258], [93.6229, 26.7113], [93.63146, 26.70856], [93.63785, 26.70651], [93.63904463200004, 26.706374439000058], [93.63956883400004, 26.70631495500004], [93.64631, 26.70555], [93.65000067700004, 26.705123780000065], [93.65012, 26.70511], [93.65199909200004, 26.706206137000038], [93.65696, 26.7091], [93.65853, 26.71002], [93.6623, 26.71222], [93.66548218700007, 26.714077864000046], [93.66564, 26.71417], [93.66692460600007, 26.713914639000052], [93.66877610200004, 26.713546587000053], [93.67223, 26.71286], [93.67220434300003, 26.712946591000048], [93.67199555300004, 26.71365125600005], [93.67199, 26.71367], [93.67248, 26.71377], [93.67274135700006, 26.71284031400006], [93.67318, 26.71128], [93.67355835600006, 26.710024066000074], [93.6739, 26.70889], [93.67392793300007, 26.708865392000064], [93.67453583000008, 26.708329863000074], [93.67474, 26.70815], [93.67639, 26.70714], [93.67641912900007, 26.70713710700005], [93.68072, 26.70671], [93.68107308600008, 26.706644527000037], [93.68214583000008, 26.706445608000024], [93.68223, 26.70643], [93.68251001600004, 26.706202817000076], [93.68276, 26.706], [93.68257018100007, 26.712371321000035], [93.68253, 26.71372], [93.68187121400007, 26.715745844000025], [93.6804, 26.72027], [93.68027232300005, 26.72050044200006], [93.67999, 26.72101], [93.68003964500008, 26.72119235100007], [93.68021410100005, 26.721833141000047], [93.68051, 26.72292], [93.68654, 26.72691], [93.69379856400008, 26.731719172000055], [93.69383, 26.73174], [93.67991, 26.74511], [93.67062915300005, 26.757491044000062], [93.67051, 26.75765], [93.66561, 26.76395], [93.66517, 26.76451], [93.66494698900004, 26.764725765000037], [93.66326784700004, 26.76635035000004], [93.65963, 26.76987], [93.65928684100004, 26.77027281100004], [93.65863370700004, 26.77103948200005], [93.65690668400003, 26.773066723000056], [93.65039490800007, 26.780710474000045], [93.64847, 26.78297], [93.6484, 26.78337], [93.64836458200006, 26.783558896000045], [93.64829194000004, 26.78394632100003], [93.64825, 26.78417], [93.64848982600006, 26.78480382600003], [93.64853, 26.78491], [93.64880229000005, 26.78562912500007], [93.64892, 26.78594], [93.64924622200004, 26.785839026000076], [93.64976, 26.78568], [93.65001311500004, 26.785617228000035], [93.65101, 26.78537], [93.65646721600007, 26.782946566000078], [93.66043857800008, 26.781182967000063], [93.66317, 26.77997], [93.66873436400004, 26.777294435000044], [93.67413, 26.7747], [93.68346, 26.77241], [93.68742, 26.7715], [93.69929534000005, 26.770575792000045], [93.70361, 26.77024], [93.70519827600003, 26.770667613000057], [93.70907, 26.77171], [93.71004, 26.77199], [93.71691, 26.77346], [93.71778222000006, 26.773594111000023], [93.71821271100004, 26.773660303000042], [93.72569, 26.77481], [93.7281, 26.77523], [93.72903551600007, 26.775542778000045], [93.73474, 26.77745], [93.73763419800008, 26.778674670000044], [93.73958634400003, 26.77950071300006], [93.74027, 26.77979], [93.74096494900004, 26.779863504000048], [93.74314286700007, 26.78009386100007], [93.74339, 26.78012], [93.74425, 26.78021], [93.75081221500005, 26.779673633000073], [93.75416, 26.7794], [93.75517693500007, 26.779673633000073], [93.75644251500006, 26.78001417100006], [93.75665, 26.78007], [93.76146465900007, 26.782899233000023], [93.76261573000005, 26.783560486000056], [93.76344409900008, 26.784036357000048], [93.76344, 26.78406], [93.76356, 26.78413], [93.76376818800009, 26.784269691000077], [93.76412863800005, 26.784511549000058], [93.77316841300006, 26.790631779000023], [93.77374684500006, 26.791041939000024], [93.77484, 26.79231], [93.77450898300003, 26.793423422000046], [93.77413224200006, 26.794690640000056], [93.77407, 26.7949], [93.77404060000003, 26.79586365600005], [93.77398, 26.79785], [93.77316311600003, 26.802962729000058], [93.77313, 26.80317], [93.77313872700006, 26.803312315000028], [93.77326, 26.80529], [93.77258, 26.80647], [93.77276113300007, 26.80791906500008], [93.77279, 26.80815], [93.77309370000006, 26.813771537000036], [93.77328, 26.81722], [93.77327184100005, 26.817481075000046], [93.77320552700007, 26.819603134000033], [93.77311289300008, 26.822567416000027], [93.77306, 26.82426], [93.77037, 26.82901], [93.7658, 26.83709], [93.77174, 26.84432], [93.77277207400004, 26.84613154300007], [93.7746, 26.84934], [93.77493, 26.85002], [93.78003, 26.85144], [93.78621, 26.85571], [93.78685, 26.85615], [93.78816, 26.85705], [93.78845, 26.85725], [93.78902, 26.85764], [93.78729, 26.86146], [93.78576, 26.86485], [93.78495, 26.86664], [93.78432, 26.86803], [93.78426, 26.86816], [93.78376, 26.86927], [93.78349, 26.86987], [93.78343, 26.86999], [93.78254, 26.87196], [93.78247, 26.87212], [93.78204, 26.87308], [93.78201, 26.87493], [93.782, 26.87568], [93.782, 26.87638], [93.78252, 26.87703], [93.78256, 26.87708], [93.78380085500004, 26.877805585000033], [93.78492, 26.87846], [93.78534, 26.87871], [93.78554186400004, 26.879198382000027], [93.78565, 26.87946], [93.78623, 26.88107], [93.78785139900003, 26.884219905000066], [93.78809048200009, 26.884684373000027], [93.78815, 26.8848], [93.78561, 26.88779], [93.78532592900007, 26.888121416000047], [93.78489, 26.88863], [93.78271, 26.89235], [93.78266, 26.89254], [93.78213, 26.89458], [93.78208, 26.89478], [93.78179462700007, 26.89586441800003], [93.78178, 26.89592], [93.78172, 26.89592], [93.77928, 26.89657], [93.77886, 26.89668], [93.77818115900004, 26.896855996000056], [93.77805, 26.89689], [93.77746, 26.89713], [93.77317396000007, 26.898864122000077], [93.77311, 26.89889], [93.77256, 26.89869], [93.77255042500008, 26.898705231000065], [93.77215583600008, 26.899332988000026], [93.77212, 26.89939], [93.77106, 26.89932], [93.76978, 26.89924], [93.76937, 26.8992], [93.76931516700006, 26.899179437000043], [93.76689, 26.89827], [93.76447, 26.89625], [93.76242, 26.89533], [93.76081705300004, 26.895362938000062], [93.7595, 26.89539], [93.75761, 26.89543], [93.7569, 26.89523], [93.75686331800006, 26.89520805400008], [93.75573, 26.89453], [93.75466, 26.89325], [93.75409, 26.89252], [93.75161757100005, 26.893429668000067], [93.75091, 26.89369], [93.74935, 26.89426], [93.7491, 26.89435], [93.74839, 26.89545], [93.74765, 26.8966], [93.74748, 26.89686], [93.74725040800007, 26.897215643000038], [93.74697, 26.89765], [93.74671, 26.89805], [93.74506, 26.90062], [93.74460972900005, 26.903060949000064], [93.7443, 26.90474], [93.74401658400006, 26.906256280000036], [93.7437, 26.90795], [93.74666, 26.90737], [93.74667929900005, 26.907366594000052], [93.74683, 26.90734], [93.74693599300008, 26.907657979000078], [93.74695, 26.9077], [93.74793, 26.90817], [93.74929, 26.90828], [93.75069452800005, 26.90848625900003], [93.75072, 26.90849], [93.75129, 26.90893], [93.75159, 26.90948], [93.75165, 26.90958], [93.75188935900007, 26.911164721000034], [93.75194, 26.9115], [93.7521, 26.91251], [93.75171509600005, 26.91542845200007], [93.75131, 26.9185], [93.75126733300004, 26.918648079000036], [93.75114, 26.91909], [93.75068, 26.92024], [93.75048, 26.92074], [93.75019084000007, 26.921465630000057], [93.74942, 26.9234], [93.74882, 26.92489], [93.74879, 26.92497], [93.74872929200006, 26.92511743600005], [93.74872, 26.92514], [93.7487, 26.92588], [93.74852, 26.93083], [93.74616, 26.93584], [93.74577955500007, 26.93665020700007], [93.74562, 26.93699], [93.74551, 26.93723], [93.7457, 26.93916], [93.74579913300005, 26.94015958600005], [93.7463, 26.94521], [93.74655, 26.94769], [93.74658, 26.94798], [93.74637, 26.94869], [93.74505, 26.95317], [93.74429, 26.95577], [93.74351091900007, 26.958422822000045], [93.7435, 26.95846], [93.74227, 26.9597], [93.73758447700004, 26.964434537000045], [93.73342724500009, 26.966691858000047], [93.72874, 26.9692], [93.72802, 26.96958], [93.72743, 26.9711], [93.72727, 26.97152], [93.72723, 26.97163], [93.72600643600003, 26.97477211300003], [93.72598, 26.97484], [93.7244, 26.97568], [93.72214, 26.97687], [93.71989, 26.97806], [93.71855, 26.97877], [93.71656, 26.97982], [93.71581410800007, 26.980214313000033], [93.71272, 26.98185], [93.70961, 26.98349], [93.70429970100008, 26.985077708000063], [93.70369, 26.98526], [93.70356, 26.98562], [93.70326, 26.98646], [93.70220312500004, 26.989445208000063], [93.70215703100007, 26.989568122000037], [93.70212305600006, 26.989667877000045], [93.70171709000005, 26.989934763000065], [93.70084379700006, 26.990520908000065], [93.70083, 26.99053], [93.69876, 26.9919], [93.69866493100005, 26.991799809000042], [93.69851445800003, 26.991641230000027], [93.69282, 26.98564], [93.69090681000006, 26.983625044000064], [93.68624, 26.97871], [93.68448441800007, 26.97686067400008], [93.68418, 26.97654], [93.67995, 26.97209], [93.67625, 26.96819], [93.65983, 26.96456], [93.65871, 26.96431], [93.6556, 26.96362], [93.64067, 26.96195], [93.63658220000008, 26.961806247000027], [93.62503, 26.9614], [93.62326, 26.96084], [93.62221, 26.96051], [93.61443, 26.95807], [93.60716, 26.95579], [93.59635, 26.9524], [93.59568963900006, 26.95225768100005], [93.59504233800004, 26.952118176000056], [93.59287, 26.95165], [93.58477071800007, 26.949892325000064], [93.58476, 26.94989], [93.57368533400006, 26.95112143700004], [93.57136, 26.95138], [93.5596, 26.95029], [93.55802, 26.95014], [93.55726, 26.95007], [93.55711, 26.95006], [93.54917, 26.94932], [93.54675922200005, 26.94909301100006], [93.54609, 26.94903], [93.54397, 26.9487], [93.53773, 26.94772], [93.53768, 26.94771], [93.53296, 26.94697], [93.53120517600007, 26.94669008900007], [93.5297, 26.94645], [93.52825, 26.94622], [93.52735, 26.94608], [93.52711, 26.94604], [93.52645, 26.94594], [93.52198, 26.94471], [93.51982, 26.94411], [93.51946, 26.94401], [93.51657, 26.94321], [93.51065, 26.94158], [93.50651, 26.94044], [93.49634, 26.93764], [93.49002, 26.93589], [93.48933, 26.93713], [93.48850516900006, 26.93860662000003], [93.4879, 26.93969], [93.48747, 26.94046], [93.48740387700008, 26.94043063400005], [93.48109839100005, 26.937630343000023], [93.48108331000003, 26.93762364400004], [93.48094, 26.93756], [93.48023, 26.93748], [93.47952, 26.93741], [93.47656, 26.9371], [93.47348, 26.93678], [93.47241, 26.93667], [93.46999396400008, 26.93641777700003], [93.46877, 26.93629], [93.46739, 26.9378], [93.46601, 26.9393], [93.46451, 26.94094], [93.46053984300005, 26.943590920000076], [93.45813, 26.9452], [93.44858, 26.95158], [93.44298, 26.95256], [93.43796770900008, 26.953438720000065], [93.43739, 26.95354], [93.43684525100008, 26.953587558000038], [93.43487, 26.95376], [93.42778270800005, 26.954379329000062], [93.40752, 26.95615], [93.4065, 26.95624], [93.40308, 26.95654], [93.39603822700008, 26.957155241000066], [93.39173156600003, 26.957531516000074], [93.39152, 26.95755]]]}}]}