{"type": "FeatureCollection", "features": [{"type": "Feature", "properties": {"Name": "Bongaigaon"}, "geometry": {"type": "Polygon", "coordinates": [[[90.65502, 26.24158], [90.65553, 26.24254], [90.65633, 26.24404], [90.65684, 26.24499], [90.6575, 26.24622], [90.65791, 26.24642], [90.6605, 26.24769], [90.66353, 26.24916], [90.66588, 26.25123], [90.66688, 26.25211], [90.6705, 26.25339], [90.67362, 26.25449], [90.67442, 26.25477], [90.67963, 26.2566], [90.68057, 26.25671], [90.6807, 26.25673], [90.68469, 26.25721], [90.68665, 26.25745], [90.68876, 26.25727], [90.68919, 26.25723], [90.69198, 26.257], [90.69214, 26.25699], [90.69468, 26.25677], [90.70204, 26.25615], [90.7046, 26.25594], [90.70512, 26.25623], [90.71317, 26.26078], [90.71408, 26.2613], [90.71841, 26.26374], [90.72021, 26.2622], [90.7204, 26.26205], [90.72042, 26.26203], [90.72121, 26.26135], [90.72231, 26.26041], [90.72375, 26.25918], [90.72521, 26.25794], [90.72559, 26.25762], [90.72788, 26.25685], [90.72907, 26.25707], [90.73117, 26.25745], [90.73261, 26.25771], [90.7348, 26.25906], [90.73494, 26.25915], [90.73511, 26.25925], [90.73497, 26.26235], [90.73497, 26.26245], [90.73493, 26.26327], [90.73482, 26.2657], [90.73404, 26.26765], [90.73378, 26.2683], [90.73288, 26.26829], [90.73191, 26.26827], [90.72325, 26.26811], [90.72192, 26.26809], [90.72189, 26.26823], [90.72181, 26.26873], [90.72148, 26.27093], [90.72131, 26.27205], [90.72122, 26.27261], [90.72082, 26.27521], [90.72057, 26.2768], [90.72093, 26.28096], [90.72103, 26.2821], [90.72129, 26.28255], [90.72201, 26.28376], [90.72233, 26.2841], [90.72394, 26.2858], [90.72517, 26.2871], [90.72547, 26.28741], [90.72682, 26.28883], [90.72992, 26.2921], [90.7301, 26.29229], [90.73248, 26.2948], [90.73327, 26.29563], [90.73502, 26.29631], [90.73549, 26.29649], [90.73768, 26.29734], [90.73851, 26.29766], [90.74467, 26.30006], [90.74829, 26.3025], [90.74908, 26.30491], [90.75138, 26.30737], [90.75271, 26.30878], [90.75636, 26.31056], [90.76163, 26.31313], [90.76379, 26.31187], [90.76575, 26.31073], [90.76667, 26.3097], [90.76776, 26.30849], [90.76839, 26.30779], [90.76926, 26.30683], [90.76951, 26.30674], [90.77506, 26.30476], [90.77845, 26.30355], [90.77912, 26.30352], [90.7829, 26.30332], [90.78904, 26.30301], [90.79266, 26.30282], [90.79456, 26.30401], [90.79644, 26.30519], [90.79717, 26.30565], [90.80088, 26.30648], [90.80097, 26.30645], [90.8016, 26.30621], [90.80202, 26.30606], [90.80369, 26.30701], [90.80533, 26.31088], [90.80639, 26.31339], [90.80566, 26.31551], [90.80383, 26.32086], [90.80101, 26.32194], [90.80063, 26.32208], [90.79679, 26.32353], [90.79591, 26.32418], [90.7944, 26.32529], [90.79415, 26.32532], [90.7931, 26.32545], [90.79172, 26.32561], [90.79183, 26.32684], [90.79194, 26.32814], [90.79268, 26.32884], [90.79398, 26.33009], [90.79437, 26.33046], [90.79563, 26.33166], [90.7993, 26.33517], [90.80094, 26.33675], [90.80314, 26.33885], [90.80496, 26.34113], [90.80665, 26.34325], [90.80663, 26.34366], [90.80641, 26.34885], [90.80695, 26.35038], [90.80699, 26.3505], [90.80714, 26.35092], [90.80888, 26.35338], [90.81001, 26.35498], [90.81019, 26.35516], [90.81057, 26.35555], [90.81107, 26.35606], [90.81151, 26.35652], [90.81569, 26.36081], [90.81615, 26.36129], [90.81662, 26.36177], [90.81667, 26.36182], [90.81768, 26.36286], [90.82051, 26.36576], [90.82128, 26.36589], [90.82447, 26.36644], [90.82578, 26.36667], [90.82588, 26.36669], [90.82716, 26.36616], [90.82859, 26.36556], [90.82926, 26.365], [90.82971, 26.36463], [90.83088, 26.36366], [90.83408, 26.361], [90.83649, 26.36008], [90.83857, 26.35929], [90.84029, 26.35863], [90.84046, 26.35857], [90.84169, 26.3581], [90.84222, 26.35807], [90.84309, 26.35802], [90.84392, 26.35832], [90.84522, 26.35878], [90.84631, 26.35917], [90.84895, 26.36012], [90.85043, 26.36065], [90.8506, 26.36071], [90.8539, 26.36079], [90.85576, 26.36083], [90.85724, 26.36087], [90.86004, 26.36171], [90.86037, 26.36181], [90.86108, 26.36368], [90.86169, 26.36529], [90.86193, 26.36593], [90.86249, 26.36739], [90.86253, 26.3675], [90.86289, 26.36847], [90.86289, 26.36855], [90.86283, 26.36976], [90.86281, 26.37029], [90.86273, 26.37205], [90.86266, 26.37365], [90.86258, 26.37531], [90.86256, 26.37557], [90.86249, 26.37567], [90.86227, 26.37599], [90.8619, 26.37653], [90.85981, 26.37956], [90.85875, 26.38109], [90.85817, 26.38157], [90.85767, 26.38199], [90.85674, 26.38277], [90.85262, 26.3862], [90.85245, 26.38635], [90.8521, 26.38676], [90.85057, 26.38856], [90.85051, 26.38863], [90.84963, 26.38966], [90.84799, 26.39323], [90.84784, 26.39356], [90.84753, 26.39424], [90.84797, 26.39606], [90.84842, 26.39787], [90.84623, 26.40243], [90.84699, 26.4039], [90.84985, 26.40933], [90.84995, 26.40954], [90.85031, 26.41022], [90.85048, 26.41055], [90.85132, 26.41214], [90.85144, 26.41237], [90.85171, 26.41343], [90.85173, 26.41349], [90.8519, 26.41419], [90.85193, 26.41429], [90.85294, 26.41823], [90.8532, 26.41858], [90.8548, 26.42075], [90.85671, 26.42333], [90.85749, 26.42439], [90.85801, 26.42509], [90.8608, 26.43096], [90.86088, 26.43113], [90.86112, 26.43163], [90.86134, 26.43393], [90.86081, 26.43462], [90.85921, 26.43667], [90.85837, 26.43734], [90.85772, 26.43786], [90.85366, 26.44111], [90.85355, 26.44118], [90.84905, 26.44402], [90.84818, 26.44457], [90.84652, 26.44562], [90.84577, 26.44521], [90.84568, 26.44516], [90.84413, 26.44432], [90.8436, 26.44347], [90.84227, 26.44135], [90.84078, 26.43898], [90.84061, 26.43871], [90.83897, 26.43731], [90.83519, 26.4341], [90.83472, 26.4337], [90.83126, 26.43241], [90.8296, 26.43237], [90.8291, 26.43235], [90.828, 26.43233], [90.82753, 26.43253], [90.82573, 26.4333], [90.82458, 26.4338], [90.82247, 26.43383], [90.82016, 26.43246], [90.81755, 26.43186], [90.81754, 26.43191], [90.81666, 26.43438], [90.81488, 26.43628], [90.81443, 26.43677], [90.81283, 26.43832], [90.81199, 26.43914], [90.81603, 26.43918], [90.81712, 26.43919], [90.82072, 26.44123], [90.82238, 26.44323], [90.82753, 26.44943], [90.82763, 26.44955], [90.82788, 26.44985], [90.82787, 26.45325], [90.82783, 26.4533], [90.82674, 26.45457], [90.82084, 26.46145], [90.82082, 26.4617], [90.82074, 26.46249], [90.82059, 26.464], [90.82007, 26.46921], [90.8199, 26.47095], [90.81968, 26.47309], [90.81957, 26.47418], [90.81952, 26.47471], [90.81934, 26.47651], [90.81897, 26.47652], [90.8186, 26.47654], [90.81451, 26.4767], [90.81043, 26.47685], [90.80919, 26.4769], [90.80634, 26.47877], [90.80621, 26.48258], [90.80693, 26.48514], [90.80695, 26.48523], [90.8073, 26.48643], [90.80679, 26.48856], [90.80678, 26.48867], [90.80601, 26.49193], [90.80543, 26.4944], [90.80728, 26.49304], [90.8079, 26.49259], [90.808, 26.49354], [90.80816, 26.49517], [90.80844, 26.49792], [90.80864, 26.4999], [90.81034, 26.50026], [90.81127, 26.50045], [90.81437, 26.49908], [90.81527, 26.49868], [90.81647, 26.4972], [90.81877, 26.49438], [90.82412, 26.4926], [90.82463, 26.49359], [90.82526, 26.49482], [90.82594, 26.49615], [90.82621, 26.49668], [90.82658, 26.4974], [90.82706, 26.49834], [90.82753, 26.49925], [90.8305, 26.50146], [90.8333, 26.50256], [90.83615, 26.50369], [90.83763, 26.50427], [90.84051, 26.50436], [90.84227, 26.50242], [90.84332, 26.50126], [90.84384, 26.50068], [90.84578, 26.49854], [90.84826, 26.49719], [90.85183, 26.4986], [90.85294, 26.49904], [90.85321, 26.49973], [90.85408, 26.50197], [90.85162, 26.50805], [90.85209, 26.51085], [90.85213, 26.51108], [90.85252, 26.51339], [90.85273, 26.51466], [90.85284, 26.5153], [90.85323, 26.5176], [90.85233, 26.5217], [90.85294, 26.52307], [90.85303, 26.52328], [90.85333, 26.52394], [90.85371, 26.52478], [90.85405, 26.52554], [90.85411, 26.52591], [90.85412, 26.52597], [90.85413, 26.526], [90.85415, 26.52611], [90.85473, 26.52933], [90.85492, 26.53039], [90.85513, 26.53152], [90.8554, 26.53299], [90.85559, 26.53406], [90.85492, 26.53401], [90.85418, 26.53396], [90.8495, 26.53366], [90.84751, 26.53461], [90.84607, 26.5353], [90.84456, 26.53602], [90.84472, 26.5368], [90.84541, 26.54114], [90.8457, 26.54294], [90.84392, 26.54154], [90.83018, 26.53078], [90.82946, 26.53022], [90.82699, 26.52828], [90.82696, 26.52826], [90.82586, 26.52835], [90.81618, 26.52916], [90.8116, 26.52954], [90.80483, 26.53011], [90.79998, 26.53051], [90.79895, 26.5306], [90.79743, 26.53073], [90.79445, 26.53097], [90.79363, 26.53104], [90.79203, 26.52777], [90.78964, 26.52288], [90.78943, 26.52263], [90.78938, 26.52257], [90.78836, 26.52137], [90.78628, 26.51892], [90.78458, 26.51692], [90.78399, 26.51622], [90.78246, 26.51441], [90.782, 26.51386], [90.78169, 26.51366], [90.77755, 26.51095], [90.77307, 26.50802], [90.76993, 26.50596], [90.76743, 26.50433], [90.76621, 26.50353], [90.76538, 26.50299], [90.76431, 26.50229], [90.76394, 26.50205], [90.7565, 26.49979], [90.74103, 26.49511], [90.73876, 26.49537], [90.73517, 26.49578], [90.72297, 26.49719], [90.72233, 26.49735], [90.71469, 26.49926], [90.71172, 26.50001], [90.71003, 26.50043], [90.70659, 26.50129], [90.70631, 26.50136], [90.70557, 26.50189], [90.70456, 26.50261], [90.70256, 26.50405], [90.70074, 26.50535], [90.69984, 26.50599], [90.69868, 26.50682], [90.69849, 26.50696], [90.69775, 26.50749], [90.69715, 26.50792], [90.69589, 26.50882], [90.69529, 26.50925], [90.6938, 26.51032], [90.69312, 26.5108], [90.69116, 26.51221], [90.68884, 26.51387], [90.68842, 26.51417], [90.6864, 26.51558], [90.68344, 26.51765], [90.68001, 26.52005], [90.66715, 26.52231], [90.66615, 26.52249], [90.66572, 26.52257], [90.6564, 26.52665], [90.6551, 26.52722], [90.65227, 26.52846], [90.65143, 26.53266], [90.65126, 26.53373], [90.65071, 26.53729], [90.64974, 26.54359], [90.64883, 26.54472], [90.64302, 26.552], [90.63676, 26.55104], [90.63547, 26.55084], [90.63209, 26.55032], [90.63024, 26.54693], [90.6297, 26.54594], [90.62895, 26.54457], [90.62874, 26.54419], [90.62858, 26.54389], [90.62766, 26.5422], [90.62704, 26.54107], [90.62732, 26.54023], [90.63041, 26.53098], [90.62845, 26.50714], [90.62837, 26.50622], [90.62793, 26.5062], [90.62819, 26.50513], [90.62818, 26.50387], [90.62804, 26.50213], [90.62773, 26.50165], [90.62586, 26.50226], [90.62182, 26.50053], [90.62033, 26.49929], [90.61693, 26.49647], [90.61506, 26.49718], [90.61193, 26.49837], [90.61004, 26.49789], [90.60888, 26.49763], [90.60554, 26.49689], [90.60328, 26.49639], [90.60259, 26.49748], [90.60066, 26.49927], [90.6002, 26.49913], [90.59562, 26.49908], [90.59247, 26.49981], [90.59221, 26.49832], [90.59188, 26.4964], [90.59099, 26.49462], [90.59072, 26.49408], [90.58958, 26.49305], [90.58912, 26.49384], [90.58905, 26.4939], [90.58863, 26.49429], [90.58805, 26.49482], [90.58743, 26.49538], [90.58585, 26.49544], [90.58554, 26.49545], [90.58535, 26.49541], [90.58514, 26.49536], [90.58416, 26.49515], [90.58405, 26.49513], [90.58336, 26.49475], [90.5825, 26.49428], [90.58162, 26.49398], [90.58162, 26.49341], [90.58162, 26.49283], [90.5794, 26.4937], [90.57585, 26.49452], [90.57525, 26.49454], [90.57239, 26.49444], [90.57204, 26.49443], [90.57192, 26.49443], [90.57149, 26.49447], [90.56926, 26.49498], [90.56918, 26.495], [90.56829, 26.49561], [90.56812, 26.49556], [90.5664, 26.49589], [90.56572, 26.49595], [90.56513, 26.49622], [90.56321, 26.49708], [90.56218, 26.49739], [90.56058, 26.49789], [90.56014, 26.49801], [90.56001, 26.49805], [90.55952, 26.4982], [90.55795, 26.4987], [90.55758, 26.49882], [90.55749, 26.49882], [90.55767, 26.49815], [90.55769, 26.49808], [90.55798, 26.49696], [90.55831, 26.49537], [90.55849, 26.49301], [90.5585, 26.49291], [90.55846, 26.49244], [90.55866, 26.4913], [90.55879, 26.49047], [90.55889, 26.48986], [90.55893, 26.48959], [90.55917, 26.48819], [90.55921, 26.48791], [90.55899, 26.48742], [90.55875, 26.48686], [90.55864, 26.48663], [90.55882, 26.48642], [90.55939, 26.48576], [90.55944, 26.4857], [90.55949, 26.48564], [90.56055, 26.48456], [90.56077, 26.48433], [90.5608, 26.48358], [90.56083, 26.48285], [90.56101, 26.48282], [90.56118, 26.48278], [90.56171, 26.48275], [90.56176, 26.48274], [90.56241, 26.48266], [90.56303, 26.48259], [90.56337, 26.48251], [90.56416, 26.48234], [90.56458, 26.48223], [90.56473, 26.48207], [90.56492, 26.48187], [90.56533, 26.48143], [90.56606, 26.48065], [90.56608, 26.48061], [90.56616, 26.48046], [90.56622, 26.48034], [90.56624, 26.48029], [90.56725, 26.47843], [90.56748, 26.478], [90.56782, 26.47737], [90.56797, 26.47709], [90.56805, 26.47695], [90.56833, 26.47625], [90.56842, 26.47602], [90.56854, 26.47573], [90.56873, 26.47525], [90.5691, 26.47428], [90.5692, 26.47422], [90.56974, 26.47392], [90.57092, 26.47326], [90.57209, 26.47306], [90.57291, 26.47291], [90.57293, 26.47291], [90.57358, 26.47266], [90.57421, 26.47241], [90.57437, 26.47221], [90.5748, 26.47166], [90.57515, 26.47123], [90.57533, 26.47065], [90.57591, 26.46872], [90.57614, 26.46795], [90.57658, 26.46656], [90.57671, 26.46615], [90.57767, 26.46347], [90.57776, 26.46321], [90.579, 26.46096], [90.58025, 26.45964], [90.58255, 26.45728], [90.58393, 26.45622], [90.58325, 26.45469], [90.58312, 26.4513], [90.58281, 26.44804], [90.58184, 26.44855], [90.58155, 26.44963], [90.58056, 26.45244], [90.57892, 26.45347], [90.57615, 26.45407], [90.57474, 26.45397], [90.57471, 26.45477], [90.57566, 26.4575], [90.57497, 26.4591], [90.5749, 26.45919], [90.57422, 26.46016], [90.5745, 26.46073], [90.57467, 26.46112], [90.57615, 26.46224], [90.57592, 26.46372], [90.57583, 26.46426], [90.57507, 26.46532], [90.57446, 26.46565], [90.57189, 26.46706], [90.5718, 26.46711], [90.57072, 26.46746], [90.5698, 26.46776], [90.56967, 26.4678], [90.56757, 26.46848], [90.5674, 26.46873], [90.56694, 26.46943], [90.5664, 26.4702], [90.56564, 26.47066], [90.56556, 26.47071], [90.56491, 26.4711], [90.56473, 26.47111], [90.56377, 26.47096], [90.56368, 26.47094], [90.56281, 26.47104], [90.56244, 26.47096], [90.56214, 26.4709], [90.56139, 26.47088], [90.56084, 26.47086], [90.56045, 26.47085], [90.55951, 26.47084], [90.55849, 26.47081], [90.55754, 26.47102], [90.55707, 26.47113], [90.55628, 26.47131], [90.55627, 26.47077], [90.55627, 26.47034], [90.55626, 26.46917], [90.55627, 26.46871], [90.55628, 26.46823], [90.55542, 26.46754], [90.55525, 26.4674], [90.55477, 26.4669], [90.55381, 26.4659], [90.55353, 26.46561], [90.55271, 26.46532], [90.55131, 26.46573], [90.55137, 26.46212], [90.55136, 26.46207], [90.55105, 26.46042], [90.55098, 26.46008], [90.551, 26.45995], [90.55139, 26.45927], [90.55274, 26.45811], [90.55239, 26.45765], [90.55335, 26.45599], [90.55373, 26.45534], [90.55391, 26.45506], [90.55539, 26.45266], [90.55712, 26.44987], [90.55755, 26.44943], [90.55768, 26.4493], [90.55794, 26.44903], [90.55813, 26.44883], [90.55887, 26.44807], [90.55908, 26.44785], [90.55738, 26.44707], [90.55724, 26.44707], [90.55377, 26.44698], [90.55252, 26.44695], [90.55137, 26.44705], [90.55078, 26.44711], [90.55053, 26.44714], [90.5495, 26.44723], [90.54866, 26.4473], [90.54755, 26.4474], [90.54727, 26.44811], [90.54679, 26.44838], [90.54616, 26.44851], [90.54558, 26.44863], [90.54409, 26.44888], [90.54405, 26.44887], [90.54211, 26.44842], [90.53872, 26.44778], [90.53763, 26.44776], [90.5376, 26.44774], [90.53646, 26.44706], [90.53582, 26.44667], [90.53572, 26.44555], [90.5357, 26.44539], [90.53622, 26.44397], [90.53722, 26.44124], [90.53727, 26.44111], [90.53739, 26.44079], [90.53744, 26.44066], [90.53744, 26.44009], [90.53743, 26.43821], [90.53742, 26.43585], [90.53729, 26.43494], [90.53698, 26.43342], [90.53694, 26.43251], [90.53685, 26.43187], [90.53691, 26.43164], [90.53711, 26.43084], [90.53734, 26.42993], [90.5376, 26.42891], [90.53758, 26.42886], [90.53715, 26.4278], [90.53666, 26.4266], [90.53632, 26.42576], [90.53317, 26.42667], [90.53116, 26.42725], [90.52872, 26.42796], [90.52667, 26.42855], [90.52362, 26.42943], [90.5214, 26.43007], [90.52057, 26.43031], [90.51761, 26.43117], [90.51743, 26.43122], [90.51616, 26.43504], [90.51396, 26.44164], [90.5164, 26.45078], [90.51674, 26.45205], [90.51765, 26.45545], [90.51766, 26.4555], [90.5188, 26.45979], [90.51952, 26.46247], [90.51907, 26.46786], [90.51894, 26.46943], [90.51882, 26.4708], [90.51298, 26.4708], [90.5075, 26.4708], [90.50702, 26.4708], [90.50304, 26.4708], [90.50277, 26.4708], [90.50084, 26.4708], [90.4881, 26.4708], [90.4876, 26.4708], [90.4848, 26.4708], [90.48422, 26.4708], [90.48373, 26.4708], [90.47926, 26.4708], [90.47676, 26.4708], [90.46638, 26.4708], [90.46605, 26.4708], [90.45907, 26.46895], [90.45443, 26.46772], [90.45048, 26.46668], [90.45218, 26.46438], [90.45267, 26.46373], [90.45335, 26.46281], [90.45004, 26.46281], [90.44947, 26.46101], [90.44726, 26.45396], [90.44594, 26.45204], [90.44591, 26.45199], [90.44409, 26.45136], [90.44385, 26.45128], [90.44319, 26.45134], [90.43828, 26.45182], [90.43753, 26.45191], [90.43437, 26.45229], [90.43294, 26.45262], [90.43263, 26.45269], [90.42952, 26.45339], [90.42705, 26.45131], [90.42659, 26.45092], [90.42155, 26.44826], [90.42103, 26.44818], [90.41966, 26.44798], [90.41722, 26.44762], [90.41582, 26.44742], [90.41528, 26.44734], [90.41352, 26.44567], [90.41263, 26.44377], [90.41235, 26.44294], [90.41165, 26.44084], [90.41142, 26.44017], [90.41137, 26.44002], [90.41038, 26.4371], [90.4091, 26.4333], [90.40613, 26.42451], [90.40532, 26.42212], [90.4035, 26.41672], [90.40252, 26.41383], [90.40171, 26.41133], [90.40021, 26.40668], [90.39918, 26.40348], [90.399, 26.40291], [90.39853, 26.40147], [90.39828, 26.40011], [90.39903, 26.39862], [90.39939, 26.39789], [90.39975, 26.39747], [90.40093, 26.39608], [90.40116, 26.39581], [90.40826, 26.38745], [90.41119, 26.384], [90.41331, 26.38103], [90.41687, 26.37605], [90.41709, 26.37574], [90.41716, 26.37564], [90.41814, 26.37428], [90.41825, 26.37308], [90.41857, 26.36978], [90.41914, 26.36388], [90.41924, 26.36288], [90.41941, 26.36101], [90.41954, 26.35963], [90.41959, 26.35905], [90.41956, 26.35697], [90.41881, 26.35337], [90.41923, 26.3524], [90.41986, 26.35164], [90.42004, 26.35024], [90.41993, 26.34953], [90.41975, 26.34829], [90.4195, 26.3454], [90.41945, 26.34484], [90.42016, 26.34216], [90.42143, 26.34198], [90.42259, 26.34219], [90.42355, 26.34237], [90.42576, 26.3433], [90.42699, 26.34356], [90.42796, 26.34376], [90.42817, 26.34371], [90.43101, 26.34305], [90.4325, 26.34271], [90.43517, 26.34334], [90.43574, 26.34356], [90.43521, 26.34382], [90.43749, 26.34306], [90.43807, 26.34047], [90.43911, 26.33863], [90.43963, 26.33754], [90.44, 26.33523], [90.44096, 26.33401], [90.44317, 26.33295], [90.4439, 26.33233], [90.44569, 26.33323], [90.44707, 26.33392], [90.4476, 26.33403], [90.44741, 26.33454], [90.44728, 26.33689], [90.44724, 26.33753], [90.44719, 26.33824], [90.44709, 26.3397], [90.44708, 26.33988], [90.44676, 26.34098], [90.4467, 26.34117], [90.44923, 26.34121], [90.45171, 26.33989], [90.45192, 26.33986], [90.45336, 26.33966], [90.45353, 26.33971], [90.45502, 26.34015], [90.4556, 26.34198], [90.45695, 26.34181], [90.45834, 26.34105], [90.45801, 26.34042], [90.45723, 26.33894], [90.45803, 26.33855], [90.45931, 26.3379], [90.46273, 26.33286], [90.4631, 26.33235], [90.46445, 26.33032], [90.46784, 26.33147], [90.46835, 26.33164], [90.46951, 26.33203], [90.47277, 26.33313], [90.47506, 26.33254], [90.47607, 26.33127], [90.4731, 26.32837], [90.47233, 26.32761], [90.46957, 26.32636], [90.47061, 26.32391], [90.47168, 26.3214], [90.47229, 26.32048], [90.47251, 26.32017], [90.47376, 26.31834], [90.47397, 26.31803], [90.47685, 26.31379], [90.47914, 26.31043], [90.47943, 26.31], [90.48064, 26.30821], [90.48156, 26.30574], [90.48175, 26.30526], [90.48169, 26.30511], [90.48103, 26.30355], [90.48046, 26.30221], [90.48043, 26.30213], [90.48037, 26.30199], [90.48042, 26.30168], [90.48079, 26.29951], [90.48087, 26.29936], [90.48163, 26.298], [90.48266, 26.29616], [90.48306, 26.29241], [90.48278, 26.29034], [90.48223, 26.28989], [90.48188, 26.2896], [90.47847, 26.28851], [90.47746, 26.28819], [90.47771, 26.28719], [90.47796, 26.28617], [90.47771, 26.28212], [90.47778, 26.28154], [90.47803, 26.27935], [90.47833, 26.27867], [90.47846, 26.2784], [90.47863, 26.27804], [90.4814, 26.27684], [90.48208, 26.27655], [90.48392, 26.2763], [90.48605, 26.27602], [90.48633, 26.27586], [90.48864, 26.27265], [90.48955, 26.27165], [90.48935, 26.27081], [90.48931, 26.27065], [90.48588, 26.26847], [90.48552, 26.26824], [90.48407, 26.26723], [90.48346, 26.26674], [90.48323, 26.26655], [90.48245, 26.26593], [90.48177, 26.26503], [90.48185, 26.26486], [90.48065, 26.26432], [90.47942, 26.26281], [90.47871, 26.26206], [90.47715, 26.26043], [90.47593, 26.25915], [90.47541, 26.25895], [90.47015, 26.25699], [90.46881, 26.25675], [90.4662, 26.25628], [90.46369, 26.25568], [90.46131, 26.25511], [90.45866, 26.25423], [90.45773, 26.25407], [90.4566, 26.25186], [90.45614, 26.25002], [90.45753, 26.24832], [90.45857, 26.24709], [90.45989, 26.24585], [90.46016, 26.24444], [90.45217, 26.24429], [90.44738, 26.24462], [90.44164, 26.24499], [90.44145, 26.24431], [90.43959, 26.24341], [90.43384, 26.24401], [90.4289, 26.24452], [90.42505, 26.24054], [90.42116, 26.23651], [90.41724, 26.23458], [90.41694, 26.23429], [90.40616, 26.22418], [90.40567, 26.22384], [90.40277, 26.22184], [90.40129, 26.22082], [90.39741, 26.22056], [90.39602, 26.22192], [90.39561, 26.22232], [90.39557, 26.22236], [90.39122, 26.22458], [90.39019, 26.22511], [90.38584, 26.22558], [90.38459, 26.22572], [90.38087, 26.22408], [90.38047, 26.22355], [90.37894, 26.22156], [90.37896, 26.22012], [90.37899, 26.21782], [90.37905, 26.21338], [90.38017, 26.20663], [90.37978, 26.19827], [90.37977, 26.19801], [90.37961, 26.19461], [90.3796, 26.19449], [90.37934, 26.18891], [90.37844, 26.18226], [90.37836, 26.18166], [90.38095, 26.18269], [90.3892, 26.18598], [90.39371, 26.18777], [90.40123, 26.19034], [90.40906, 26.19344], [90.4105, 26.19401], [90.41702, 26.1966], [90.41818, 26.19706], [90.41916, 26.19745], [90.41921, 26.19751], [90.41644, 26.19874], [90.41091, 26.19984], [90.40789, 26.20258], [90.41025, 26.20331], [90.41648, 26.20459], [90.41736, 26.20491], [90.42205, 26.20355], [90.42514, 26.20338], [90.42613, 26.20335], [90.42808, 26.20337], [90.43121, 26.20348], [90.43128, 26.20349], [90.4294, 26.20239], [90.42976, 26.20196], [90.43172, 26.20151], [90.43426, 26.20138], [90.43478, 26.20088], [90.43492, 26.20075], [90.44077, 26.20161], [90.44097, 26.20164], [90.44133, 26.20169], [90.44154, 26.20173], [90.44477, 26.2022], [90.44832, 26.20272], [90.45137, 26.20317], [90.45357, 26.2035], [90.45433, 26.20361], [90.45552, 26.20378], [90.45566, 26.2038], [90.46485, 26.20516], [90.48276, 26.20297], [90.4826, 26.2032], [90.482, 26.20379], [90.48179, 26.20472], [90.4819, 26.2073], [90.47989, 26.21001], [90.48079, 26.20988], [90.4817, 26.20947], [90.48314, 26.20766], [90.48438, 26.20652], [90.48688, 26.20571], [90.49021, 26.20563], [90.49096, 26.20595], [90.49098, 26.20753], [90.49219, 26.20805], [90.49361, 26.20731], [90.49488, 26.20685], [90.49597, 26.20648], [90.49632, 26.20368], [90.49489, 26.20221], [90.49486, 26.20217], [90.49442, 26.20155], [90.49483, 26.2015], [90.49749, 26.20117], [90.50083, 26.20076], [90.50098, 26.20074], [90.50777, 26.19991], [90.51055, 26.20152], [90.51095, 26.20175], [90.51117, 26.20188], [90.51771, 26.20565], [90.52034, 26.20717], [90.52196, 26.2081], [90.52203, 26.20814], [90.52883, 26.20973], [90.53033, 26.21008], [90.53432, 26.21101], [90.53509, 26.21119], [90.56007, 26.217], [90.56277, 26.21763], [90.56933, 26.21952], [90.56979, 26.21965], [90.5713, 26.22008], [90.57602, 26.22143], [90.57822, 26.22206], [90.58775, 26.22479], [90.5879, 26.22483], [90.59298, 26.22629], [90.59316, 26.22634], [90.59673, 26.22736], [90.59916, 26.22806], [90.60328, 26.22924], [90.60363, 26.22933], [90.60529, 26.22981], [90.60791, 26.23056], [90.61175, 26.23146], [90.61183, 26.23148], [90.61496, 26.23221], [90.61678, 26.23264], [90.61858, 26.23306], [90.62172, 26.2338], [90.6275, 26.23515], [90.62804, 26.23528], [90.63892, 26.23782], [90.64175, 26.23848], [90.64659, 26.23961], [90.6546, 26.24148], [90.65502, 26.24158]]]}}]}