{"type": "FeatureCollection", "features": [{"type": "Feature", "properties": {"Name": "Cachar"}, "geometry": {"type": "Polygon", "coordinates": [[[92.58787, 24.86226], [92.58817, 24.86248], [92.58867, 24.86285], [92.58915, 24.8632], [92.59055, 24.86424], [92.5903, 24.86483], [92.59018, 24.86511], [92.58989, 24.8658], [92.58971, 24.86622], [92.58925, 24.8673], [92.58918, 24.86747], [92.58917, 24.86749], [92.58795, 24.86806], [92.5869, 24.86855], [92.58503, 24.86942], [92.58328, 24.87024], [92.58315, 24.8703], [92.583, 24.87037], [92.5823, 24.8707], [92.58136, 24.87114], [92.58095, 24.87133], [92.58094, 24.87277], [92.58093, 24.87329], [92.58129, 24.87356], [92.58187, 24.87376], [92.58205, 24.87384], [92.58227, 24.87391], [92.58329, 24.87412], [92.5839, 24.87438], [92.58406, 24.87442], [92.58528, 24.87476], [92.58538, 24.8748], [92.58692, 24.87527], [92.58723, 24.87536], [92.58762, 24.87548], [92.58778, 24.87553], [92.58837, 24.8757], [92.59001, 24.8762], [92.59103, 24.87651], [92.5911, 24.87653], [92.59254, 24.87697], [92.59492, 24.87769], [92.59531, 24.87781], [92.59682, 24.87827], [92.59938, 24.8787], [92.59959, 24.87874], [92.60089, 24.87842], [92.60159, 24.878], [92.60195, 24.87779], [92.60256, 24.87743], [92.60302, 24.87712], [92.60346, 24.87682], [92.60415, 24.87636], [92.60501, 24.87578], [92.60708, 24.87428], [92.60995, 24.87224], [92.61163, 24.87205], [92.61115, 24.8715], [92.61008, 24.86971], [92.6096, 24.86854], [92.60901, 24.86713], [92.609, 24.8671], [92.60849, 24.86594], [92.60823, 24.86537], [92.60742, 24.86355], [92.60776, 24.86309], [92.60883, 24.8616], [92.60908, 24.86125], [92.61044, 24.86088], [92.61068, 24.86081], [92.61342, 24.86004], [92.61817, 24.85872], [92.61946, 24.85836], [92.62185, 24.85726], [92.62709, 24.85486], [92.63013, 24.85347], [92.62972, 24.85194], [92.62964, 24.85167], [92.62966, 24.8516], [92.62972, 24.85137], [92.62982, 24.85095], [92.63055, 24.84817], [92.63408, 24.84213], [92.63423, 24.84187], [92.6349, 24.84071], [92.63746, 24.83628], [92.63771, 24.83585], [92.63727, 24.83528], [92.63675, 24.83461], [92.63642, 24.83419], [92.63453, 24.83177], [92.63305, 24.83188], [92.63286, 24.83172], [92.63284, 24.83131], [92.6327, 24.83013], [92.63251, 24.83008], [92.63234, 24.83003], [92.63188, 24.8299], [92.63136, 24.83032], [92.63017, 24.82727], [92.6307, 24.8253], [92.6287, 24.82485], [92.62871, 24.82387], [92.62872, 24.82372], [92.62878, 24.82235], [92.62897, 24.82237], [92.62951, 24.82241], [92.63183, 24.82255], [92.63399, 24.82179], [92.63437, 24.82181], [92.63582, 24.82189], [92.63649, 24.82146], [92.63681, 24.82126], [92.63867, 24.81917], [92.63926, 24.81851], [92.63973, 24.81799], [92.64003, 24.81765], [92.64176, 24.81942], [92.64217, 24.81942], [92.64428, 24.8186], [92.64434, 24.81858], [92.64472, 24.81843], [92.6453, 24.8182], [92.64554, 24.81811], [92.64562, 24.81815], [92.64567, 24.81817], [92.6459, 24.81827], [92.64787, 24.8191], [92.65114, 24.82018], [92.65261, 24.82066], [92.65675, 24.82207], [92.6574, 24.82243], [92.6583, 24.82263], [92.65835, 24.82264], [92.65964, 24.82292], [92.66022, 24.82306], [92.66122, 24.8234], [92.66129, 24.82342], [92.66141, 24.82348], [92.66282, 24.82403], [92.66429, 24.82445], [92.66537, 24.82476], [92.66737, 24.82503], [92.6677, 24.82502], [92.67039, 24.82492], [92.67116, 24.82471], [92.6727, 24.82427], [92.67537, 24.82256], [92.67556, 24.82209], [92.6754, 24.82147], [92.67484, 24.81923], [92.67478, 24.81797], [92.6747, 24.81613], [92.67467, 24.81538], [92.67465, 24.81498], [92.6767, 24.81491], [92.6791, 24.81356], [92.68024, 24.81178], [92.68186, 24.80925], [92.68342, 24.80687], [92.68278, 24.80274], [92.68127, 24.80127], [92.67905, 24.79911], [92.67776, 24.79785], [92.67613, 24.79627], [92.67131, 24.79158], [92.6698, 24.79081], [92.66861, 24.7902], [92.6685, 24.78977], [92.6669, 24.78346], [92.66681, 24.78311], [92.66533, 24.7774], [92.66602, 24.77025], [92.66624, 24.76784], [92.66624, 24.76779], [92.66575, 24.7672], [92.66455, 24.76576], [92.66475, 24.76243], [92.66473, 24.76238], [92.66287, 24.75838], [92.66077, 24.75386], [92.65891, 24.74985], [92.65817, 24.74825], [92.65794, 24.74776], [92.65606, 24.74198], [92.65578, 24.74051], [92.65492, 24.73609], [92.65501, 24.73399], [92.65506, 24.73304], [92.65526, 24.72859], [92.65564, 24.72566], [92.65598, 24.72308], [92.65609, 24.72285], [92.65731, 24.72039], [92.65734, 24.72002], [92.65738, 24.71952], [92.65764, 24.71626], [92.6513, 24.71724], [92.64632, 24.71932], [92.64398, 24.7203], [92.64358, 24.71879], [92.64433, 24.71695], [92.64448, 24.71443], [92.6445, 24.71414], [92.64305, 24.7101], [92.64214, 24.70755], [92.64223, 24.70718], [92.64246, 24.70614], [92.64312, 24.70314], [92.64328, 24.70243], [92.64318, 24.69902], [92.64308, 24.6957], [92.64302, 24.69461], [92.64284, 24.6914], [92.64282, 24.69101], [92.64281, 24.69087], [92.64319, 24.68956], [92.6439, 24.68712], [92.64503, 24.68322], [92.64522, 24.68258], [92.64619, 24.68297], [92.6519, 24.68581], [92.65503, 24.68822], [92.65538, 24.68521], [92.65565, 24.68282], [92.65656, 24.67491], [92.6566, 24.67482], [92.65867, 24.66958], [92.65986, 24.66963], [92.65976, 24.66943], [92.65896, 24.66821], [92.65704, 24.66904], [92.65635, 24.66122], [92.6564, 24.66098], [92.65755, 24.65554], [92.65836, 24.64837], [92.6635, 24.64635], [92.66615, 24.64619], [92.66602, 24.64497], [92.66536, 24.63917], [92.66654, 24.63479], [92.66697, 24.6332], [92.66713, 24.6326], [92.66746, 24.63137], [92.66593, 24.63104], [92.66569, 24.63106], [92.66389, 24.63122], [92.66305, 24.63175], [92.66117, 24.63294], [92.65807, 24.63339], [92.65768, 24.63345], [92.65568, 24.63392], [92.65236, 24.63497], [92.65205, 24.63568], [92.651, 24.63313], [92.6506, 24.63062], [92.65084, 24.62925], [92.65263, 24.62732], [92.65389, 24.62687], [92.65427, 24.62674], [92.65564, 24.62625], [92.65522, 24.62318], [92.65467, 24.61918], [92.65328, 24.61738], [92.65273, 24.61394], [92.65271, 24.61381], [92.65161, 24.61304], [92.64929, 24.61141], [92.6494, 24.6114], [92.65021, 24.61133], [92.65085, 24.61176], [92.65282, 24.61308], [92.6562, 24.61535], [92.65802, 24.61605], [92.65884, 24.6161], [92.66433, 24.61931], [92.66932, 24.62151], [92.67154, 24.62417], [92.67412, 24.62675], [92.67591, 24.62749], [92.67705, 24.62797], [92.67978, 24.62912], [92.68221, 24.62764], [92.68341, 24.62691], [92.68345, 24.62685], [92.68375, 24.62667], [92.68225, 24.62638], [92.68035, 24.62551], [92.68017, 24.62531], [92.67951, 24.62264], [92.67944, 24.62215], [92.67862, 24.62148], [92.678, 24.62114], [92.67622, 24.62035], [92.67503, 24.6194], [92.67303, 24.61846], [92.67081, 24.61676], [92.66936, 24.61626], [92.66918, 24.616], [92.66905, 24.6156], [92.66911, 24.61458], [92.66912, 24.6144], [92.66915, 24.61376], [92.66888, 24.61326], [92.66856, 24.61282], [92.6685, 24.61251], [92.66912, 24.61196], [92.66943, 24.61149], [92.66964, 24.61069], [92.66973, 24.61004], [92.66957, 24.60988], [92.66946, 24.60976], [92.66876, 24.60976], [92.6687, 24.60977], [92.66843, 24.60778], [92.66841, 24.60764], [92.66834, 24.60706], [92.66838, 24.60697], [92.6696, 24.60444], [92.67024, 24.60312], [92.67233, 24.59878], [92.67106, 24.59708], [92.66915, 24.59453], [92.66865, 24.59142], [92.67058, 24.58784], [92.67363, 24.58403], [92.67557, 24.5816], [92.67751, 24.58187], [92.68495, 24.58082], [92.68849, 24.57921], [92.68888, 24.57892], [92.69269, 24.57584], [92.69759, 24.57188], [92.69973, 24.57015], [92.70083, 24.56853], [92.70197, 24.56685], [92.70224, 24.56645], [92.70366, 24.56432], [92.7049, 24.56488], [92.70533, 24.56507], [92.70831, 24.56642], [92.70902, 24.56673], [92.71071, 24.56745], [92.71134, 24.56772], [92.71288, 24.56839], [92.71352, 24.56866], [92.71642, 24.5688], [92.71801, 24.56531], [92.7195, 24.56626], [92.72058, 24.56695], [92.72139, 24.56747], [92.72184, 24.56775], [92.72218, 24.56797], [92.72371, 24.56894], [92.72393, 24.56908], [92.72442, 24.56939], [92.7268, 24.57277], [92.72687, 24.57286], [92.72746, 24.5737], [92.72825, 24.57481], [92.72836, 24.57497], [92.73156, 24.57951], [92.73257, 24.58094], [92.73393, 24.58287], [92.7333, 24.58603], [92.73516, 24.58648], [92.73579, 24.58663], [92.73751, 24.58705], [92.73966, 24.58455], [92.74036, 24.58374], [92.74141, 24.58388], [92.74219, 24.58399], [92.74253, 24.58404], [92.7447, 24.58435], [92.74893, 24.58266], [92.75207, 24.58246], [92.75378, 24.58305], [92.7594, 24.57706], [92.76007, 24.57512], [92.76029, 24.57448], [92.76154, 24.57086], [92.7629, 24.56691], [92.76521, 24.56756], [92.7654, 24.56761], [92.76665, 24.56796], [92.77309, 24.56976], [92.77908, 24.56958], [92.77942, 24.55992], [92.77797, 24.55968], [92.77677, 24.5582], [92.77292, 24.55345], [92.77177, 24.55204], [92.77185, 24.54888], [92.77247, 24.54818], [92.774, 24.54647], [92.7714, 24.54286], [92.76811, 24.53834], [92.76215, 24.53017], [92.76054, 24.52497], [92.75834, 24.52157], [92.75798, 24.51889], [92.76036, 24.51848], [92.76181, 24.51913], [92.76195, 24.51908], [92.76351, 24.51852], [92.7667, 24.51065], [92.76851, 24.50616], [92.76909, 24.50471], [92.77432, 24.49182], [92.77742, 24.48414], [92.778, 24.48195], [92.77801, 24.4819], [92.78048, 24.47244], [92.78183, 24.47018], [92.78263, 24.46883], [92.78316, 24.4667], [92.78448, 24.46137], [92.78516, 24.45995], [92.7875, 24.45497], [92.7881, 24.4537], [92.7921, 24.44167], [92.79549, 24.43349], [92.79586, 24.4326], [92.79597, 24.43233], [92.79737, 24.4308], [92.79849, 24.42958], [92.80042, 24.426], [92.80102, 24.42489], [92.80214, 24.42145], [92.80242, 24.42059], [92.80198, 24.41933], [92.8001, 24.4192], [92.79835, 24.41899], [92.79897, 24.41666], [92.80186, 24.41639], [92.80532, 24.41746], [92.80765, 24.41689], [92.80734, 24.41569], [92.80721, 24.41519], [92.80703, 24.41448], [92.80725, 24.41385], [92.80732, 24.41365], [92.80761, 24.41282], [92.80955, 24.41295], [92.80931, 24.41122], [92.81459, 24.40983], [92.81605, 24.4102], [92.81648, 24.41031], [92.81672, 24.4098], [92.81696, 24.40929], [92.81769, 24.40772], [92.81811, 24.40682], [92.81926, 24.40435], [92.82292, 24.40174], [92.82587, 24.40044], [92.82752, 24.39972], [92.82845, 24.39931], [92.82947, 24.39806], [92.82957, 24.39769], [92.82967, 24.39733], [92.82978, 24.3969], [92.82777, 24.3946], [92.82471, 24.39111], [92.82315, 24.38806], [92.82353, 24.38599], [92.82542, 24.38408], [92.82637, 24.38314], [92.82635, 24.38208], [92.82633, 24.38102], [92.8263, 24.37918], [92.82628, 24.37734], [92.82708, 24.37533], [92.82894, 24.37463], [92.8308, 24.37392], [92.83341, 24.37559], [92.83602, 24.37726], [92.83686, 24.3778], [92.8377, 24.37834], [92.84235, 24.3774], [92.84499, 24.37984], [92.84717, 24.38365], [92.84973, 24.38988], [92.85256, 24.39151], [92.85714, 24.39592], [92.86097, 24.39698], [92.86699, 24.39532], [92.86842, 24.39492], [92.86985, 24.39453], [92.87084, 24.39462], [92.87192, 24.39471], [92.87626, 24.39635], [92.88228, 24.40049], [92.88284, 24.40028], [92.88605, 24.39908], [92.8861, 24.39909], [92.88882, 24.39973], [92.88976, 24.39922], [92.8924, 24.39279], [92.89242, 24.39274], [92.89301, 24.39243], [92.8934, 24.39223], [92.89438, 24.39173], [92.89668, 24.39129], [92.89898, 24.39085], [92.8999, 24.39107], [92.90319, 24.39186], [92.90325, 24.39194], [92.90388, 24.39278], [92.90387, 24.3931], [92.90385, 24.39358], [92.90375, 24.39646], [92.90552, 24.3985], [92.90642, 24.39953], [92.90732, 24.40057], [92.90895, 24.40763], [92.90926, 24.40897], [92.90956, 24.4103], [92.91949, 24.40425], [92.9214, 24.40309], [92.92125, 24.40281], [92.92059, 24.40153], [92.92166, 24.39998], [92.92336, 24.39959], [92.92564, 24.396], [92.93368, 24.39289], [92.9357, 24.39405], [92.93651, 24.39636], [92.93852, 24.39838], [92.9396, 24.39862], [92.9421, 24.39917], [92.94495, 24.40036], [92.94631, 24.40094], [92.9492, 24.40215], [92.95052, 24.40204], [92.95184, 24.40194], [92.95266, 24.40119], [92.9539, 24.39907], [92.95607, 24.39535], [92.95827, 24.39318], [92.96876, 24.39849], [92.97209, 24.403], [92.97359, 24.40503], [92.97758, 24.4067], [92.97818, 24.40695], [92.98001, 24.40619], [92.98334, 24.40481], [92.98424, 24.40472], [92.98525, 24.40486], [92.98613, 24.40489], [92.98623, 24.40489], [92.98631, 24.40484], [92.98981, 24.40272], [92.9915, 24.40098], [92.99325, 24.39918], [92.99594, 24.39879], [92.99839, 24.40049], [92.9996, 24.40225], [93.00434, 24.40913], [93.00679, 24.40258], [93.01197, 24.40048], [93.01386, 24.39972], [93.02706, 24.4035], [93.037, 24.40827], [93.03708, 24.41105], [93.03719, 24.41471], [93.03317, 24.42106], [93.03003, 24.42601], [93.03249, 24.43411], [93.03461, 24.44109], [93.0358, 24.45829], [93.04614, 24.46108], [93.04618, 24.46275], [93.04642, 24.4726], [93.04583, 24.47393], [93.04363, 24.47894], [93.0435, 24.47913], [93.0337, 24.49409], [93.03392, 24.49432], [93.04227, 24.50292], [93.03796, 24.50794], [93.03937, 24.51172], [93.03998, 24.51199], [93.05078, 24.51676], [93.05076, 24.52042], [93.05076, 24.52177], [93.05044, 24.52223], [93.04643, 24.52803], [93.0468, 24.52886], [93.04925, 24.5343], [93.04949, 24.53562], [93.04962, 24.5363], [93.05044, 24.54074], [93.05064, 24.54183], [93.05223, 24.5437], [93.05736, 24.54973], [93.05918, 24.55186], [93.06009, 24.55028], [93.06269, 24.54576], [93.0635, 24.54435], [93.06426, 24.54582], [93.07064, 24.55815], [93.0696, 24.55939], [93.0666, 24.56298], [93.06315, 24.5671], [93.05911, 24.57193], [93.05942, 24.57197], [93.06038, 24.57209], [93.06919, 24.57321], [93.07642, 24.57197], [93.07815, 24.57122], [93.08171, 24.56968], [93.08509, 24.56822], [93.08745, 24.57057], [93.09098, 24.57408], [93.09417, 24.57725], [93.0944, 24.57775], [93.09484, 24.57873], [93.09497, 24.57902], [93.09522, 24.57956], [93.1015, 24.57958], [93.10235, 24.57958], [93.10241, 24.57958], [93.10491, 24.58056], [93.10467, 24.58096], [93.10442, 24.58136], [93.10357, 24.58271], [93.10239, 24.5846], [93.09662, 24.58835], [93.08652, 24.58707], [93.08409, 24.58776], [93.0778, 24.58955], [93.07342, 24.59329], [93.0734, 24.59518], [93.07339, 24.59652], [93.07338, 24.59707], [93.07387, 24.59839], [93.07408, 24.59895], [93.07477, 24.60082], [93.08476, 24.60837], [93.08472, 24.61088], [93.08295, 24.6124], [93.08177, 24.61341], [93.08035, 24.61463], [93.07888, 24.6165], [93.07742, 24.61838], [93.07741, 24.61951], [93.07738, 24.62157], [93.07735, 24.62339], [93.08021, 24.62465], [93.08739, 24.62466], [93.08735, 24.62785], [93.08731, 24.63093], [93.08674, 24.63271], [93.08288, 24.64471], [93.08304, 24.64514], [93.08388, 24.64739], [93.08429, 24.64848], [93.08571, 24.64911], [93.08714, 24.64973], [93.08824, 24.64973], [93.08963, 24.64973], [93.08966, 24.64973], [93.0943, 24.64974], [93.09428, 24.65162], [93.09427, 24.65311], [93.09427, 24.65351], [93.09497, 24.65475], [93.09503, 24.65486], [93.09566, 24.65598], [93.09569, 24.65602], [93.09569, 24.65609], [93.09566, 24.65978], [93.09707, 24.66355], [93.09718, 24.66368], [93.10134, 24.66857], [93.10147, 24.66892], [93.10246, 24.67156], [93.10275, 24.67234], [93.10275, 24.67243], [93.10275, 24.67302], [93.10273, 24.67611], [93.09987, 24.67736], [93.09559, 24.67484], [93.09539, 24.67478], [93.09416, 24.67442], [93.0913, 24.67358], [93.08994, 24.67477], [93.08986, 24.67484], [93.08985, 24.67735], [93.09028, 24.6785], [93.09044, 24.67893], [93.09125, 24.68111], [93.09125, 24.68118], [93.09125, 24.68168], [93.09125, 24.68488], [93.09102, 24.68528], [93.08836, 24.6899], [93.08287, 24.69469], [93.08261, 24.69491], [93.08205, 24.69638], [93.08117, 24.69868], [93.07973, 24.69994], [93.07829, 24.70119], [93.07625, 24.70415], [93.07607, 24.70441], [93.07454, 24.70664], [93.07397, 24.70746], [93.07681, 24.71123], [93.07896, 24.71016], [93.08144, 24.70892], [93.08226, 24.70851], [93.08367, 24.70781], [93.08686, 24.70622], [93.08725, 24.70679], [93.08743, 24.70706], [93.08746, 24.70711], [93.0875, 24.70716], [93.08867, 24.70888], [93.08877, 24.70903], [93.09113, 24.71251], [93.09183, 24.71502], [93.09202, 24.7157], [93.09253, 24.71753], [93.09247, 24.71769], [93.09223, 24.71833], [93.09153, 24.72016], [93.09127, 24.72084], [93.0911, 24.7213], [93.09198, 24.7213], [93.09253, 24.7213], [93.09377, 24.72294], [93.09445, 24.72385], [93.09495, 24.72451], [93.09503, 24.72462], [93.09537, 24.72507], [93.09536, 24.72748], [93.09536, 24.72769], [93.09536, 24.72884], [93.09585, 24.72919], [93.09839, 24.73098], [93.09853, 24.73108], [93.1025, 24.73388], [93.10372, 24.73602], [93.10393, 24.7364], [93.10411, 24.73672], [93.1045, 24.73741], [93.10492, 24.73815], [93.10535, 24.73891], [93.10523, 24.73921], [93.1039, 24.74267], [93.1031, 24.74302], [93.10169, 24.74363], [93.10103, 24.74392], [93.10103, 24.74305], [93.10104, 24.74204], [93.10105, 24.74016], [93.09962, 24.73889], [93.09734, 24.74088], [93.09675, 24.7414], [93.09754, 24.7428], [93.09789, 24.74342], [93.09797, 24.74356], [93.09833, 24.7442], [93.09927, 24.74586], [93.09959, 24.74643], [93.09917, 24.7468], [93.09863, 24.74728], [93.09839, 24.74749], [93.09816, 24.74769], [93.09816, 24.74774], [93.09815, 24.75079], [93.09814, 24.75146], [93.09828, 24.75175], [93.09849, 24.75219], [93.0988, 24.75283], [93.099, 24.75324], [93.10008, 24.75547], [93.10066, 24.75667], [93.10129, 24.75797], [93.10221, 24.75987], [93.1024, 24.76026], [93.10242, 24.76034], [93.10382, 24.76654], [93.10335, 24.76716], [93.10329, 24.76724], [93.1024, 24.76839], [93.10216, 24.7687], [93.10172, 24.76928], [93.10093, 24.7703], [93.10041, 24.77212], [93.1003, 24.77249], [93.10019, 24.77348], [93.10012, 24.77372], [93.09996, 24.77551], [93.1003, 24.77581], [93.10091, 24.77646], [93.10111, 24.77676], [93.1013, 24.77693], [93.10159, 24.77719], [93.10179, 24.77736], [93.10227, 24.77778], [93.10474, 24.77996], [93.10519, 24.78035], [93.10502, 24.7805], [93.10376, 24.78159], [93.10377, 24.78179], [93.10374, 24.78538], [93.10386, 24.78549], [93.10403, 24.78564], [93.1047, 24.78622], [93.10502, 24.7865], [93.10635, 24.78767], [93.10661, 24.7879], [93.10693, 24.78875], [93.10697, 24.78885], [93.1071, 24.78919], [93.10714, 24.78931], [93.10775, 24.79092], [93.10799, 24.79157], [93.10934, 24.79516], [93.10961, 24.79586], [93.1103, 24.79759], [93.11086, 24.79921], [93.10955, 24.80261], [93.10899, 24.80406], [93.1088, 24.80455], [93.10874, 24.80471], [93.10861, 24.80505], [93.10836, 24.80571], [93.10796, 24.80674], [93.10802, 24.80685], [93.10811, 24.80701], [93.10856, 24.80776], [93.10914, 24.80883], [93.10926, 24.80904], [93.10931, 24.80914], [93.10938, 24.80926], [93.10994, 24.80959], [93.11025, 24.80977], [93.11044, 24.80989], [93.11129, 24.81038], [93.11171, 24.81063], [93.11219, 24.81091], [93.11245, 24.81106], [93.11276, 24.81124], [93.11317, 24.81148], [93.11356, 24.81171], [93.11535, 24.81276], [93.11602, 24.81315], [93.11683, 24.81362], [93.11783, 24.81421], [93.11797, 24.81429], [93.12082, 24.81681], [93.12083, 24.81561], [93.12083, 24.81487], [93.12083, 24.81468], [93.12083, 24.8143], [93.12083, 24.81393], [93.12084, 24.81179], [93.11957, 24.8101], [93.11858, 24.80877], [93.11832, 24.80842], [93.11816, 24.80822], [93.118, 24.80801], [93.11842, 24.80728], [93.11944, 24.80551], [93.12004, 24.80551], [93.12099, 24.80551], [93.12181, 24.80551], [93.12265, 24.80551], [93.12342, 24.80551], [93.12516, 24.80551], [93.12739, 24.80421], [93.12883, 24.80338], [93.12948, 24.803], [93.13055, 24.80394], [93.13093, 24.80427], [93.13112, 24.80443], [93.1336, 24.80663], [93.13415, 24.80712], [93.13436, 24.8073], [93.13489, 24.80777], [93.1352, 24.80804], [93.13625, 24.80574], [93.13633, 24.80557], [93.13643, 24.80535], [93.13656, 24.80506], [93.13727, 24.80351], [93.13748, 24.80305], [93.13808, 24.80176], [93.13863, 24.80105], [93.13899, 24.80058], [93.13991, 24.79937], [93.14021, 24.79898], [93.1403, 24.79886], [93.14073, 24.79829], [93.14096, 24.79799], [93.14107, 24.79789], [93.14133, 24.79767], [93.14165, 24.79739], [93.1424, 24.79674], [93.14305, 24.79655], [93.14671, 24.79548], [93.14793, 24.79442], [93.14807, 24.7943], [93.14958, 24.79297], [93.14989, 24.79243], [93.15061, 24.79119], [93.15069, 24.79105], [93.15081, 24.79083], [93.15102, 24.79046], [93.15103, 24.78888], [93.15104, 24.78757], [93.15104, 24.78717], [93.15104, 24.7867], [93.15153, 24.78699], [93.15263, 24.78763], [93.15401, 24.78844], [93.15422, 24.78856], [93.15459, 24.78878], [93.15533, 24.78922], [93.15579, 24.78975], [93.15591, 24.7899], [93.15631, 24.79037], [93.15696, 24.79113], [93.15819, 24.79257], [93.15893, 24.79343], [93.15962, 24.79424], [93.15971, 24.79427], [93.1598, 24.7943], [93.16001, 24.79436], [93.1639, 24.7955], [93.16498, 24.79645], [93.16582, 24.79719], [93.16615, 24.79748], [93.16676, 24.79802], [93.16755, 24.79837], [93.16819, 24.79865], [93.17034, 24.79959], [93.1725, 24.80054], [93.1727, 24.79967], [93.17316, 24.79765], [93.17319, 24.79752], [93.17358, 24.79582], [93.17394, 24.79426], [93.17419, 24.79404], [93.17522, 24.79314], [93.17538, 24.793], [93.17682, 24.793], [93.17764, 24.79446], [93.17824, 24.79552], [93.17824, 24.79623], [93.17824, 24.79645], [93.17823, 24.79928], [93.17931, 24.80118], [93.17966, 24.8018], [93.1801, 24.8018], [93.18396, 24.80181], [93.18826, 24.80306], [93.18859, 24.80306], [93.18983, 24.80307], [93.19113, 24.80307], [93.1913, 24.80337], [93.19147, 24.80367], [93.19255, 24.80559], [93.19295, 24.80594], [93.19541, 24.80809], [93.19631, 24.81045], [93.19685, 24.81187], [93.19669, 24.81194], [93.19541, 24.8125], [93.19397, 24.81312], [93.19182, 24.81626], [93.18966, 24.8194], [93.18993, 24.8201], [93.19062, 24.82194], [93.19108, 24.82316], [93.19134, 24.82361], [93.19163, 24.82412], [93.1919, 24.8246], [93.19218, 24.82509], [93.1924, 24.82549], [93.19537, 24.83071], [93.19506, 24.83071], [93.1933, 24.83071], [93.19107, 24.83071], [93.19106, 24.83323], [93.19142, 24.83354], [93.19208, 24.83412], [93.19249, 24.83448], [93.19392, 24.83448], [93.194, 24.83444], [93.19409, 24.8344], [93.19597, 24.83358], [93.19679, 24.83323], [93.19752, 24.83419], [93.19806, 24.8349], [93.19842, 24.83537], [93.19965, 24.837], [93.19822, 24.83826], [93.19814, 24.83819], [93.19678, 24.83699], [93.19632, 24.83699], [93.19534, 24.837], [93.19323, 24.83975], [93.19246, 24.84076], [93.19265, 24.84109], [93.19281, 24.84138], [93.19316, 24.84199], [93.1939, 24.84328], [93.19498, 24.84281], [93.19964, 24.84077], [93.19964, 24.84161], [93.19964, 24.84234], [93.19963, 24.84705], [93.19675, 24.84957], [93.19531, 24.85333], [93.1962, 24.85372], [93.19654, 24.85387], [93.19759, 24.85433], [93.19818, 24.85459], [93.20007, 24.85376], [93.20087, 24.85341], [93.20166, 24.85307], [93.20393, 24.85208], [93.20604, 24.85301], [93.20679, 24.85334], [93.20822, 24.85585], [93.20917, 24.85651], [93.21076, 24.85762], [93.2113, 24.85799], [93.21157, 24.85818], [93.21237, 24.85874], [93.2125, 24.85893], [93.21261, 24.85908], [93.21285, 24.85942], [93.21286815200006, 24.859446219000063], [93.2133, 24.86007], [93.21429, 24.8615], [93.21547, 24.86356], [93.21695, 24.86615], [93.21716, 24.86652], [93.21745, 24.86665], [93.21773, 24.86677], [93.21867, 24.86718], [93.22003, 24.86778], [93.22289, 24.87156], [93.22443, 24.87246], [93.22552, 24.8731], [93.22674, 24.87382], [93.22719, 24.87408], [93.22581, 24.87589], [93.22433, 24.87785], [93.22679, 24.88109], [93.22719, 24.88162], [93.22731, 24.88162], [93.22886, 24.88162], [93.23148, 24.88162], [93.23209, 24.88375], [93.23232, 24.88458], [93.23275, 24.88608], [93.23291, 24.88665], [93.23092, 24.88898], [93.2309, 24.889], [93.22861, 24.89168], [93.22885, 24.89168], [93.23147, 24.89168], [93.23147, 24.8919], [93.23147, 24.8951], [93.23147, 24.89546], [93.23179, 24.89589], [93.23289, 24.89734], [93.23405, 24.89887], [93.23431, 24.89922], [93.23517, 24.89904], [93.2352, 24.89903], [93.23602, 24.89885], [93.23615, 24.89882], [93.23803, 24.89841], [93.23916, 24.89816], [93.24005, 24.89797], [93.24147, 24.90048], [93.24146, 24.9029], [93.24145, 24.90425], [93.24132, 24.90458], [93.24087, 24.90576], [93.24056, 24.90656], [93.23999, 24.90802], [93.23711, 24.91179], [93.23728, 24.91194], [93.23782, 24.91242], [93.23785, 24.91245], [93.23853, 24.91305], [93.23997, 24.91179], [93.24535, 24.9118], [93.24556, 24.9118], [93.24646, 24.9118], [93.24696, 24.9118], [93.24856, 24.9118], [93.25138, 24.91556], [93.24987, 24.92116], [93.24966, 24.92192], [93.24854, 24.92608], [93.24834, 24.92684], [93.24263, 24.92684], [93.24189, 24.92748], [93.2413, 24.92799], [93.24118, 24.92809], [93.24163, 24.92864], [93.24254, 24.92974], [93.24349, 24.93089], [93.24354, 24.93095], [93.24377, 24.93123], [93.24481, 24.93248], [93.24532, 24.9331], [93.24561, 24.93393], [93.24619, 24.9356], [93.24663, 24.93685], [93.24518, 24.93684], [93.24512, 24.93681], [93.2449, 24.93671], [93.24478, 24.93666], [93.24462, 24.93659], [93.24308, 24.93591], [93.23959, 24.93436], [93.23856, 24.93435], [93.23817, 24.93435], [93.23814, 24.93525], [93.23813, 24.93561], [93.2393, 24.9378], [93.23947, 24.93811], [93.23994, 24.93853], [93.24223, 24.9406], [93.24334, 24.9406], [93.24507, 24.9406], [93.24564, 24.94035], [93.24589, 24.94024], [93.24677, 24.93986], [93.24797, 24.93935], [93.24885, 24.93935], [93.25225, 24.93935], [93.25157, 24.9402], [93.25109, 24.94079], [93.24924, 24.94309], [93.24921, 24.94367], [93.24915, 24.94507], [93.24912, 24.9457], [93.24911, 24.94581], [93.24906, 24.94684], [93.24877, 24.94731], [93.24829, 24.94808], [93.24751, 24.94934], [93.24749, 24.9498], [93.24745, 24.95072], [93.2474, 24.95172], [93.2474, 24.95174], [93.24739, 24.95183], [93.24751, 24.95183], [93.25064, 24.95183], [93.25169, 24.95183], [93.25219, 24.95152], [93.25647, 24.94883], [93.25761, 24.94811], [93.25767, 24.94809], [93.26052, 24.9481], [93.25913, 24.95032], [93.25896, 24.95059], [93.25896, 24.95077], [93.25893, 24.95131], [93.25877, 24.95477], [93.25873, 24.9556], [93.25882, 24.95575], [93.25912, 24.9563], [93.26014, 24.95818], [93.26147, 24.9606], [93.2614, 24.96293], [93.26136, 24.96312], [93.26005, 24.96498], [93.25941, 24.96586], [93.2589, 24.96656], [93.25687, 24.96938], [93.25651, 24.96938], [93.25528, 24.96938], [93.25438, 24.96938], [93.25252, 24.96938], [93.25107, 24.96938], [93.25106, 24.9719], [93.24545, 24.96772], [93.24264, 24.96771], [93.24261, 24.97023], [93.24174, 24.97179], [93.24121, 24.97274], [93.241, 24.97274], [93.23904, 24.97274], [93.23845, 24.97274], [93.23825, 24.97331], [93.23761, 24.97511], [93.23712, 24.97649], [93.2358, 24.97649], [93.23573, 24.97649], [93.23464, 24.97456], [93.23432, 24.97399], [93.23294, 24.97399], [93.22747, 24.97651], [93.23176, 24.98274], [93.23154, 24.98295], [93.23125, 24.98322], [93.2304, 24.984], [93.22837, 24.98494], [93.22765, 24.98527], [93.22587, 24.98475], [93.2241, 24.98423], [93.22345, 24.98404], [93.22208, 24.9853], [93.22014, 24.9859], [93.21792, 24.98659], [93.21696, 24.9866], [93.21512, 24.98661], [93.21387, 24.98496], [93.21332, 24.98423], [93.21229, 24.98287], [93.21163, 24.98264], [93.21047, 24.98223], [93.20917, 24.98177], [93.20527, 24.98041], [93.20418, 24.9809], [93.20101, 24.98233], [93.19965, 24.98294], [93.19682, 24.98546], [93.19743, 24.98654], [93.19821, 24.98792], [93.19824, 24.98797], [93.19819, 24.98806], [93.19742, 24.98944], [93.19703, 24.99013], [93.19683, 24.99048], [93.19313, 24.99159], [93.19258, 24.99175], [93.1883, 24.99051], [93.1883, 24.99223], [93.1883, 24.99313], [93.1883, 24.99553], [93.1883, 24.99679], [93.18787, 24.99679], [93.18648, 24.9968], [93.18546, 24.9968], [93.18528, 24.99649], [93.18469, 24.99547], [93.18446, 24.99505], [93.18428, 24.99506], [93.18401, 24.99507], [93.18381, 24.99507], [93.18312, 24.99509], [93.18283, 24.99534], [93.18269, 24.99546], [93.1826, 24.99555], [93.18123, 24.99555], [93.17947, 24.99556], [93.17859, 24.99568], [93.17808, 24.99575], [93.17287, 24.99645], [93.17072, 24.99674], [93.16991, 24.99686], [93.16958, 24.9969], [93.16935, 24.99692], [93.167, 24.99694], [93.16504, 24.99695], [93.16232, 24.99697], [93.16015, 24.99698], [93.10393, 24.99735], [93.0825, 24.99749], [93.07739, 24.99751], [93.07066, 24.99756], [93.07069, 25.00044], [93.07061, 25.0005], [93.06735, 25.00289], [93.06682, 25.00283], [93.06255, 25.00236], [93.06195, 25.00229], [93.06103, 25.00651], [93.05757, 25.00825], [93.05769, 25.00938], [93.058, 25.01203], [93.06017, 25.01453], [93.0626, 25.0156], [93.05962, 25.02295], [93.05826, 25.02342], [93.05591, 25.02422], [93.05549, 25.02708], [93.05358, 25.02871], [93.04859, 25.03296], [93.03906, 25.03654], [93.03726, 25.03992], [93.02806, 25.0471], [93.02497, 25.05246], [93.02068, 25.05696], [93.01638, 25.06146], [93.02243, 25.07383], [93.02907, 25.07542], [93.03279, 25.07872], [93.03953, 25.0847], [93.04011, 25.08521], [93.04079, 25.08611], [93.04666, 25.09388], [93.04834, 25.09919], [93.04276, 25.10324], [93.03214, 25.1037], [93.02077, 25.0999], [93.01793, 25.0956], [93.00705, 25.09648], [93.00222, 25.09592], [92.99869, 25.09551], [92.99653, 25.09545], [92.99234, 25.09535], [92.98726, 25.09387], [92.98171, 25.08767], [92.97726, 25.08516], [92.97239, 25.08685], [92.96687, 25.08876], [92.96122, 25.08854], [92.9599, 25.088], [92.95978, 25.08795], [92.95786, 25.08716], [92.95669, 25.08668], [92.95607, 25.08643], [92.95584, 25.0859], [92.95557, 25.08529], [92.95496, 25.08389], [92.95491, 25.08172], [92.95481, 25.07797], [92.95478, 25.07672], [92.95471, 25.07363], [92.9536, 25.07281], [92.95342, 25.07268], [92.95071, 25.07066], [92.94481, 25.07068], [92.94075, 25.07473], [92.93452, 25.07738], [92.9268, 25.07899], [92.92256, 25.07988], [92.91294, 25.08043], [92.9005, 25.07975], [92.8907, 25.07508], [92.88854, 25.07406], [92.88489, 25.06897], [92.88456, 25.0685], [92.88167, 25.06714], [92.8744, 25.06541], [92.87195, 25.06576], [92.86874, 25.06623], [92.86806, 25.06583], [92.86479, 25.06389], [92.85744, 25.06354], [92.855, 25.06248], [92.85146, 25.05899], [92.84006, 25.05343], [92.83477, 25.05522], [92.83141, 25.05906], [92.83007, 25.06059], [92.82937, 25.06213], [92.82977, 25.06871], [92.82792, 25.07175], [92.8224, 25.07489], [92.81102, 25.08137], [92.80741, 25.08342], [92.80202, 25.08548], [92.80153, 25.08567], [92.80039, 25.08581], [92.79771, 25.08615], [92.79729, 25.08612], [92.79728, 25.08612], [92.79635, 25.08605], [92.78703, 25.08536], [92.78489, 25.08557], [92.78302, 25.08658], [92.78268, 25.08673], [92.78243, 25.08687], [92.7757, 25.09499], [92.77464, 25.09601], [92.76657, 25.10377], [92.76727, 25.11097], [92.76622, 25.11724], [92.76448, 25.12155], [92.75858, 25.12823], [92.75535, 25.1389], [92.7494, 25.13603], [92.74551, 25.13559], [92.7388, 25.14087], [92.73737, 25.13948], [92.73629, 25.13982], [92.73539, 25.14125], [92.73224, 25.14318], [92.7316, 25.14092], [92.73077, 25.13798], [92.734, 25.13235], [92.73626, 25.12841], [92.73698, 25.12589], [92.73623, 25.12438], [92.72717, 25.11733], [92.7249, 25.11241], [92.72187, 25.11318], [92.7192, 25.11575], [92.71561, 25.11779], [92.71153, 25.11631], [92.70661, 25.1112], [92.70078, 25.109], [92.69713, 25.10977], [92.6953, 25.11108], [92.69156, 25.11416], [92.68621, 25.11468], [92.68383, 25.11408], [92.67634, 25.10899], [92.6715, 25.10843], [92.66519, 25.11084], [92.66127, 25.11356], [92.65945, 25.11395], [92.65624, 25.11328], [92.65503, 25.11522], [92.65428, 25.11567], [92.65143, 25.11737], [92.64702, 25.11814], [92.64231, 25.11712], [92.63775, 25.11401], [92.6356, 25.10927], [92.63397, 25.10834], [92.63365, 25.10816], [92.62939, 25.10816], [92.62563, 25.10686], [92.62208, 25.10222], [92.61995, 25.10225], [92.61269, 25.10477], [92.60416, 25.11066], [92.60208, 25.11053], [92.59514, 25.10636], [92.58661, 25.10524], [92.57884, 25.10263], [92.57363, 25.10182], [92.56483, 25.10143], [92.56356, 25.10212], [92.55939, 25.10437], [92.55739, 25.10377], [92.54797, 25.10396], [92.54382, 25.09735], [92.54218, 25.09762], [92.53728, 25.09733], [92.53126, 25.10199], [92.52578, 25.10389], [92.51596, 25.10368], [92.50906, 25.10353], [92.49841, 25.10623], [92.49697, 25.10623], [92.48363, 25.10617], [92.48192, 25.1029], [92.47963, 25.09852], [92.47906, 25.09386], [92.47947, 25.08396], [92.47833, 25.08158], [92.47584, 25.07637], [92.47567, 25.07573], [92.47392, 25.06892], [92.47255, 25.06749], [92.47093, 25.0658], [92.47019, 25.06502], [92.46975, 25.06431], [92.4694, 25.06374], [92.46932, 25.06361], [92.46836, 25.06206], [92.46679, 25.05951], [92.46526, 25.05529], [92.46295, 25.05371], [92.46188, 25.05388], [92.43011, 25.04453], [92.40066, 25.03586], [92.40098, 25.03572], [92.40217, 25.03535], [92.40296, 25.03485], [92.40392, 25.03397], [92.40467, 25.03345], [92.4055, 25.03334], [92.40708, 25.03362], [92.41027, 25.03243], [92.41272, 25.03175], [92.41347, 25.0317], [92.41483, 25.03168], [92.41579, 25.03144], [92.41597, 25.0313], [92.41611, 25.03124], [92.41617, 25.03112], [92.41585, 25.03093], [92.41579, 25.03076], [92.41584, 25.03069], [92.41596, 25.03062], [92.41627, 25.03052], [92.41656, 25.03055], [92.41674, 25.03062], [92.41696, 25.03085], [92.4172, 25.03121], [92.41749, 25.03134], [92.41835, 25.03107], [92.41951, 25.03077], [92.41987, 25.03075], [92.42009, 25.0307], [92.42141, 25.03031], [92.42272, 25.0302], [92.42288, 25.03023], [92.423, 25.03036], [92.4231, 25.03041], [92.42372, 25.0304], [92.42422, 25.03035], [92.42488, 25.03018], [92.42535, 25.03015], [92.42566, 25.03004], [92.42591, 25.03001], [92.42639, 25.02977], [92.42651, 25.02968], [92.4266, 25.02951], [92.42663, 25.02936], [92.42669, 25.0293], [92.42679, 25.02929], [92.42708, 25.02938], [92.42751, 25.02946], [92.42779, 25.02944], [92.42784, 25.02941], [92.42784, 25.02926], [92.42778, 25.02917], [92.42757, 25.02902], [92.42754, 25.02898], [92.42764, 25.02891], [92.42787, 25.02896], [92.42798, 25.02894], [92.42803, 25.02884], [92.42805, 25.02864], [92.42807, 25.02859], [92.42825, 25.02858], [92.42833, 25.02854], [92.42831, 25.02849], [92.42816, 25.02848], [92.42815, 25.02835], [92.42835, 25.0283], [92.42838, 25.0282], [92.42844, 25.02816], [92.42863, 25.02814], [92.42896, 25.02819], [92.42909, 25.02814], [92.42915, 25.028], [92.42915, 25.02767], [92.42927, 25.02766], [92.42943, 25.02777], [92.42958, 25.02775], [92.42963, 25.02767], [92.42952, 25.02737], [92.42953, 25.02724], [92.42958, 25.02721], [92.42979, 25.02726], [92.4301, 25.0275], [92.43062, 25.02774], [92.4307, 25.02775], [92.43088, 25.02767], [92.43106, 25.02767], [92.43131, 25.02757], [92.43134, 25.02744], [92.43124, 25.02735], [92.43121, 25.02725], [92.43134, 25.02695], [92.43134, 25.02688], [92.43114, 25.0268], [92.4311, 25.02674], [92.43106, 25.02632], [92.43095, 25.02603], [92.43084, 25.0259], [92.43061, 25.02581], [92.43054, 25.0257], [92.43054, 25.02563], [92.43061, 25.02537], [92.43068, 25.02532], [92.43078, 25.02531], [92.43088, 25.02486], [92.43087, 25.02474], [92.43074, 25.02465], [92.43074, 25.02455], [92.4308, 25.02449], [92.43098, 25.02445], [92.43093, 25.02431], [92.43075, 25.02421], [92.43074, 25.0241], [92.43098, 25.02409], [92.43104, 25.02406], [92.43103, 25.024], [92.43078, 25.02384], [92.4308, 25.02354], [92.43085, 25.02349], [92.4309, 25.02349], [92.431, 25.02354], [92.43106, 25.02363], [92.43111, 25.02365], [92.4312, 25.02361], [92.43124, 25.02343], [92.43119, 25.02317], [92.43122, 25.02293], [92.43112, 25.02286], [92.43089, 25.02289], [92.43075, 25.02309], [92.43066, 25.02314], [92.43043, 25.02306], [92.43033, 25.02296], [92.43036, 25.02283], [92.43074, 25.02222], [92.4307, 25.02199], [92.43078, 25.0218], [92.43076, 25.02153], [92.43085, 25.02147], [92.43122, 25.02136], [92.43128, 25.02122], [92.43125, 25.02106], [92.43094, 25.02071], [92.43077, 25.02067], [92.43057, 25.02068], [92.43046, 25.02075], [92.43025, 25.0211], [92.42995, 25.02109], [92.42979, 25.02129], [92.42926, 25.02127], [92.42917, 25.02124], [92.42908, 25.02114], [92.42898, 25.02095], [92.42901, 25.02061], [92.42866, 25.02007], [92.42859, 25.02002], [92.42833, 25.01998], [92.42821, 25.02], [92.42789, 25.02014], [92.42782, 25.02014], [92.4277, 25.0199], [92.42761, 25.01962], [92.42753, 25.01911], [92.42733, 25.01895], [92.42683, 25.01889], [92.4265, 25.01877], [92.42594, 25.0184], [92.4258, 25.01823], [92.42576, 25.0181], [92.42575, 25.01657], [92.42578, 25.01615], [92.42589, 25.0158], [92.42609, 25.01536], [92.42615, 25.01513], [92.42627, 25.0125], [92.42657, 25.01203], [92.42613, 25.01179], [92.42606, 25.01171], [92.42599, 25.01159], [92.42592, 25.01127], [92.42574, 25.0111], [92.42568, 25.011], [92.42562, 25.01075], [92.42562, 25.0104], [92.42565, 25.01022], [92.42572, 25.01012], [92.42591, 25.00999], [92.42596, 25.00992], [92.42596, 25.00985], [92.42581, 25.00954], [92.42557, 25.00878], [92.42554, 25.00822], [92.42563, 25.00791], [92.42563, 25.00772], [92.4256, 25.00766], [92.42546, 25.00756], [92.42544, 25.00752], [92.42554, 25.00727], [92.42578, 25.00701], [92.42594, 25.00688], [92.4262, 25.0068], [92.42627, 25.00675], [92.42641, 25.00653], [92.42642, 25.00648], [92.42635, 25.00644], [92.42588, 25.00645], [92.42578, 25.0064], [92.42554, 25.00616], [92.42544, 25.00596], [92.42533, 25.00587], [92.42491, 25.00565], [92.42489, 25.00531], [92.42482, 25.00524], [92.42472, 25.00518], [92.42438, 25.00514], [92.42401, 25.00482], [92.42385, 25.00462], [92.42351, 25.00407], [92.42286, 25.00248], [92.42226, 25.00114], [92.42038, 24.99708], [92.41965, 24.99556], [92.41864, 24.99362], [92.41853, 24.99332], [92.41852, 24.9932], [92.41855, 24.99306], [92.41884, 24.99257], [92.41884, 24.99223], [92.41927, 24.99225], [92.41976, 24.99221], [92.42021, 24.99225], [92.42055, 24.99232], [92.4209, 24.99229], [92.42133, 24.99217], [92.42181, 24.99198], [92.42229, 24.99169], [92.4233, 24.99036], [92.42341, 24.98988], [92.42339, 24.98923], [92.42347, 24.9874], [92.42345, 24.98559], [92.42314, 24.98072], [92.42269, 24.97592], [92.42222, 24.97334], [92.42201, 24.97239], [92.42167, 24.97132], [92.42113, 24.97003], [92.4207, 24.9694], [92.42012, 24.96934], [92.41984, 24.96914], [92.41916, 24.96813], [92.41902, 24.96765], [92.41908, 24.96734], [92.42019, 24.96684], [92.42046, 24.96652], [92.42068, 24.96631], [92.42119, 24.96607], [92.42219, 24.96588], [92.42405, 24.96589], [92.42789, 24.9663], [92.4288, 24.96644], [92.42959, 24.96664], [92.43101, 24.96714], [92.43474, 24.96788], [92.43758, 24.96816], [92.43906, 24.9681], [92.44035, 24.96801], [92.44097, 24.96787], [92.44198, 24.96757], [92.44316, 24.96708], [92.44408, 24.96656], [92.4453, 24.96573], [92.4457, 24.96556], [92.44608, 24.96551], [92.44631, 24.96554], [92.44688, 24.96542], [92.4477, 24.96559], [92.44815, 24.96591], [92.44853, 24.96606], [92.44892, 24.96628], [92.4491, 24.96652], [92.44953, 24.96752], [92.44978, 24.9679], [92.45089, 24.96896], [92.45173, 24.96955], [92.45227, 24.96965], [92.45393, 24.9709], [92.45472, 24.97131], [92.45628, 24.97204], [92.45731, 24.97208], [92.45799, 24.97206], [92.45841, 24.97196], [92.45861, 24.97187], [92.45908, 24.97165], [92.45949, 24.97151], [92.45981, 24.97131], [92.46175, 24.96981], [92.46484, 24.9672], [92.46691, 24.96583], [92.46763, 24.96532], [92.4684, 24.96493], [92.46889, 24.96472], [92.46916, 24.96475], [92.46936, 24.9646], [92.46961, 24.96433], [92.46974, 24.96391], [92.46972, 24.96356], [92.46958, 24.96297], [92.46978, 24.96189], [92.46973, 24.96126], [92.4691, 24.95965], [92.46867, 24.95902], [92.46791, 24.95801], [92.46725, 24.95719], [92.46647, 24.95642], [92.4655, 24.95569], [92.46467, 24.95524], [92.46409, 24.95502], [92.46344, 24.95501], [92.4625, 24.95492], [92.46182, 24.95492], [92.46087, 24.95495], [92.4587, 24.9551], [92.4578, 24.9551], [92.45722, 24.95505], [92.4562, 24.95478], [92.45531, 24.95447], [92.45439, 24.95407], [92.45338, 24.95347], [92.45222, 24.95246], [92.4515, 24.9517], [92.45079, 24.95083], [92.45024, 24.95003], [92.44936, 24.94799], [92.44906, 24.9468], [92.44842, 24.9448], [92.44837, 24.94438], [92.44835, 24.94303], [92.44839, 24.9418], [92.44862, 24.94109], [92.44882, 24.94088], [92.44917, 24.94074], [92.45084, 24.94082], [92.45185, 24.94099], [92.45306, 24.9413], [92.45541, 24.94199], [92.45705, 24.94238], [92.4585, 24.94268], [92.46022, 24.94298], [92.46195, 24.94321], [92.46339, 24.9433], [92.46404, 24.94329], [92.46476, 24.94321], [92.46551, 24.94329], [92.46762, 24.94338], [92.46847, 24.94329], [92.46944, 24.94319], [92.47032, 24.943], [92.47203, 24.94259], [92.47236, 24.94245], [92.47265, 24.94224], [92.47301, 24.94205], [92.47375, 24.94207], [92.47444, 24.94223], [92.475, 24.94261], [92.47546, 24.94311], [92.47664, 24.94453], [92.47914, 24.94679], [92.48035, 24.94763], [92.48211, 24.94859], [92.48304, 24.94897], [92.48437, 24.94937], [92.48636, 24.94972], [92.48725, 24.94981], [92.4876, 24.94973], [92.48783, 24.94943], [92.48855, 24.94882], [92.48872, 24.94856], [92.48886, 24.94824], [92.48898, 24.94778], [92.48905, 24.94663], [92.4887, 24.9449], [92.48818, 24.9435], [92.48693, 24.94091], [92.48649, 24.9399], [92.48598, 24.93856], [92.48539, 24.93681], [92.48456, 24.93387], [92.48453, 24.93317], [92.48452, 24.93207], [92.4848, 24.92951], [92.48505, 24.92895], [92.48507, 24.9267], [92.48523, 24.92543], [92.48558, 24.92474], [92.48599, 24.92407], [92.48638, 24.92369], [92.48687, 24.92344], [92.48759, 24.92315], [92.48885, 24.92284], [92.4893, 24.92266], [92.49078, 24.92193], [92.49166, 24.92139], [92.49199, 24.92126], [92.49264, 24.92091], [92.49357, 24.92029], [92.49397, 24.91984], [92.49416, 24.91944], [92.4945, 24.91891], [92.49461, 24.91863], [92.49486, 24.91829], [92.49502, 24.91791], [92.49522, 24.91717], [92.49518, 24.91688], [92.49502, 24.91656], [92.49392, 24.91558], [92.493, 24.91451], [92.49287, 24.91421], [92.49278, 24.91377], [92.49293, 24.91323], [92.49317, 24.91272], [92.49348, 24.91226], [92.49382, 24.91194], [92.49441, 24.91154], [92.49528, 24.91101], [92.49612, 24.91041], [92.49681, 24.90992], [92.49709, 24.90957], [92.49753, 24.90917], [92.49802, 24.90836], [92.49822, 24.90797], [92.49852, 24.90732], [92.49878, 24.90658], [92.49887, 24.90597], [92.49885, 24.90528], [92.49872, 24.90468], [92.49839, 24.90389], [92.49791, 24.90311], [92.4962, 24.90121], [92.49518, 24.89993], [92.49415, 24.89823], [92.49361, 24.89726], [92.49325, 24.89638], [92.49304, 24.89553], [92.493, 24.89479], [92.4931, 24.89402], [92.49339, 24.89297], [92.49386, 24.89162], [92.49445, 24.8892], [92.49461, 24.88764], [92.49452, 24.88579], [92.49452, 24.88531], [92.49455, 24.88492], [92.49467, 24.88451], [92.49472, 24.88407], [92.49459, 24.88339], [92.49441, 24.88275], [92.49391, 24.88169], [92.49316, 24.88055], [92.49233, 24.87967], [92.49121, 24.87895], [92.48991, 24.87839], [92.48878, 24.87802], [92.48843, 24.87777], [92.48836, 24.87749], [92.48848, 24.87731], [92.4891, 24.87716], [92.48919, 24.8771], [92.48935, 24.87664], [92.4894, 24.87631], [92.4894, 24.87591], [92.49465, 24.87482], [92.49499, 24.87468], [92.49988, 24.87343], [92.50046, 24.8732], [92.50068, 24.87311], [92.50241, 24.87242], [92.5038, 24.87287], [92.50826, 24.87433], [92.5115, 24.87477], [92.51502, 24.87525], [92.51772, 24.87288], [92.518, 24.87263], [92.51806, 24.87258], [92.51863, 24.87207], [92.5183, 24.87184], [92.51787, 24.87155], [92.51946, 24.86978], [92.51973, 24.86923], [92.5199, 24.86887], [92.52101, 24.86657], [92.52117, 24.86624], [92.52181, 24.8649], [92.52215, 24.86419], [92.52307, 24.86261], [92.52373, 24.861], [92.52399, 24.86037], [92.52425, 24.85982], [92.52463, 24.85903], [92.52501, 24.85909], [92.52523, 24.85912], [92.52702, 24.85938], [92.52924, 24.85971], [92.53158, 24.86083], [92.53186, 24.86096], [92.53278, 24.8614], [92.53344, 24.86172], [92.53403, 24.862], [92.53472, 24.86216], [92.53478, 24.86217], [92.53487, 24.86219], [92.53499, 24.86222], [92.53542, 24.86232], [92.53675, 24.86262], [92.53688, 24.86265], [92.53989, 24.86333], [92.54035, 24.86353], [92.54089, 24.86378], [92.54193, 24.86425], [92.54322, 24.86484], [92.54433, 24.86534], [92.54442, 24.86538], [92.54539, 24.86608], [92.55149, 24.87043], [92.55153, 24.87046], [92.55409, 24.87113], [92.5558, 24.87157], [92.55779, 24.87209], [92.5591, 24.87243], [92.5634, 24.8717], [92.56411, 24.87158], [92.56602, 24.87126], [92.56754, 24.871], [92.56858, 24.87082], [92.56983, 24.87061], [92.57041, 24.87051], [92.57081, 24.87044], [92.5716, 24.87031], [92.57177, 24.87026], [92.57256, 24.87], [92.57299, 24.86986], [92.5744, 24.86941], [92.57474, 24.8693], [92.5748, 24.86928], [92.57591, 24.86892], [92.57611, 24.86886], [92.57648, 24.86874], [92.57654, 24.86872], [92.57679, 24.86864], [92.57697, 24.86854], [92.57823, 24.86781], [92.58054, 24.86648], [92.58315, 24.86498], [92.58436, 24.86428], [92.58465, 24.86411], [92.58633, 24.86314], [92.58731, 24.86258], [92.58736, 24.86255], [92.58787, 24.86226]]]}}]}