{"type": "FeatureCollection", "features": [{"type": "Feature", "properties": {"Name": "Charaideo"}, "geometry": {"type": "Polygon", "coordinates": [[[95.36996578800006, 27.10552129000007], [95.37022, 27.10605], [95.37049, 27.10662], [95.37110334700009, 27.10790839200007], [95.37165020600008, 27.109057122000024], [95.37218, 27.11017], [95.37215602600008, 27.110259902000053], [95.37206043400005, 27.110602442000072], [95.37192772000009, 27.11107799800004], [95.37190941600005, 27.111160045000076], [95.37181, 27.11152], [95.37158, 27.11235], [95.37112, 27.11259], [95.37048, 27.11293], [95.36961908200004, 27.113380326000026], [95.36658, 27.11497], [95.36635, 27.11497], [95.36559, 27.1152], [95.36499, 27.1155], [95.36497720000006, 27.115512800000033], [95.36448, 27.11601], [95.36429, 27.11717], [95.36428390700007, 27.117340597000066], [95.36421713000004, 27.117638060000047], [95.36314, 27.12086], [95.36212, 27.12399], [95.36215885900003, 27.124044404000074], [95.36288916100006, 27.125066826000023], [95.36302, 27.12525], [95.36371, 27.12621], [95.36461, 27.12746], [95.36727, 27.13365], [95.36748, 27.13521], [95.36753, 27.13532], [95.36755, 27.13575], [95.36756, 27.13606], [95.36757625300004, 27.136287543000037], [95.36756802700006, 27.13668238100007], [95.3674, 27.13823], [95.36739559300008, 27.138265261000072], [95.36735382700004, 27.13842536100003], [95.36702, 27.13949], [95.36685029300008, 27.14079335400004], [95.36677, 27.14141], [95.36667, 27.14219], [95.3665, 27.14332], [95.36633997200005, 27.143975350000062], [95.36630353000004, 27.14420258000007], [95.36591363000008, 27.14477243400006], [95.36575, 27.14503], [95.36573540600006, 27.14510246900005], [95.36546, 27.14647], [95.36447, 27.14765], [95.36357, 27.14872], [95.36293, 27.14949], [95.36276186500004, 27.149770226000044], [95.36242, 27.15034], [95.36158, 27.15137], [95.36112, 27.15186], [95.36007707500005, 27.154185050000024], [95.36003, 27.15429], [95.35986, 27.15469], [95.35978, 27.15486], [95.35908, 27.15642], [95.35844, 27.15785], [95.35903564900008, 27.159205238000027], [95.35953, 27.16033], [95.35932, 27.16121], [95.35884, 27.16318], [95.35857, 27.1643], [95.35843275100007, 27.16486779400003], [95.35775254000004, 27.167726807000065], [95.35774, 27.16774], [95.35734161600004, 27.167954482000027], [95.35677, 27.16826], [95.35354, 27.17], [95.35327, 27.17004], [95.35317306100006, 27.170057284000052], [95.35198, 27.17027], [95.34684, 27.17108], [95.34655, 27.17123], [95.34603, 27.17149], [95.34445, 27.17232], [95.34392, 27.17416], [95.34495, 27.17629], [95.34542083900004, 27.17726205500003], [95.34556966100007, 27.17757083400005], [95.34558812700004, 27.177609148000045], [95.34556673700007, 27.17763463400007], [95.34422190700008, 27.180928094000024], [95.3442, 27.18094], [95.34312, 27.18135], [95.34254515500004, 27.181567745000052], [95.33685954900005, 27.183736698000075], [95.33651818700008, 27.184015405000025], [95.3353, 27.18501], [95.33441180900007, 27.18572811100006], [95.33436, 27.18577], [95.33418764000004, 27.185755012000072], [95.33413, 27.18575], [95.33408198100005, 27.185767691000024], [95.33394, 27.18582], [95.33385374700003, 27.185916401000043], [95.33377, 27.18601], [95.33264, 27.18627], [95.33017, 27.18684], [95.32978, 27.18693], [95.3291, 27.18709], [95.32897, 27.18712], [95.32689, 27.18704], [95.32574, 27.187], [95.32538, 27.18699], [95.32415355600006, 27.18694295800003], [95.32173, 27.18685], [95.32145, 27.18684], [95.32091, 27.18682], [95.32015, 27.18717], [95.31998, 27.18718], [95.31991, 27.18719], [95.31971508900006, 27.187278596000056], [95.31969, 27.18729], [95.31712, 27.19046], [95.31569, 27.19222], [95.31564265400004, 27.192321942000035], [95.31458, 27.19461], [95.31455331900008, 27.19459595400008], [95.31411926100009, 27.19425490800006], [95.31301637100006, 27.193388352000056], [95.31164141000005, 27.193211572000052], [95.31163, 27.19321], [95.3112, 27.19315], [95.31074, 27.19309], [95.30874, 27.19281], [95.30539, 27.19235], [95.30340158100006, 27.192633251000075], [95.30188, 27.19285], [95.3009, 27.19299], [95.30036990300005, 27.19306853300003], [95.30036, 27.19307], [95.29984715200004, 27.193326424000077], [95.29936, 27.19357], [95.29852, 27.194], [95.29858, 27.19457], [95.29784, 27.19465], [95.29406, 27.19508], [95.29388, 27.1951], [95.29362837400004, 27.19517863300007], [95.29308, 27.19535], [95.28986, 27.19635], [95.28781, 27.19699], [95.28712, 27.1969], [95.28623, 27.19678], [95.28437, 27.19654], [95.28369478800005, 27.196451156000023], [95.28225733800008, 27.196262018000027], [95.28209, 27.19624], [95.28141, 27.19634], [95.27759, 27.19691], [95.27452, 27.19736], [95.26407588100005, 27.19890448700005], [95.26343, 27.199], [95.26238, 27.199], [95.26219745100008, 27.199], [95.25936, 27.199], [95.25491, 27.199], [95.25135, 27.199], [95.25044, 27.199], [95.24632, 27.19805], [95.24000453000008, 27.19659744300003], [95.23932, 27.19644], [95.23509, 27.19546], [95.22261, 27.18761], [95.2154, 27.18307], [95.20643, 27.17742], [95.2039, 27.17583], [95.20313, 27.17534], [95.20206, 27.17467], [95.20133, 27.17421], [95.20047, 27.17367], [95.19629, 27.17104], [95.19118, 27.16782], [95.18651, 27.16487], [95.184, 27.16329], [95.18216, 27.16213], [95.18144, 27.16168], [95.17872, 27.15997], [95.17866, 27.15993], [95.17698, 27.15887], [95.16718, 27.15269], [95.16536, 27.15155], [95.16437, 27.15093], [95.16265968400006, 27.14984841300003], [95.16048, 27.14847], [95.15191, 27.14359], [95.14566, 27.14003], [95.14549, 27.13993], [95.14506911900008, 27.139689347000058], [95.14145, 27.13762], [95.14093766500008, 27.137329677000025], [95.14055, 27.13711], [95.14014, 27.13688], [95.13957, 27.13668], [95.13675, 27.1357], [95.13598089000004, 27.135431338000046], [95.13383, 27.13468], [95.13282, 27.13427], [95.13104, 27.13355], [95.13065, 27.13339], [95.13063604700005, 27.133384377000027], [95.12931, 27.13285], [95.12748, 27.13211], [95.12643, 27.13168], [95.12636942700004, 27.131202146000078], [95.12634, 27.13097], [95.12557, 27.1308], [95.12513342000005, 27.13070298200006], [95.12305, 27.13024], [95.12302, 27.13029], [95.1213, 27.12959], [95.11646, 27.12763], [95.11510008500005, 27.12707692500004], [95.11437, 27.12678], [95.11207, 27.12585], [95.11149, 27.12561], [95.11136, 27.12556], [95.10835, 27.12518], [95.10741, 27.12506], [95.10275, 27.12447], [95.10046, 27.12418], [95.09953, 27.12406], [95.09737, 27.12379], [95.09707489900006, 27.12375256200005], [95.09603, 27.12362], [95.09554, 27.12356], [95.09337, 27.12353], [95.08944, 27.12347], [95.08262, 27.12336], [95.07505, 27.12324], [95.07375, 27.12322], [95.06766, 27.12312], [95.06735, 27.12415], [95.06459, 27.12572], [95.06373, 27.12603], [95.05963, 27.12852], [95.05546, 27.13078], [95.04933, 27.13409], [95.04808, 27.13477], [95.04332, 27.13583], [95.04206, 27.13611], [95.03845676300006, 27.138962562000074], [95.03260782700005, 27.14334926400005], [95.02577653100008, 27.14351], [95.02507, 27.14351], [95.0241, 27.14351], [95.02353834600007, 27.14351], [95.02305, 27.14351], [95.02015294900008, 27.142542744000025], [95.01691, 27.14146], [95.01655, 27.14118], [95.01566044300006, 27.14047808400005], [95.01527470300005, 27.140173711000045], [95.01093569600005, 27.13759096800004], [95.00571813200008, 27.135699601000056], [95.0029, 27.13478], [95.00198, 27.13448], [95.00178667100005, 27.13444811100004], [95.00101, 27.13432], [94.99591, 27.1335], [94.99333, 27.13308], [94.99319, 27.13316], [94.98692, 27.1369], [94.98421459000008, 27.14024547100007], [94.98282, 27.14197], [94.98127, 27.14387], [94.98018, 27.14522], [94.97968, 27.14584], [94.97707, 27.15042], [94.97562, 27.15296], [94.9742, 27.15544], [94.97335, 27.15693], [94.97177496800003, 27.159697428000072], [94.97158, 27.16004], [94.97091, 27.1626], [94.96985343500006, 27.16661494500005], [94.96931, 27.16868], [94.96913, 27.16936], [94.96868, 27.17109], [94.96822, 27.17284], [94.96804, 27.17346], [94.96755, 27.17516], [94.96708, 27.17678], [94.96613, 27.18006], [94.96589917800009, 27.180850273000033], [94.96554, 27.18208], [94.96504, 27.18379], [94.96442, 27.18594], [94.964, 27.18738], [94.96388, 27.1878], [94.96358, 27.18883], [94.96325, 27.18997], [94.96325, 27.19017], [94.96326, 27.19127], [94.96328, 27.19363], [94.96325, 27.19563], [94.96324, 27.1986], [94.96324798100005, 27.198679808000065], [94.96325, 27.1987], [94.96136, 27.20083], [94.95990608500006, 27.201502495000057], [94.95984167300008, 27.20153890200004], [94.95834726500004, 27.202223659000026], [94.95831170700006, 27.202239960000043], [94.95829, 27.20225], [94.95719023200007, 27.20234132300004], [94.95263, 27.20272], [94.94674, 27.2017], [94.93895, 27.20036], [94.93752, 27.20011], [94.93564, 27.19978], [94.93374, 27.19791], [94.93286, 27.19704], [94.93124, 27.19544], [94.93068, 27.19488], [94.93029, 27.19449], [94.93018, 27.19438], [94.92931, 27.19352], [94.92735325300004, 27.191591715000072], [94.92656, 27.19081], [94.92651, 27.19084], [94.92644, 27.19084], [94.92579095700006, 27.19008999400006], [94.92554, 27.1898], [94.92342, 27.18804], [94.92132, 27.18629], [94.92004, 27.18523], [94.919, 27.18436], [94.91847, 27.18392], [94.91831, 27.18379], [94.91766, 27.18325], [94.91624, 27.18206], [94.91564, 27.18156], [94.91516, 27.18116], [94.91511, 27.18112], [94.91476, 27.18082], [94.91448, 27.18059], [94.91412, 27.18029], [94.91367, 27.17992], [94.91318, 27.17951], [94.91261, 27.17904], [94.91248, 27.17893], [94.91182, 27.17838], [94.91154, 27.17815], [94.91139, 27.17802], [94.91095, 27.17765], [94.90979, 27.17669], [94.90909, 27.17611], [94.90802, 27.17521], [94.90752, 27.1748], [94.90717, 27.17451], [94.90662, 27.17405], [94.90603, 27.17356], [94.90591, 27.17346], [94.90533, 27.17297], [94.90301, 27.17104], [94.9029, 27.17095], [94.90266, 27.17075], [94.90223, 27.17039], [94.90072, 27.16913], [94.89947, 27.16809], [94.89879, 27.16752], [94.89866, 27.16741], [94.89839, 27.16719], [94.89645, 27.16557], [94.8951, 27.16445], [94.89443, 27.16389], [94.89383, 27.16339], [94.89239, 27.16219], [94.89086, 27.16092], [94.89035, 27.16049], [94.8901, 27.16027], [94.88986, 27.16007], [94.8876, 27.15819], [94.88735998100003, 27.15799071200007], [94.88595, 27.15682], [94.8857, 27.15652], [94.88538, 27.15613], [94.88477, 27.15539], [94.88460324300007, 27.155188027000065], [94.88316, 27.15344], [94.88168, 27.15165], [94.88098, 27.1508], [94.87958, 27.14911], [94.87869, 27.14803], [94.87833, 27.14759], [94.87799, 27.14718], [94.8769, 27.14586], [94.87618, 27.14498], [94.87434, 27.1428], [94.87397, 27.14236], [94.87268, 27.14083], [94.87168, 27.13965], [94.86801, 27.13529], [94.8669, 27.13398], [94.86671, 27.13375], [94.86635, 27.13332], [94.86521, 27.13169], [94.86444333400004, 27.130608068000072], [94.86414, 27.13018], [94.86231, 27.1276], [94.86217, 27.1274], [94.85901, 27.12294], [94.85883, 27.12269], [94.85695, 27.12004], [94.85687, 27.11992], [94.85674, 27.11974], [94.85656, 27.11949], [94.85652, 27.11943], [94.8554, 27.11785], [94.85529, 27.1177], [94.85517, 27.11752], [94.85229, 27.11405], [94.85129, 27.11284], [94.85096, 27.11244], [94.85091, 27.11238], [94.85079, 27.11224], [94.85071, 27.11215], [94.85036, 27.11172], [94.84984, 27.11108], [94.84939, 27.11054], [94.84843, 27.10938], [94.84801, 27.10887], [94.84753, 27.10829], [94.84749510600005, 27.108211030000064], [94.84696, 27.107], [94.84647, 27.10591], [94.84617, 27.10523], [94.84594, 27.10471], [94.84543, 27.10356], [94.84471, 27.10196], [94.84439, 27.10124], [94.84404, 27.10045], [94.84336, 27.09891], [94.84161846400008, 27.095001007000064], [94.84152, 27.09478], [94.83868120800008, 27.094387647000076], [94.83783, 27.09427], [94.83751, 27.09423], [94.83563, 27.09398], [94.83552733600004, 27.09400640900003], [94.83496833600003, 27.094150203000027], [94.83495933500006, 27.094111948000034], [94.83497063000004, 27.094108868000035], [94.83132271600005, 27.085141080000028], [94.82972734200007, 27.080155536000063], [94.82914703400007, 27.078342073000044], [94.82697135200004, 27.072358947000055], [94.82615547100005, 27.066103860000055], [94.82523215400005, 27.06356474000006], [94.82289194800006, 27.057129171000042], [94.82350251400004, 27.052122530000076], [94.82425174900004, 27.045978799000068], [94.82397978900008, 27.04053959400005], [94.82425174900004, 27.033468627000047], [94.82316390800008, 27.028029421000042], [94.82533959100004, 27.020686494000074], [94.82533959100004, 27.016335129000026], [94.82452371000005, 27.013887487000034], [94.82558667400008, 27.008994965000056], [94.82234899700006, 27.00658988500004], [94.82187842900004, 27.004713752000043], [94.82141215600006, 27.002854679000052], [94.81395175600005, 27.00308724200005], [94.81226502300007, 27.002417911000066], [94.81110619100008, 27.002674373000048], [94.80927701600007, 27.003079168000056], [94.80825724000005, 27.008950411000058], [94.80634702300006, 27.00904635200004], [94.80406898900009, 27.008003247000033], [94.80079192700003, 27.002928988000065], [94.79781569600004, 26.997874654000043], [94.79566489400008, 26.997026592000054], [94.79129143600005, 26.995302138000056], [94.79005408000006, 26.992995101000076], [94.78846979200006, 26.99004098100005], [94.78737642100003, 26.988002280000046], [94.78110883700003, 26.981935905000057], [94.78025678400007, 26.980883065000057], [94.77813527600006, 26.978261513000064], [94.77282036200006, 26.971592160000057], [94.76429367000009, 26.964896318000058], [94.76402591000004, 26.964686030000053], [94.75663353100003, 26.95707136900006], [94.75652251300005, 26.95693078900007], [94.75417710700003, 26.953960592000044], [94.75053995100006, 26.949354535000055], [94.74993521400006, 26.943348714000024], [94.75082465100007, 26.942798198000048], [94.75267206400008, 26.94165474400006], [94.75798004700005, 26.938369374000047], [94.76263194500007, 26.93725078400007], [94.76826243800008, 26.935896882000065], [94.76894932300007, 26.93588227600003], [94.77125008900003, 26.93583314500006], [94.77835834600006, 26.935681196000075], [94.78095127500006, 26.935625979000065], [94.78977085800005, 26.935437382000032], [94.79373455900009, 26.935352997000052], [94.79699488200004, 26.935283050000066], [94.79772146600004, 26.935207599000023], [94.80350201400006, 26.934607323000023], [94.80579691900004, 26.934368937000045], [94.81009401700004, 26.934194715000046], [94.81959809700004, 26.933808768000063], [94.82381181300008, 26.93363765600003], [94.82827485200005, 26.93399165200003], [94.83373995800008, 26.934424935000038], [94.84223344300005, 26.93565278600005], [94.84572865100006, 26.936158066000075], [94.84687572100006, 26.936323834000063], [94.85036082100004, 26.93736816200004], [94.85651161600003, 26.939211280000052], [94.86538048400007, 26.943290037000054], [94.86747125900007, 26.945984010000075], [94.87015336600007, 26.94943968700005], [94.88090837700008, 26.956728784000063], [94.88453215600003, 26.95918436000005], [94.88498369100006, 26.959490333000076], [94.89576147500009, 26.963641636000034], [94.89675542200007, 26.964310365000074], [94.90194652300005, 26.96780270800008], [94.90690212000004, 26.971244212000045], [94.91010071200009, 26.973465532000034], [94.91180476500006, 26.974540920000038], [94.91770154300008, 26.978261906000057], [94.91822271200004, 26.978590774000054], [94.92119968400004, 26.980469107000033], [94.92219603300003, 26.981240408000076], [94.92976885700006, 26.987102735000065], [94.93802392000003, 26.992598438000073], [94.94313781900007, 26.99604015600005], [94.94333174100007, 26.99587520800003], [94.94565995500005, 26.993894794000028], [94.94612950700008, 26.99349537200004], [94.94746971800004, 26.986647453000046], [94.94585105500005, 26.983126612000035], [94.94576058200005, 26.982929815000034], [94.94739710100004, 26.977467846000025], [94.94768024700005, 26.976522833000047], [94.94859502900005, 26.96850169700008], [94.94577303500006, 26.963629446000027], [94.93873553400005, 26.961667343000045], [94.93262549700006, 26.95543602600003], [94.93209171900008, 26.95489165300006], [94.93061162000004, 26.949435510000058], [94.92989368100007, 26.948456259000068], [94.928642, 26.946749], [94.92742586100007, 26.946259113000053], [94.92734533200007, 26.946463682000058], [94.92735216600005, 26.946406272000047], [94.92818307800007, 26.944252924000068], [94.92976, 26.94028], [94.9302, 26.93918], [94.93048, 26.93846], [94.93103, 26.9371], [94.93184, 26.93505], [94.93251192100007, 26.93336965900005], [94.93252, 26.93335], [94.93551, 26.933], [94.93578130900005, 26.932967834000067], [94.93743621700008, 26.932771634000062], [94.93745, 26.93277], [94.93925, 26.93364], [94.94012, 26.93407], [94.94070531500006, 26.93416058500003], [94.946, 26.93498], [94.95117, 26.93668], [94.95295, 26.93726], [94.95431912400005, 26.937702780000052], [94.95616994500006, 26.938309850000053], [94.95618, 26.93831], [94.95676, 26.93807], [94.95711429900007, 26.93791877500007], [94.95758, 26.93772], [94.96138307400008, 26.936097076000067], [94.96304, 26.93539], [94.96305374400004, 26.93536615800008], [94.96353, 26.93454], [94.96412, 26.93352], [94.96471, 26.9325], [94.96525, 26.93158], [94.96556, 26.93104], [94.96573, 26.93052], [94.96602, 26.92936], [94.96681, 26.92622], [94.96939815700006, 26.923221175000037], [94.96950861700003, 26.923093188000053], [94.96952, 26.92308], [94.97131, 26.92269], [94.97160016200007, 26.922628402000043], [94.9731, 26.92231], [94.97479926100004, 26.921367367000073], [94.97849, 26.91932], [94.97946, 26.91828], [94.98448, 26.91292], [94.98482371600005, 26.912881809000055], [94.98637, 26.91271], [94.98825, 26.9125], [94.99059740600006, 26.912994663000063], [94.99086, 26.91305], [94.99, 26.91758], [94.99007, 26.9177], [94.9902, 26.91792], [94.99029168300007, 26.918077324000024], [94.99189, 26.92082], [94.99652001900006, 26.919452698000043], [94.99829, 26.91893], [94.99890516200009, 26.918988587000058], [94.99913, 26.91901], [94.9992, 26.91902], [95.00156, 26.91923], [95.00252004300006, 26.919318717000067], [95.00266317700004, 26.919331944000078], [95.00459, 26.91951], [95.00464494600004, 26.919507242000066], [95.01535, 26.91897], [95.02013, 26.92], [95.02734, 26.92711], [95.03680166800007, 26.933045952000043], [95.03684, 26.93307], [95.03784, 26.93321], [95.04392, 26.93408], [95.04402, 26.93409], [95.05235, 26.93528], [95.05241, 26.93529], [95.05335589700007, 26.935429103000047], [95.05343, 26.93544], [95.05395, 26.9358], [95.06312259200007, 26.94205650300006], [95.06411, 26.94273], [95.06714524500006, 26.94336781100003], [95.08562, 26.94725], [95.08578248000003, 26.94734898200005], [95.09345, 26.95202], [95.09456509800003, 26.95269914200003], [95.09721, 26.95431], [95.10299, 26.95783], [95.10613441800007, 26.95974798700007], [95.10878203900006, 26.961362945000076], [95.10881, 26.96138], [95.1104, 26.96409], [95.11069, 26.96458], [95.11199, 26.96679], [95.11227, 26.97206], [95.11366, 26.97452], [95.11572, 26.97816], [95.11685827700006, 26.97854776400004], [95.11845, 26.97909], [95.12164, 26.98018], [95.12325, 26.98073], [95.12515, 26.98138], [95.12802133500008, 26.983183715000052], [95.13541823800006, 26.98784898200006], [95.13550420700005, 26.987917758000037], [95.13567655100007, 26.987975205000055], [95.13838506300004, 26.99022244200006], [95.14068757500007, 26.99206445200008], [95.14154, 26.99276], [95.14156412000006, 26.99276568700003], [95.14334259600008, 26.993185066000024], [95.14383, 26.9933], [95.1444, 26.99343], [95.14673138400008, 26.993939990000058], [95.14680637500004, 26.993977486000063], [95.14816226400006, 26.994256840000048], [95.14823811400004, 26.994272468000077], [95.15103303000006, 26.997718253000073], [95.15138514500006, 26.998156797000036], [95.15154124000009, 26.99834568500006], [95.15327, 27.00048], [95.16041, 27.0069], [95.17017, 27.01567], [95.17585416800006, 27.02077686900003], [95.17645250000004, 27.021314434000033], [95.17657, 27.02142], [95.17668, 27.02152], [95.18087, 27.02528], [95.1884, 27.03205], [95.19332, 27.03647], [95.1943, 27.03735], [95.19501496800007, 27.037706272000037], [95.19628482400003, 27.03833904800007], [95.19725, 27.03882], [95.19868, 27.0376], [95.19971, 27.03672], [95.20129, 27.03709], [95.20259, 27.03739], [95.20571079600006, 27.03071921000003], [95.20643433000004, 27.02917234800003], [95.20645396300006, 27.02913037500008], [95.20746236800005, 27.028923168000063], [95.20752155400004, 27.028910632000077], [95.21155719000006, 27.028046794000034], [95.21190597100008, 27.028121533000046], [95.21211982600005, 27.028063210000028], [95.21245032800005, 27.027907679000066], [95.21250748000006, 27.02784338300006], [95.21254789300008, 27.02783473200003], [95.21255965100005, 27.02782727600004], [95.21288455100006, 27.02800570100004], [95.21846, 27.03112], [95.22077279400008, 27.034364225000047], [95.22139694200007, 27.03526724900007], [95.22294072000005, 27.035861431000058], [95.22473, 27.03659], [95.22822, 27.0345], [95.22877466600005, 27.035067085000037], [95.2309, 27.03724], [95.23041261400004, 27.038340548000065], [95.22966, 27.04004], [95.22970748200004, 27.040013187000056], [95.23306, 27.03812], [95.23346, 27.0379], [95.23661782400006, 27.037530254000046], [95.23877, 27.03415], [95.24241, 27.02844], [95.24494131600005, 27.026244700000063], [95.24693, 27.02452], [95.24695013900003, 27.024528350000026], [95.25087361000004, 27.026154914000074], [95.25091, 27.02617], [95.25232216100005, 27.027058688000068], [95.25942449700005, 27.031496566000044], [95.25915, 27.03211], [95.25865, 27.03322], [95.25878041800007, 27.033319273000075], [95.26132292600005, 27.035254615000042], [95.26414, 27.03486], [95.26536185300006, 27.034684054000024], [95.26538369200006, 27.034706499000038], [95.26597546100004, 27.035314707000055], [95.26967, 27.03932], [95.26968700700007, 27.039331938000032], [95.27071, 27.04005], [95.27105163100003, 27.040288674000067], [95.27144, 27.04056], [95.27353, 27.04203], [95.27622545100007, 27.04393323900007], [95.27632, 27.044], [95.27754777000007, 27.046754186000044], [95.27815061800004, 27.04804026200003], [95.27814303900004, 27.048089522000055], [95.27817, 27.04815], [95.27805617500007, 27.048349760000065], [95.27666, 27.0508], [95.27654, 27.05101], [95.27656995100006, 27.051038321000078], [95.27655776600005, 27.05106036600006], [95.27943844500004, 27.053765395000028], [95.28145345800004, 27.055660703000058], [95.28236479300006, 27.056517900000074], [95.28653475400006, 27.060440141000072], [95.28660621800003, 27.06049779800003], [95.28687098800003, 27.06073609200007], [95.29544956600006, 27.06718326300006], [95.29562445800008, 27.067257957000038], [95.29571089300003, 27.067317638000077], [95.29582044100005, 27.067393279000044], [95.29854, 27.06911], [95.3018, 27.07117], [95.30425, 27.07271], [95.30693147700003, 27.074401195000064], [95.30806607500006, 27.075107771000035], [95.30840333100008, 27.07531779900006], [95.30841512500007, 27.075336926000034], [95.31127195200008, 27.07997001800004], [95.31184015900004, 27.080831799000066], [95.31192, 27.08096], [95.31824150800009, 27.08272224500007], [95.322, 27.08377], [95.32277833200004, 27.08418682200005], [95.33289414600006, 27.089604174000044], [95.33295534400008, 27.089637191000065], [95.33369710600005, 27.09003737100005], [95.33634241400006, 27.09174680900003], [95.33661882300004, 27.09192586000006], [95.34734, 27.09892], [95.34735335100004, 27.098926385000027], [95.34741672000007, 27.09895669200006], [95.34757, 27.09903], [95.34788395900006, 27.099171770000055], [95.35019216100005, 27.100234276000037], [95.35338165700006, 27.101670304000038], [95.35441988700006, 27.102123104000043], [95.35882, 27.10411], [95.35915, 27.10426], [95.36178396900004, 27.105446158000063], [95.36274701500008, 27.105882629000064], [95.36518616200004, 27.106988095000077], [95.36628908500006, 27.106647060000057], [95.3667, 27.10652], [95.36681494600003, 27.10648473200007], [95.36744630700008, 27.10629102000007], [95.36761635200008, 27.10623961400006], [95.36765, 27.10623], [95.36779982100006, 27.106184150000047], [95.36807260300009, 27.106101686000045], [95.36862456900008, 27.105932015000064], [95.36866986200005, 27.105917887000032], [95.36902562200004, 27.105809012000066], [95.36942359500006, 27.10568722000005], [95.36995342600005, 27.105525072000034], [95.36996578800006, 27.10552129000007]]]}}]}