{"type": "FeatureCollection", "features": [{"type": "Feature", "properties": {"Name": "Chirang"}, "geometry": {"type": "Polygon", "coordinates": [[[90.95812, 26.78353], [90.95682, 26.78345], [90.94393, 26.78265], [90.93881, 26.78233], [90.93042, 26.78181], [90.92596, 26.78129], [90.90041, 26.77834], [90.88147, 26.77907], [90.87695, 26.77924], [90.87424, 26.77934], [90.86852, 26.77873], [90.85195, 26.77696], [90.84039, 26.77645], [90.8218, 26.77501], [90.80574, 26.7738], [90.79035, 26.77394], [90.77577, 26.77365], [90.76602, 26.77332], [90.75031, 26.77445], [90.7446, 26.77482], [90.74062, 26.77287], [90.73757, 26.76913], [90.73257, 26.76816], [90.7267, 26.76734], [90.72148, 26.76765], [90.7206, 26.76771], [90.7193, 26.76761], [90.71594, 26.76737], [90.71315, 26.76747], [90.70356, 26.76781], [90.69727, 26.77105], [90.68796, 26.77615], [90.68665, 26.77687], [90.68646, 26.77697], [90.68602, 26.77722], [90.68312, 26.78005], [90.67356, 26.78054], [90.6666, 26.77855], [90.66067, 26.77601], [90.65286, 26.77409], [90.64086, 26.78645], [90.63412, 26.79149], [90.63288, 26.79178], [90.62718, 26.79309], [90.62139, 26.79445], [90.60534, 26.79737], [90.59285, 26.79834], [90.58461, 26.7974], [90.58392, 26.7975], [90.5828, 26.79763], [90.58167, 26.79774], [90.57221, 26.79874], [90.56383, 26.80086], [90.55769, 26.80564], [90.55274, 26.81179], [90.5428, 26.81614], [90.53279, 26.82338], [90.53167, 26.82407], [90.5285, 26.82616], [90.52003, 26.83165], [90.51811, 26.83288], [90.50805, 26.83959], [90.50464, 26.84187], [90.49614, 26.84723], [90.48888, 26.8519], [90.48721, 26.85296], [90.46772, 26.86581], [90.46355, 26.8686], [90.45812, 26.87232], [90.45355, 26.87602], [90.44523, 26.88276], [90.44123, 26.86862], [90.43591, 26.83074], [90.43546, 26.82752], [90.43389, 26.80711], [90.43259, 26.79022], [90.4317, 26.77865], [90.43135, 26.77408], [90.4313, 26.77344], [90.43113, 26.77127], [90.43067, 26.74608], [90.43041, 26.73179], [90.43041, 26.73162], [90.42579, 26.72283], [90.41936, 26.71062], [90.41599, 26.70422], [90.41444, 26.70315], [90.40257, 26.69492], [90.4025, 26.69446], [90.40176, 26.68958], [90.40049, 26.68114], [90.38921, 26.66805], [90.38907, 26.66789], [90.38468, 26.66278], [90.37813, 26.65518], [90.37772, 26.65411], [90.37568, 26.64886], [90.37247, 26.64058], [90.37161, 26.63837], [90.37088, 26.63648], [90.37038, 26.6352], [90.36876, 26.63103], [90.36804, 26.62202], [90.36912, 26.61986], [90.36963, 26.61884], [90.37164, 26.61481], [90.37548, 26.61264], [90.37994, 26.61012], [90.38423, 26.60648], [90.38462, 26.60615], [90.38692, 26.59104], [90.38749, 26.58725], [90.38759, 26.5866], [90.38823, 26.58236], [90.39351, 26.57759], [90.39431, 26.57687], [90.39941, 26.57226], [90.40089, 26.57036], [90.40482, 26.56531], [90.40654, 26.56309], [90.4095, 26.55928], [90.41201, 26.55228], [90.41209, 26.55207], [90.41455, 26.54522], [90.41453, 26.54408], [90.41421, 26.51993], [90.41419, 26.51818], [90.41582, 26.50357], [90.41592, 26.50266], [90.41637, 26.50229], [90.41822, 26.50075], [90.41865, 26.49823], [90.41707, 26.49711], [90.41706, 26.49655], [90.42001, 26.49535], [90.42355, 26.49529], [90.42943, 26.49519], [90.43002, 26.49518], [90.43395, 26.49471], [90.43658, 26.49439], [90.43759, 26.49388], [90.43844, 26.49345], [90.4388, 26.49279], [90.43906, 26.4923], [90.44024, 26.4893], [90.44026, 26.4892], [90.44073, 26.48734], [90.44103, 26.48598], [90.44182, 26.48244], [90.44245, 26.47957], [90.44266, 26.47873], [90.44266, 26.47871], [90.44373, 26.47729], [90.44651, 26.47599], [90.44659, 26.47585], [90.4472, 26.47472], [90.44745, 26.47426], [90.4479, 26.47343], [90.44815, 26.47296], [90.44979, 26.46866], [90.45048, 26.46668], [90.45443, 26.46772], [90.45907, 26.46895], [90.46605, 26.4708], [90.46638, 26.4708], [90.47676, 26.4708], [90.47926, 26.4708], [90.48373, 26.4708], [90.48422, 26.4708], [90.4848, 26.4708], [90.4876, 26.4708], [90.4881, 26.4708], [90.50084, 26.4708], [90.50277, 26.4708], [90.50304, 26.4708], [90.50702, 26.4708], [90.5075, 26.4708], [90.51298, 26.4708], [90.51882, 26.4708], [90.51894, 26.46943], [90.51907, 26.46786], [90.51952, 26.46247], [90.5188, 26.45979], [90.51766, 26.4555], [90.51765, 26.45545], [90.51674, 26.45205], [90.5164, 26.45078], [90.51396, 26.44164], [90.51616, 26.43504], [90.51743, 26.43122], [90.51761, 26.43117], [90.52057, 26.43031], [90.5214, 26.43007], [90.52362, 26.42943], [90.52667, 26.42855], [90.52872, 26.42796], [90.53116, 26.42725], [90.53317, 26.42667], [90.53632, 26.42576], [90.53666, 26.4266], [90.53715, 26.4278], [90.53758, 26.42886], [90.5376, 26.42891], [90.53734, 26.42993], [90.53711, 26.43084], [90.53691, 26.43164], [90.53685, 26.43187], [90.53694, 26.43251], [90.53698, 26.43342], [90.53729, 26.43494], [90.53742, 26.43585], [90.53743, 26.43821], [90.53744, 26.44009], [90.53744, 26.44066], [90.53739, 26.44079], [90.53727, 26.44111], [90.53722, 26.44124], [90.53622, 26.44397], [90.5357, 26.44539], [90.53572, 26.44555], [90.53582, 26.44667], [90.53646, 26.44706], [90.5376, 26.44774], [90.53763, 26.44776], [90.53872, 26.44778], [90.54211, 26.44842], [90.54405, 26.44887], [90.54409, 26.44888], [90.54558, 26.44863], [90.54616, 26.44851], [90.54679, 26.44838], [90.54727, 26.44811], [90.54755, 26.4474], [90.54866, 26.4473], [90.5495, 26.44723], [90.55053, 26.44714], [90.55078, 26.44711], [90.55137, 26.44705], [90.55252, 26.44695], [90.55377, 26.44698], [90.55724, 26.44707], [90.55738, 26.44707], [90.55908, 26.44785], [90.55887, 26.44807], [90.55813, 26.44883], [90.55794, 26.44903], [90.55768, 26.4493], [90.55755, 26.44943], [90.55712, 26.44987], [90.55539, 26.45266], [90.55391, 26.45506], [90.55373, 26.45534], [90.55335, 26.45599], [90.55239, 26.45765], [90.55274, 26.45811], [90.55139, 26.45927], [90.551, 26.45995], [90.55098, 26.46008], [90.55105, 26.46042], [90.55136, 26.46207], [90.55137, 26.46212], [90.55131, 26.46573], [90.55271, 26.46532], [90.55353, 26.46561], [90.55381, 26.4659], [90.55477, 26.4669], [90.55525, 26.4674], [90.55542, 26.46754], [90.55628, 26.46823], [90.55627, 26.46871], [90.55626, 26.46917], [90.55627, 26.47034], [90.55627, 26.47077], [90.55628, 26.47131], [90.55707, 26.47113], [90.55754, 26.47102], [90.55849, 26.47081], [90.55951, 26.47084], [90.56045, 26.47085], [90.56084, 26.47086], [90.56139, 26.47088], [90.56214, 26.4709], [90.56244, 26.47096], [90.56281, 26.47104], [90.56368, 26.47094], [90.56377, 26.47096], [90.56473, 26.47111], [90.56491, 26.4711], [90.56556, 26.47071], [90.56564, 26.47066], [90.5664, 26.4702], [90.56694, 26.46943], [90.5674, 26.46873], [90.56757, 26.46848], [90.56967, 26.4678], [90.5698, 26.46776], [90.57072, 26.46746], [90.5718, 26.46711], [90.57189, 26.46706], [90.57446, 26.46565], [90.57507, 26.46532], [90.57583, 26.46426], [90.57592, 26.46372], [90.57615, 26.46224], [90.57467, 26.46112], [90.5745, 26.46073], [90.57422, 26.46016], [90.5749, 26.45919], [90.57497, 26.4591], [90.57566, 26.4575], [90.57471, 26.45477], [90.57474, 26.45397], [90.57615, 26.45407], [90.57892, 26.45347], [90.58056, 26.45244], [90.58155, 26.44963], [90.58184, 26.44855], [90.58281, 26.44804], [90.58312, 26.4513], [90.58325, 26.45469], [90.58393, 26.45622], [90.58255, 26.45728], [90.58025, 26.45964], [90.579, 26.46096], [90.57776, 26.46321], [90.57767, 26.46347], [90.57671, 26.46615], [90.57658, 26.46656], [90.57614, 26.46795], [90.57591, 26.46872], [90.57533, 26.47065], [90.57515, 26.47123], [90.5748, 26.47166], [90.57437, 26.47221], [90.57421, 26.47241], [90.57358, 26.47266], [90.57293, 26.47291], [90.57291, 26.47291], [90.57209, 26.47306], [90.57092, 26.47326], [90.56974, 26.47392], [90.5692, 26.47422], [90.5691, 26.47428], [90.56873, 26.47525], [90.56854, 26.47573], [90.56842, 26.47602], [90.56833, 26.47625], [90.56805, 26.47695], [90.56797, 26.47709], [90.56782, 26.47737], [90.56748, 26.478], [90.56725, 26.47843], [90.56624, 26.48029], [90.56622, 26.48034], [90.56616, 26.48046], [90.56608, 26.48061], [90.56606, 26.48065], [90.56533, 26.48143], [90.56492, 26.48187], [90.56473, 26.48207], [90.56458, 26.48223], [90.56416, 26.48234], [90.56337, 26.48251], [90.56303, 26.48259], [90.56241, 26.48266], [90.56176, 26.48274], [90.56171, 26.48275], [90.56118, 26.48278], [90.56101, 26.48282], [90.56083, 26.48285], [90.5608, 26.48358], [90.56077, 26.48433], [90.56055, 26.48456], [90.55949, 26.48564], [90.55944, 26.4857], [90.55939, 26.48576], [90.55882, 26.48642], [90.55864, 26.48663], [90.55875, 26.48686], [90.55899, 26.48742], [90.55921, 26.48791], [90.55917, 26.48819], [90.55893, 26.48959], [90.55889, 26.48986], [90.55879, 26.49047], [90.55866, 26.4913], [90.55846, 26.49244], [90.5585, 26.49291], [90.55849, 26.49301], [90.55831, 26.49537], [90.55798, 26.49696], [90.55769, 26.49808], [90.55767, 26.49815], [90.55749, 26.49882], [90.55758, 26.49882], [90.55795, 26.4987], [90.55952, 26.4982], [90.56001, 26.49805], [90.56014, 26.49801], [90.56058, 26.49789], [90.56218, 26.49739], [90.56321, 26.49708], [90.56513, 26.49622], [90.56572, 26.49595], [90.5664, 26.49589], [90.56812, 26.49556], [90.56829, 26.49561], [90.56918, 26.495], [90.56926, 26.49498], [90.57149, 26.49447], [90.57192, 26.49443], [90.57204, 26.49443], [90.57239, 26.49444], [90.57525, 26.49454], [90.57585, 26.49452], [90.5794, 26.4937], [90.58162, 26.49283], [90.58162, 26.49341], [90.58162, 26.49398], [90.5825, 26.49428], [90.58336, 26.49475], [90.58405, 26.49513], [90.58416, 26.49515], [90.58514, 26.49536], [90.58535, 26.49541], [90.58554, 26.49545], [90.58585, 26.49544], [90.58743, 26.49538], [90.58805, 26.49482], [90.58863, 26.49429], [90.58905, 26.4939], [90.58912, 26.49384], [90.58958, 26.49305], [90.59072, 26.49408], [90.59099, 26.49462], [90.59188, 26.4964], [90.59221, 26.49832], [90.59247, 26.49981], [90.59562, 26.49908], [90.6002, 26.49913], [90.60066, 26.49927], [90.60259, 26.49748], [90.60328, 26.49639], [90.60554, 26.49689], [90.60888, 26.49763], [90.61004, 26.49789], [90.61193, 26.49837], [90.61506, 26.49718], [90.61693, 26.49647], [90.62033, 26.49929], [90.62182, 26.50053], [90.62586, 26.50226], [90.62773, 26.50165], [90.62804, 26.50213], [90.62818, 26.50387], [90.62819, 26.50513], [90.62793, 26.5062], [90.62837, 26.50622], [90.62845, 26.50714], [90.63041, 26.53098], [90.62732, 26.54023], [90.62704, 26.54107], [90.62766, 26.5422], [90.62858, 26.54389], [90.62874, 26.54419], [90.62895, 26.54457], [90.6297, 26.54594], [90.63024, 26.54693], [90.63209, 26.55032], [90.63547, 26.55084], [90.63676, 26.55104], [90.64302, 26.552], [90.64883, 26.54472], [90.64974, 26.54359], [90.65071, 26.53729], [90.65126, 26.53373], [90.65143, 26.53266], [90.65227, 26.52846], [90.6551, 26.52722], [90.6564, 26.52665], [90.66572, 26.52257], [90.66615, 26.52249], [90.66715, 26.52231], [90.68001, 26.52005], [90.68344, 26.51765], [90.6864, 26.51558], [90.68842, 26.51417], [90.68884, 26.51387], [90.69116, 26.51221], [90.69312, 26.5108], [90.6938, 26.51032], [90.69529, 26.50925], [90.69589, 26.50882], [90.69715, 26.50792], [90.69775, 26.50749], [90.69849, 26.50696], [90.69868, 26.50682], [90.69984, 26.50599], [90.70074, 26.50535], [90.70256, 26.50405], [90.70456, 26.50261], [90.70557, 26.50189], [90.70631, 26.50136], [90.70659, 26.50129], [90.71003, 26.50043], [90.71172, 26.50001], [90.71469, 26.49926], [90.72233, 26.49735], [90.72297, 26.49719], [90.73517, 26.49578], [90.73876, 26.49537], [90.74103, 26.49511], [90.7565, 26.49979], [90.76394, 26.50205], [90.76431, 26.50229], [90.76538, 26.50299], [90.76621, 26.50353], [90.76743, 26.50433], [90.76993, 26.50596], [90.77307, 26.50802], [90.77755, 26.51095], [90.78169, 26.51366], [90.782, 26.51386], [90.78246, 26.51441], [90.78399, 26.51622], [90.78458, 26.51692], [90.78628, 26.51892], [90.78836, 26.52137], [90.78938, 26.52257], [90.78943, 26.52263], [90.78964, 26.52288], [90.79203, 26.52777], [90.79363, 26.53104], [90.79445, 26.53097], [90.79743, 26.53073], [90.79895, 26.5306], [90.79998, 26.53051], [90.80483, 26.53011], [90.8116, 26.52954], [90.81618, 26.52916], [90.82586, 26.52835], [90.82696, 26.52826], [90.82699, 26.52828], [90.82946, 26.53022], [90.83018, 26.53078], [90.84392, 26.54154], [90.8457, 26.54294], [90.84573, 26.54328], [90.84598, 26.54663], [90.84607, 26.54796], [90.84643, 26.55049], [90.84745, 26.55758], [90.8475, 26.55791], [90.8478, 26.55997], [90.84789, 26.56065], [90.84589, 26.56052], [90.84485, 26.56029], [90.84132, 26.5595], [90.83974, 26.55914], [90.83927, 26.55896], [90.83567, 26.55757], [90.83392, 26.5569], [90.83233, 26.5563], [90.83223, 26.55626], [90.83172, 26.55574], [90.83098, 26.55567], [90.83098, 26.55572], [90.831, 26.55638], [90.83053, 26.55661], [90.82991, 26.55691], [90.82812, 26.55777], [90.82729, 26.55817], [90.827, 26.55831], [90.82308, 26.5602], [90.82117, 26.56311], [90.82064, 26.56391], [90.81923, 26.56831], [90.82005, 26.56886], [90.82128, 26.56968], [90.82151, 26.56983], [90.82163, 26.56991], [90.82418, 26.57162], [90.82493, 26.57212], [90.82528, 26.57235], [90.8265, 26.57316], [90.82849, 26.57449], [90.82872, 26.57465], [90.82995, 26.57547], [90.83338, 26.57458], [90.83743, 26.57354], [90.83759, 26.5735], [90.83869, 26.57321], [90.83921, 26.57308], [90.8435, 26.57197], [90.84521, 26.57153], [90.84643, 26.57121], [90.84727, 26.57146], [90.84738, 26.57149], [90.84849, 26.57183], [90.8492, 26.57205], [90.8499, 26.57452], [90.85002, 26.57494], [90.85082, 26.57779], [90.85243, 26.57916], [90.85275, 26.57974], [90.85282, 26.57987], [90.85295, 26.5801], [90.8544, 26.58271], [90.85306, 26.58305], [90.85269, 26.58314], [90.85325, 26.58601], [90.85107, 26.58655], [90.85072, 26.58648], [90.84982, 26.58631], [90.84736, 26.58479], [90.84503, 26.58357], [90.84489, 26.5835], [90.84459, 26.58335], [90.84492, 26.58407], [90.84575, 26.58497], [90.84611, 26.58486], [90.8467, 26.58517], [90.84769, 26.58638], [90.84771, 26.58658], [90.84783, 26.58762], [90.8484, 26.59064], [90.84846, 26.59084], [90.84862, 26.59138], [90.85055, 26.59195], [90.85076, 26.592], [90.85154, 26.59219], [90.85241, 26.59241], [90.85258, 26.59245], [90.85348, 26.59251], [90.85385, 26.59254], [90.85455, 26.59259], [90.855, 26.59487], [90.85511, 26.59544], [90.8559, 26.59666], [90.85668, 26.59785], [90.85675, 26.59797], [90.85785, 26.59818], [90.86264, 26.59912], [90.86574, 26.59868], [90.86749, 26.59843], [90.86823, 26.59884], [90.87039, 26.60002], [90.87216, 26.60254], [90.87249, 26.60349], [90.87304, 26.6051], [90.87349, 26.60644], [90.87381, 26.60773], [90.87427, 26.60961], [90.87498, 26.61253], [90.87518, 26.61335], [90.87596, 26.61657], [90.88005, 26.61942], [90.87803, 26.62003], [90.87788, 26.62053], [90.87776, 26.62094], [90.87613, 26.62648], [90.87576, 26.63166], [90.87537, 26.63712], [90.87537, 26.63741], [90.87537, 26.6384], [90.87537, 26.63865], [90.87537, 26.64107], [90.87537, 26.64281], [90.87803, 26.65269], [90.88345, 26.65847], [90.88372, 26.65876], [90.89664, 26.66398], [90.89596, 26.66617], [90.89653, 26.66991], [90.89908, 26.67727], [90.89917, 26.67742], [90.89921, 26.67749], [90.89949, 26.67794], [90.90005, 26.67872], [90.90092, 26.68035], [90.90174, 26.68174], [90.90226, 26.68259], [90.90209, 26.68286], [90.9018, 26.68347], [90.90101, 26.68468], [90.90031, 26.68603], [90.90053, 26.68672], [90.90093, 26.68761], [90.90141, 26.68866], [90.90137, 26.68981], [90.90168, 26.69042], [90.90239, 26.69108], [90.90405, 26.69207], [90.90612, 26.69316], [90.90782, 26.6941], [90.90882, 26.69491], [90.90995, 26.69614], [90.9107, 26.69798], [90.91133, 26.69993], [90.91206, 26.70141], [90.91267, 26.70341], [90.91325, 26.70549], [90.91416, 26.70716], [90.9154, 26.70799], [90.91682, 26.70928], [90.91731, 26.71047], [90.91744, 26.71193], [90.9174, 26.71365], [90.91702, 26.71456], [90.9164, 26.71552], [90.91555, 26.71669], [90.91504, 26.71776], [90.91487, 26.71861], [90.91501, 26.71933], [90.91529, 26.72012], [90.91549, 26.72095], [90.91545, 26.72203], [90.91546, 26.72325], [90.91558, 26.72426], [90.91572, 26.72525], [90.91581, 26.72597], [90.91609, 26.72664], [90.91674, 26.72738], [90.91755, 26.72819], [90.91812, 26.72889], [90.91845, 26.72989], [90.91893, 26.73091], [90.91963, 26.73189], [90.92072, 26.73299], [90.92087, 26.73484], [90.92171, 26.73638], [90.92238, 26.73694], [90.92276, 26.73779], [90.92284, 26.73883], [90.92284, 26.74005], [90.92314, 26.74088], [90.92389, 26.74152], [90.92599, 26.74289], [90.9278, 26.744], [90.92878, 26.74461], [90.92933, 26.74627], [90.92915, 26.74822], [90.93031, 26.75089], [90.93107, 26.75262], [90.93231, 26.75317], [90.93452, 26.75492], [90.93535, 26.75562], [90.93651, 26.75713], [90.93705, 26.75786], [90.93775, 26.75883], [90.93861, 26.76087], [90.93947, 26.76211], [90.94121, 26.76283], [90.94206, 26.76314], [90.94288, 26.76411], [90.94347, 26.76489], [90.9443, 26.76529], [90.94504, 26.76564], [90.94545, 26.76623], [90.94569, 26.76668], [90.9464, 26.76741], [90.94733, 26.76833], [90.94862, 26.76974], [90.94966, 26.77055], [90.95042, 26.77132], [90.95075, 26.77157], [90.95149, 26.77198], [90.95178, 26.77196], [90.95229, 26.77207], [90.95228, 26.77304], [90.9532, 26.77337], [90.9532, 26.77403], [90.95347, 26.7745], [90.9541, 26.77522], [90.95456, 26.77562], [90.95518, 26.77624], [90.95634, 26.77774], [90.95674, 26.7793], [90.95791, 26.78289], [90.95812, 26.78353]]]}}]}