{"type": "FeatureCollection", "features": [{"type": "Feature", "properties": {"Name": "Darrang"}, "geometry": {"type": "Polygon", "coordinates": [[[92.44144, 26.48476], [92.44068, 26.48907], [92.44046, 26.49032], [92.44019, 26.49188], [92.43967, 26.49481], [92.4389, 26.49919], [92.43409, 26.50423], [92.43083, 26.50763], [92.43026, 26.50824], [92.43011, 26.5084], [92.43288, 26.50863], [92.43437, 26.51061], [92.43379, 26.51181], [92.43176, 26.51392], [92.42979, 26.5154], [92.42762, 26.51615], [92.4243, 26.51681], [92.42366, 26.51694], [92.42451, 26.51712], [92.43197, 26.5187], [92.43344, 26.51901], [92.43398, 26.51913], [92.43698, 26.51977], [92.4432, 26.52036], [92.44393, 26.52032], [92.44529, 26.52055], [92.44711, 26.52064], [92.44378, 26.52536], [92.44172, 26.52828], [92.43312, 26.53017], [92.42622, 26.53169], [92.41127, 26.53585], [92.40569, 26.53685], [92.39127, 26.54007], [92.38826, 26.54105], [92.38763, 26.54203], [92.38923, 26.54428], [92.38934, 26.54518], [92.38751, 26.54754], [92.38455, 26.54866], [92.37731273500003, 26.543625814000052], [92.37729, 26.54361], [92.37127, 26.55352], [92.37045, 26.55454], [92.37022, 26.55482], [92.36999, 26.55511], [92.36917, 26.55612], [92.36796, 26.55762], [92.3677, 26.55794], [92.36679, 26.56155], [92.36721, 26.56207], [92.36775, 26.56273], [92.36851, 26.56366], [92.36855, 26.56649], [92.36728, 26.56807], [92.36712570600008, 26.568258581000066], [92.3671, 26.56829], [92.36671, 26.56834], [92.36174, 26.56898], [92.35865, 26.57023], [92.35695, 26.57192], [92.3565, 26.57456], [92.35659, 26.57473], [92.3577, 26.57671], [92.35777, 26.57684], [92.36085, 26.57801], [92.36146, 26.57865], [92.36194, 26.57916], [92.36251, 26.57976], [92.36348, 26.58078], [92.36357, 26.58088], [92.36573, 26.58077], [92.36443, 26.58287], [92.36441, 26.5829], [92.3626, 26.58582], [92.36227, 26.5858], [92.3593, 26.58558], [92.35749, 26.58544], [92.35583, 26.58532], [92.35216, 26.58748], [92.35025, 26.58787], [92.34855, 26.58822], [92.34677, 26.5889], [92.34426, 26.58986], [92.3415, 26.59038], [92.34105, 26.59073], [92.34076, 26.59095], [92.33973, 26.59174], [92.33849, 26.59269], [92.33761, 26.59326], [92.33612, 26.59422], [92.33584, 26.59503], [92.33616, 26.59602], [92.33628, 26.59622], [92.33903, 26.59628], [92.33904, 26.59629], [92.33943, 26.59646], [92.34069, 26.59701], [92.34154, 26.59738], [92.34127, 26.59835], [92.34068, 26.60047], [92.33977, 26.60078], [92.33743, 26.60158], [92.33733, 26.60162], [92.33662, 26.60186], [92.32854, 26.60463], [92.32685, 26.60625], [92.32985, 26.60775], [92.33048, 26.60807], [92.33054, 26.60859], [92.33076, 26.61033], [92.33084, 26.61096], [92.33019, 26.61116], [92.32507, 26.61272], [92.32451, 26.61339], [92.32388, 26.61414], [92.32438, 26.61615], [92.3245, 26.61663], [92.32465, 26.6168], [92.32512, 26.61736], [92.32606, 26.61846], [92.32498, 26.61883], [92.32474, 26.61903], [92.32476, 26.6196], [92.32738, 26.62149], [92.32745, 26.62166], [92.32861, 26.6246], [92.32875, 26.62629], [92.32728, 26.62672], [92.32591, 26.62658], [92.32585, 26.62653], [92.32579, 26.62648], [92.32389, 26.62484], [92.32346, 26.62447], [92.32199, 26.62362], [92.32181, 26.62255], [92.32152, 26.61928], [92.32136, 26.61842], [92.3212, 26.6176], [92.32171, 26.61704], [92.32263, 26.61658], [92.32265, 26.61654], [92.32288, 26.61615], [92.32318, 26.61515], [92.32341, 26.6144], [92.32443, 26.61234], [92.32431, 26.61122], [92.32379, 26.60913], [92.32292, 26.6078], [92.32182, 26.60739], [92.32088, 26.60704], [92.32053, 26.60691], [92.32016, 26.60677], [92.31981, 26.60674], [92.31827, 26.6066], [92.31553, 26.60729], [92.31275, 26.60975], [92.31083, 26.60995], [92.30891, 26.61245], [92.30639, 26.61528], [92.30506, 26.61484], [92.3023, 26.61446], [92.30161, 26.61436], [92.29903, 26.61379], [92.29691, 26.61278], [92.29648, 26.61257], [92.29514, 26.6117], [92.295, 26.61161], [92.29444, 26.61124], [92.29275, 26.61077], [92.29273, 26.61076], [92.29215, 26.61026], [92.28869, 26.60728], [92.28399, 26.60429], [92.28292, 26.60361], [92.28291, 26.60399], [92.28225, 26.60523], [92.28211, 26.60549], [92.28183, 26.60581], [92.2815, 26.60617], [92.27883, 26.60886], [92.27854, 26.60925], [92.28079, 26.61095], [92.28261, 26.61163], [92.28445, 26.61334], [92.28531, 26.61414], [92.28644, 26.61488], [92.28875, 26.61619], [92.28873, 26.61688], [92.29025, 26.61743], [92.29129, 26.61781], [92.29337, 26.61898], [92.29347, 26.61904], [92.29512, 26.61937], [92.29513, 26.61954], [92.29496, 26.6214], [92.29231, 26.62161], [92.28978, 26.62182], [92.28254, 26.62235], [92.27935, 26.62076], [92.27514, 26.61865], [92.27317, 26.6119], [92.27143, 26.60595], [92.26998, 26.60273], [92.27003, 26.59895], [92.27111, 26.59517], [92.27091, 26.58849], [92.27084, 26.58694], [92.27057, 26.58107], [92.27038, 26.57685], [92.26838, 26.57597], [92.26207, 26.5732], [92.25715, 26.57104], [92.24551, 26.57527], [92.24442, 26.57854], [92.24392, 26.58003], [92.24382, 26.58091], [92.24328, 26.58581], [92.24181, 26.59907], [92.24082, 26.60026], [92.2376, 26.60412], [92.23756, 26.60417], [92.23387, 26.6086], [92.2336, 26.60904], [92.2327, 26.61047], [92.22977, 26.61517], [92.22792, 26.61812], [92.22736, 26.61901], [92.22594, 26.62129], [92.22409, 26.62406], [92.22065, 26.62923], [92.21892, 26.63], [92.21694, 26.63088], [92.21589, 26.63135], [92.21455, 26.63847], [92.2143, 26.63981], [92.21165, 26.64325], [92.20901, 26.64669], [92.2087, 26.64919], [92.20266, 26.65198], [92.19843, 26.65833], [92.19358, 26.66156], [92.19255, 26.66225], [92.19208, 26.66256], [92.18947, 26.66449], [92.18594, 26.66711], [92.18481, 26.66678], [92.18369, 26.66646], [92.1802, 26.66546], [92.17965, 26.6653], [92.17836, 26.66503], [92.17824, 26.665], [92.17092, 26.66346], [92.17059, 26.66339], [92.16686, 26.66261], [92.1663, 26.66249], [92.1658, 26.66239], [92.16505, 26.66202], [92.16369, 26.66134], [92.16295, 26.66097], [92.16017, 26.65958], [92.15598, 26.65705], [92.15287, 26.65517], [92.15113, 26.65412], [92.15091, 26.65405], [92.1501, 26.65378], [92.14733, 26.65289], [92.14643, 26.6528], [92.142, 26.65234], [92.14085, 26.65211], [92.14068, 26.65206], [92.13711, 26.65099], [92.13557, 26.65057], [92.1339, 26.65012], [92.13198, 26.6493], [92.1271, 26.64722], [92.12682, 26.64648], [92.12703, 26.64551], [92.13055, 26.64349], [92.13031, 26.64195], [92.13032, 26.64169], [92.13041, 26.64008], [92.12985, 26.63874], [92.12973, 26.63865], [92.1286, 26.63781], [92.12635, 26.63701], [92.12574, 26.63679], [92.12268, 26.63652], [92.11847, 26.63614], [92.11742, 26.63567], [92.11425, 26.63426], [92.1137, 26.63402], [92.11129, 26.63361], [92.10922, 26.63431], [92.1103, 26.63517], [92.1103, 26.63556], [92.11031, 26.63804], [92.11025, 26.63827], [92.10972, 26.64046], [92.1087, 26.6414], [92.10859, 26.6415], [92.10854, 26.64151], [92.10848, 26.64153], [92.10703, 26.64197], [92.10509, 26.64196], [92.10461, 26.64196], [92.10289, 26.64195], [92.09769, 26.64193], [92.09702, 26.64193], [92.09351, 26.64196], [92.09287, 26.64196], [92.0903, 26.64625], [92.09018, 26.64697], [92.08962, 26.6505], [92.08878, 26.65198], [92.08849, 26.65244], [92.08777, 26.65358], [92.08713, 26.65397], [92.08574, 26.6539], [92.08511, 26.65415], [92.08499, 26.65649], [92.08557, 26.6572], [92.08656, 26.65825], [92.08395, 26.65907], [92.08327, 26.65928], [92.08111, 26.65929], [92.078, 26.6593], [92.07793, 26.65932], [92.07675, 26.65965], [92.07469, 26.65967], [92.07428, 26.65967], [92.07359, 26.66088], [92.07217, 26.6615], [92.07, 26.66181], [92.06842, 26.66229], [92.06792, 26.66235], [92.0674, 26.66242], [92.06687, 26.66249], [92.06596, 26.6619], [92.0658, 26.65977], [92.06577, 26.65941], [92.06496, 26.6569], [92.06469, 26.65552], [92.06408, 26.65232], [92.0637, 26.64925], [92.06353, 26.64931], [92.06344, 26.64667], [92.0634, 26.64545], [92.06325, 26.6413], [92.06076, 26.64119], [92.05836, 26.64109], [92.05852, 26.63941], [92.05796, 26.63847], [92.05745, 26.63762], [92.05737, 26.63748], [92.05631, 26.63585], [92.05631, 26.63405], [92.05631, 26.63327], [92.05622, 26.63277], [92.0537, 26.63138], [92.0523, 26.63089], [92.05148, 26.6306], [92.05089, 26.63036], [92.0496, 26.62983], [92.04912, 26.62972], [92.0476, 26.62936], [92.04558, 26.62927], [92.04423, 26.62848], [92.0436, 26.62811], [92.04286, 26.627], [92.04136, 26.62537], [92.03997, 26.62374], [92.0398, 26.62358], [92.03932, 26.62313], [92.0382, 26.62289], [92.03715, 26.62167], [92.0371, 26.62166], [92.03607, 26.62188], [92.0354, 26.62066], [92.03473, 26.61978], [92.03395, 26.61828], [92.03369, 26.61778], [92.03367, 26.61776], [92.03345, 26.61749], [92.03155, 26.61514], [92.03094, 26.61304], [92.03031, 26.61107], [92.0295, 26.61031], [92.02869, 26.60942], [92.02663, 26.60826], [92.02653, 26.60827], [92.02552, 26.60835], [92.0255, 26.60822], [92.02538, 26.60696], [92.02521, 26.60529], [92.02488, 26.60322], [92.02492, 26.60237], [92.02564, 26.60191], [92.02623, 26.60133], [92.02668, 26.60047], [92.02702, 26.60055], [92.02886, 26.59847], [92.03001, 26.59813], [92.03081, 26.59786], [92.03218, 26.59762], [92.03251, 26.59763], [92.03272, 26.59764], [92.0332, 26.59765], [92.03366, 26.59761], [92.034, 26.59758], [92.03413, 26.5972], [92.0344, 26.59634], [92.03447, 26.59591], [92.03455, 26.59547], [92.03458, 26.5948], [92.03586, 26.59416], [92.03669, 26.59341], [92.0372, 26.59227], [92.03684, 26.59043], [92.03651, 26.59032], [92.03562, 26.58991], [92.03541, 26.58981], [92.03451, 26.58939], [92.03406, 26.58902], [92.03342, 26.58849], [92.03664, 26.58145], [92.03682, 26.58106], [92.03726, 26.5801], [92.03778, 26.57896], [92.04054, 26.57276], [92.0441, 26.56474], [92.04614, 26.56169], [92.04625, 26.56152], [92.04903, 26.55734], [92.04963, 26.55644], [92.05126, 26.55448], [92.05452, 26.55056], [92.05535, 26.54957], [92.05556, 26.54932], [92.05888, 26.55043], [92.06267, 26.5517], [92.0696, 26.55436], [92.07295, 26.55565], [92.07466, 26.5565], [92.0753, 26.55682], [92.07941, 26.55888], [92.08164, 26.55999], [92.08915, 26.56078], [92.09121, 26.55933], [92.09369, 26.55757], [92.09586, 26.55604], [92.09587, 26.55588], [92.09623, 26.55087], [92.09623, 26.5508], [92.09665, 26.54498], [92.09518, 26.53995], [92.09429, 26.53691], [92.09317, 26.53305], [92.0924, 26.53043], [92.09233, 26.53018], [92.09112, 26.52601], [92.0908, 26.52501], [92.09053, 26.52418], [92.08923, 26.52013], [92.08757, 26.51495], [92.08778, 26.51308], [92.08875, 26.50428], [92.08886, 26.5039], [92.08966, 26.50116], [92.09185, 26.4936], [92.09231, 26.49203], [92.09233, 26.49149], [92.09245, 26.4883], [92.09253, 26.48616], [92.09255, 26.48567], [92.09256, 26.48544], [92.09265, 26.48371], [92.0927, 26.48255], [92.09114, 26.48021], [92.08997, 26.47845], [92.08875, 26.47662], [92.08742, 26.47691], [92.08434, 26.47757], [92.08322, 26.47781], [92.08154, 26.47807], [92.07971, 26.47835], [92.07808, 26.4786], [92.07052, 26.47591], [92.07051, 26.47691], [92.07052, 26.47693], [92.07096, 26.4782], [92.071, 26.4798], [92.07061, 26.48279], [92.07064, 26.48465], [92.07072, 26.48606], [92.07067, 26.48622], [92.07046, 26.4869], [92.07031, 26.48736], [92.06982, 26.48772], [92.06915, 26.48767], [92.06907, 26.48766], [92.06617, 26.4881], [92.06613, 26.48811], [92.06515, 26.48826], [92.06387, 26.48934], [92.06319, 26.49026], [92.06127, 26.49068], [92.0613, 26.49114], [92.06131, 26.49122], [92.06082, 26.49201], [92.06037, 26.49248], [92.05832, 26.49325], [92.05723, 26.49347], [92.05449, 26.49401], [92.05361, 26.49387], [92.05333, 26.49383], [92.05147, 26.4946], [92.05071, 26.49477], [92.05061, 26.49498], [92.04976, 26.49627], [92.04985, 26.49699], [92.04994, 26.49771], [92.0492, 26.49845], [92.04894, 26.49871], [92.04851, 26.49942], [92.04795, 26.50018], [92.04788, 26.50028], [92.04794, 26.5013], [92.04885, 26.50276], [92.04877, 26.50348], [92.04842, 26.50507], [92.04827, 26.50656], [92.04804, 26.5087], [92.04825, 26.51191], [92.04835, 26.51302], [92.04918, 26.51362], [92.05006, 26.51378], [92.05094, 26.51477], [92.05083, 26.51496], [92.049, 26.51551], [92.04783, 26.51549], [92.04642, 26.51536], [92.04404, 26.51556], [92.04607, 26.5181], [92.04863, 26.52132], [92.04518, 26.52609], [92.04088, 26.53203], [92.03804, 26.53595], [92.03601, 26.53876], [92.03504, 26.539], [92.03156, 26.53985], [92.03173, 26.54145], [92.03059, 26.54288], [92.02857, 26.5451], [92.02823, 26.54547], [92.025, 26.54994], [92.02445, 26.5507], [92.02105, 26.55411], [92.01888, 26.55628], [92.01869, 26.55637], [92.01843, 26.5565], [92.01203, 26.5597], [92.00689, 26.5615], [92.00345, 26.5627], [92.00191, 26.5627], [91.99975, 26.5627], [91.9966, 26.5627], [91.9936, 26.5627], [91.99286, 26.56254], [91.98644, 26.5612], [91.98545, 26.56099], [91.98154, 26.55925], [91.98031, 26.55871], [91.98024, 26.55868], [91.97984, 26.5585], [91.97871, 26.558], [91.97774, 26.55756], [91.97672, 26.55701], [91.97391, 26.5555], [91.97217, 26.55456], [91.9666, 26.55199], [91.95888, 26.55377], [91.95545, 26.55456], [91.95214, 26.55798], [91.94981, 26.5604], [91.9484, 26.56185], [91.94302, 26.56742], [91.94012, 26.56923], [91.93713, 26.5711], [91.93617, 26.5717], [91.93271, 26.57147], [91.93057, 26.57133], [91.92974, 26.57128], [91.92723, 26.56967], [91.92621, 26.56901], [91.92374, 26.56742], [91.92336, 26.56702], [91.92279, 26.56641], [91.92259, 26.5662], [91.92039, 26.56387], [91.91645, 26.5597], [91.91508, 26.55859], [91.90982, 26.55434], [91.90935, 26.55396], [91.90745, 26.55242], [91.90102, 26.54685], [91.90042, 26.5466], [91.89676, 26.54509], [91.89374, 26.54385], [91.88944, 26.54327], [91.88731, 26.54299], [91.88607, 26.5429], [91.88506, 26.54282], [91.88454, 26.54278], [91.88074, 26.5425], [91.87574, 26.54213], [91.87247, 26.54086], [91.86802, 26.53913], [91.86345, 26.53806], [91.86302, 26.53796], [91.8588, 26.53697], [91.8583, 26.53616], [91.8583, 26.53564], [91.85813, 26.53458], [91.85664, 26.53397], [91.85516, 26.53363], [91.85397, 26.53057], [91.85429, 26.5298], [91.85436, 26.52935], [91.85444, 26.5289], [91.85493, 26.52815], [91.85525, 26.52726], [91.85574, 26.52664], [91.85641, 26.52641], [91.85757, 26.52582], [91.85908, 26.52551], [91.85947, 26.5253], [91.85975, 26.52516], [91.86025, 26.52453], [91.8611, 26.52354], [91.86211, 26.52268], [91.86195, 26.52215], [91.86197, 26.52099], [91.86148, 26.52006], [91.86073, 26.51944], [91.86064, 26.51937], [91.85865, 26.51721], [91.85806, 26.51667], [91.85614, 26.5149], [91.85551, 26.51443], [91.85394, 26.51326], [91.85367, 26.51326], [91.85358, 26.51128], [91.85334, 26.50864], [91.85334, 26.50857], [91.84952, 26.50854], [91.84643, 26.5085], [91.84298, 26.50846], [91.84299, 26.50857], [91.84267, 26.50868], [91.84174, 26.50877], [91.84107, 26.50882], [91.83928, 26.50874], [91.83859, 26.50855], [91.83791, 26.50828], [91.83713, 26.50816], [91.83646, 26.50821], [91.83602, 26.5083], [91.83546, 26.50841], [91.83503, 26.50887], [91.83449, 26.50949], [91.8343, 26.51013], [91.8351, 26.51065], [91.83579, 26.51118], [91.8368, 26.51147], [91.83715, 26.51198], [91.83661, 26.51236], [91.83618, 26.5125], [91.83543, 26.51303], [91.8349, 26.51349], [91.83514, 26.51375], [91.83637, 26.51427], [91.83641, 26.51526], [91.83609, 26.5154], [91.83603, 26.5154], [91.83566, 26.51537], [91.83523, 26.51535], [91.83446, 26.51514], [91.83359, 26.515], [91.83345, 26.51499], [91.833, 26.51496], [91.83283, 26.51495], [91.83229, 26.51492], [91.83188, 26.51553], [91.8317, 26.51548], [91.8298, 26.5155], [91.82859, 26.51552], [91.82631, 26.51599], [91.82605, 26.51604], [91.82539, 26.51617], [91.82436, 26.51627], [91.82395, 26.51631], [91.82339, 26.51713], [91.82214, 26.51753], [91.82121, 26.5177], [91.81881, 26.5176], [91.81836, 26.51758], [91.81787, 26.51742], [91.81675, 26.5172], [91.81517, 26.51707], [91.81419, 26.517], [91.81344, 26.51693], [91.81341, 26.51693], [91.81169, 26.51668], [91.80951, 26.51664], [91.80842, 26.51642], [91.8079, 26.51631], [91.80713, 26.51639], [91.80623, 26.51657], [91.80178, 26.51701], [91.801, 26.51691], [91.80081, 26.51688], [91.80067, 26.51622], [91.80045, 26.51591], [91.80004, 26.51533], [91.80019, 26.5138], [91.80019, 26.51377], [91.80036, 26.51225], [91.80107, 26.51133], [91.801, 26.50997], [91.80138, 26.50953], [91.80163, 26.50924], [91.80187, 26.50806], [91.80198, 26.50742], [91.80219, 26.5066], [91.80219, 26.50574], [91.80219, 26.50552], [91.80196, 26.50321], [91.80195, 26.50309], [91.80255, 26.50272], [91.80242, 26.50173], [91.80224, 26.50111], [91.80212, 26.50067], [91.80167, 26.49916], [91.79873, 26.49947], [91.79465, 26.49989], [91.78843, 26.50102], [91.78806, 26.50112], [91.78742, 26.50128], [91.78774, 26.5003], [91.78786, 26.4999], [91.78784, 26.49981], [91.78768, 26.49923], [91.78379, 26.49606], [91.78349, 26.4957], [91.78667, 26.49116], [91.78664, 26.49049], [91.78667, 26.49036], [91.78664, 26.48181], [91.78662, 26.47641], [91.78659, 26.46649], [91.78659, 26.46604], [91.787, 26.45142], [91.78706, 26.44404], [91.7871, 26.44009], [91.78712, 26.4382], [91.78713, 26.43652], [91.79086, 26.4296], [91.79279, 26.42601], [91.7952, 26.42153], [91.79793, 26.41646], [91.80006, 26.41251], [91.80676, 26.40007], [91.81002, 26.39402], [91.80971, 26.39365], [91.80787, 26.39149], [91.80516, 26.38832], [91.80587, 26.38769], [91.80579, 26.38731], [91.80553, 26.38605], [91.80528, 26.38484], [91.80525, 26.3847], [91.80813, 26.38144], [91.80877, 26.38168], [91.8094, 26.38192], [91.81056, 26.38236], [91.81214, 26.38296], [91.81326, 26.38339], [91.81944, 26.37922], [91.81981, 26.37814], [91.82, 26.37757], [91.82003, 26.37727], [91.82007, 26.3769], [91.82167, 26.37107], [91.82112, 26.36821], [91.82109, 26.36806], [91.82097, 26.3674], [91.82129, 26.36682], [91.82182, 26.36587], [91.82289, 26.36393], [91.82171, 26.35295], [91.82162, 26.35215], [91.82164, 26.34899], [91.82156, 26.34716], [91.82152, 26.34358], [91.82151, 26.34261], [91.82149, 26.34105], [91.82148, 26.34065], [91.82147, 26.3399], [91.82145, 26.33855], [91.82144, 26.33753], [91.82143, 26.33674], [91.82205, 26.33507], [91.82315, 26.33211], [91.82255, 26.33024], [91.82184, 26.32801], [91.82118, 26.32596], [91.82087, 26.32501], [91.82004, 26.32514], [91.81666, 26.32568], [91.81571, 26.32583], [91.81281, 26.32369], [91.81272, 26.32272], [91.81251, 26.32032], [91.81249, 26.31999], [91.81242, 26.31926], [91.81167, 26.31843], [91.81019, 26.31677], [91.81008, 26.31665], [91.80917, 26.31659], [91.80892, 26.31657], [91.80871, 26.31656], [91.80632, 26.31641], [91.80126, 26.31464], [91.79977, 26.31493], [91.79959, 26.31497], [91.7984, 26.3152], [91.79814, 26.31558], [91.79802, 26.31575], [91.79798, 26.31581], [91.7964, 26.3181], [91.79604, 26.31862], [91.79355, 26.31027], [91.79321, 26.30912], [91.79101, 26.30919], [91.79028, 26.30921], [91.78938, 26.30703], [91.78903, 26.30617], [91.78889, 26.30584], [91.78865, 26.30577], [91.78556, 26.30485], [91.78724, 26.30318], [91.7875, 26.30292], [91.7867, 26.30168], [91.786, 26.30059], [91.78597, 26.29896], [91.78593, 26.29644], [91.7878, 26.29037], [91.78841, 26.2884], [91.78857, 26.28787], [91.78925, 26.28566], [91.78988, 26.28362], [91.78978, 26.28193], [91.78969, 26.2804], [91.78953, 26.27768], [91.78943, 26.27604], [91.79092, 26.27352], [91.79097, 26.27343], [91.79204, 26.27163], [91.79205, 26.26989], [91.79205, 26.26829], [91.79159, 26.26755], [91.78968, 26.2645], [91.78876, 26.26303], [91.7886, 26.26279], [91.78747, 26.26099], [91.78695, 26.25912], [91.78685, 26.25876], [91.78546, 26.25377], [91.78652, 26.24904], [91.78633, 26.24774], [91.78581, 26.24422], [91.78278, 26.24252], [91.78061, 26.2413], [91.77683, 26.24049], [91.77213, 26.24112], [91.77142, 26.24068], [91.76936, 26.23938], [91.76552, 26.23157], [91.76522, 26.23098], [91.76474, 26.23076], [91.76331, 26.2301], [91.7619, 26.22945], [91.76174, 26.22937], [91.76131, 26.22917], [91.75432, 26.22595], [91.74831, 26.22103], [91.74723, 26.2165], [91.74755, 26.21544], [91.7478, 26.21461], [91.74899, 26.21072], [91.75418, 26.2049], [91.75899, 26.20126], [91.76004, 26.20047], [91.76054, 26.2001], [91.76361, 26.19988], [91.76375, 26.19971], [91.76966, 26.199], [91.77041, 26.19891], [91.7717, 26.19876], [91.77241, 26.19867], [91.77383, 26.1985], [91.77408, 26.19847], [91.77465, 26.1984], [91.77504, 26.19835], [91.77691, 26.19813], [91.77839, 26.19795], [91.77848, 26.19798], [91.77867, 26.19804], [91.78019, 26.19852], [91.79043, 26.2017], [91.79254, 26.20236], [91.79517, 26.203], [91.79659, 26.20335], [91.79829, 26.20377], [91.79856, 26.20384], [91.79891, 26.20392], [91.80007, 26.20421], [91.80332, 26.205], [91.80428, 26.20523], [91.80501, 26.20541], [91.80569, 26.20558], [91.80944, 26.20649], [91.811, 26.20687], [91.81164, 26.20702], [91.81217, 26.20715], [91.81241, 26.20721], [91.81722, 26.20588], [91.81863, 26.20637], [91.82026, 26.20693], [91.82125, 26.20727], [91.82359, 26.20808], [91.82388, 26.20818], [91.82528, 26.20866], [91.82871, 26.20984], [91.82916, 26.20999], [91.82971, 26.21018], [91.83744, 26.21169], [91.84328, 26.21454], [91.84394, 26.2146], [91.85131, 26.21531], [91.85641, 26.21579], [91.86641, 26.21848], [91.86733, 26.21873], [91.86839, 26.21888], [91.87008, 26.21825], [91.87203, 26.21753], [91.87551, 26.21624], [91.87569, 26.21617], [91.87673, 26.21579], [91.88073, 26.21671], [91.88212, 26.21703], [91.88284, 26.2172], [91.88672, 26.21809], [91.8913, 26.21914], [91.8915, 26.21988], [91.89195, 26.22154], [91.89198, 26.22166], [91.89211, 26.2217], [91.89331, 26.2221], [91.89394, 26.22231], [91.89632, 26.2231], [91.89785, 26.22349], [91.901, 26.2246], [91.90272, 26.2252], [91.90364, 26.22552], [91.90369, 26.22556], [91.90993, 26.23042], [91.91124, 26.23144], [91.91402, 26.2336], [91.9147, 26.23633], [91.91507, 26.23782], [91.91551, 26.23958], [91.91579, 26.24071], [91.91804, 26.24193], [91.91867, 26.24227], [91.91879, 26.24233], [91.91916, 26.24253], [91.92127, 26.24368], [91.9255, 26.24597], [91.92765, 26.24456], [91.93042, 26.24274], [91.93396, 26.24159], [91.93546, 26.24243], [91.94051, 26.24525], [91.94489, 26.2477], [91.94569, 26.24831], [91.94643, 26.24887], [91.94823, 26.25025], [91.94992, 26.25154], [91.95482, 26.25392], [91.95945, 26.25737], [91.96779, 26.26358], [91.96991, 26.26516], [91.97009, 26.26529], [91.97543, 26.26927], [91.98319, 26.27505], [91.98565, 26.27315], [91.98783, 26.27147], [91.99087, 26.26913], [91.99875, 26.27181], [91.99881, 26.27183], [92.00207, 26.27315], [92.00375, 26.27383], [92.0121, 26.279], [92.0162, 26.2801], [92.01634, 26.27992], [92.0165, 26.27972], [92.01923, 26.27629], [92.0234, 26.27302], [92.02759, 26.2707], [92.02987, 26.27032], [92.03133, 26.27008], [92.03169, 26.27002], [92.03897, 26.27324], [92.04072, 26.27401], [92.04368, 26.27532], [92.0444, 26.27564], [92.04678, 26.27808], [92.04964, 26.28101], [92.05027, 26.28198], [92.05746, 26.29298], [92.06311, 26.30343], [92.06417, 26.30826], [92.06769, 26.31112], [92.06846, 26.31127], [92.0716, 26.31187], [92.07483, 26.31449], [92.07746, 26.32036], [92.08391, 26.33473], [92.08499, 26.33715], [92.09013, 26.33863], [92.09676, 26.34054], [92.10264, 26.34333], [92.10291, 26.34432], [92.10368, 26.34726], [92.10526, 26.35323], [92.1053, 26.35331], [92.10693, 26.35576], [92.10757, 26.35674], [92.11137, 26.35908], [92.11278, 26.36024], [92.11419, 26.3614], [92.11628, 26.36311], [92.12593, 26.37105], [92.12776, 26.37531], [92.12986, 26.38019], [92.13488, 26.38606], [92.13749, 26.3902], [92.13932, 26.3931], [92.14141, 26.39642], [92.14288, 26.39875], [92.14512, 26.40093], [92.14395, 26.40032], [92.14083, 26.39872], [92.13962, 26.3981], [92.13829, 26.39748], [92.13925, 26.39922], [92.14159, 26.40121], [92.14223, 26.40228], [92.14247, 26.40269], [92.14299, 26.4035], [92.1437, 26.4046], [92.14585, 26.40544], [92.14673, 26.4057], [92.14882, 26.40633], [92.14979, 26.40632], [92.15057, 26.40625], [92.15384, 26.40943], [92.15523, 26.41079], [92.15738, 26.41235], [92.15932, 26.41375], [92.15989, 26.41416], [92.16012, 26.41433], [92.16394, 26.41709], [92.16525, 26.41758], [92.17132, 26.41985], [92.17165, 26.41997], [92.17445, 26.42101], [92.18027, 26.42319], [92.1809, 26.42323], [92.18371, 26.42342], [92.18832, 26.42372], [92.20213, 26.42128], [92.20321, 26.42108], [92.20592, 26.41954], [92.20776, 26.41733], [92.20909, 26.41669], [92.21247, 26.41508], [92.21579, 26.41496], [92.21628, 26.41495], [92.22131, 26.41702], [92.22681, 26.42077], [92.22878, 26.4222], [92.23818, 26.43083], [92.23935, 26.43388], [92.23938, 26.43398], [92.24092, 26.43797], [92.24237, 26.44176], [92.24861, 26.44784], [92.25614, 26.45147], [92.25721, 26.45159], [92.26114, 26.452], [92.27007, 26.45172], [92.27278, 26.45164], [92.28097, 26.45408], [92.29009, 26.4597], [92.29247, 26.46193], [92.29336, 26.46277], [92.29502, 26.46437], [92.29567, 26.46463], [92.29724, 26.46519], [92.30595, 26.4673], [92.30715, 26.46784], [92.30761, 26.46712], [92.30877, 26.46198], [92.30932, 26.46021], [92.3081, 26.46008], [92.30657, 26.45934], [92.3049, 26.45806], [92.30295, 26.45662], [92.30092, 26.45469], [92.30103, 26.4544], [92.30132, 26.45361], [92.3014, 26.45119], [92.30153, 26.44807], [92.30099, 26.44672], [92.30074, 26.4461], [92.30063, 26.44618], [92.29952, 26.44618], [92.29771, 26.44587], [92.29365, 26.44463], [92.29227, 26.44429], [92.29164, 26.44414], [92.29085, 26.44369], [92.29044, 26.44334], [92.29012, 26.44275], [92.28983, 26.44244], [92.28973, 26.44235], [92.28963, 26.44158], [92.28992, 26.43968], [92.29007, 26.43823], [92.29034, 26.43802], [92.29053, 26.43787], [92.29212, 26.43524], [92.29189, 26.43366], [92.29194, 26.43217], [92.29291, 26.43074], [92.29297, 26.43075], [92.29438, 26.43098], [92.29831, 26.43102], [92.2999, 26.43081], [92.30065, 26.43071], [92.3009, 26.43068], [92.30227, 26.43051], [92.30243, 26.43142], [92.30383, 26.43945], [92.30401, 26.44049], [92.30427, 26.44195], [92.30484, 26.4452], [92.30498, 26.44599], [92.30566, 26.44672], [92.31021, 26.45158], [92.31251, 26.45337], [92.31598, 26.45608], [92.32643, 26.46347], [92.33671, 26.47086], [92.345, 26.47104], [92.35221, 26.4705], [92.36014, 26.46798], [92.36699, 26.46383], [92.36809, 26.4631], [92.37132, 26.46095], [92.37241, 26.46052], [92.37457, 26.45967], [92.37675, 26.45881], [92.37727, 26.45861], [92.37832, 26.45851], [92.38308, 26.45804], [92.38429, 26.45792], [92.38826, 26.45752], [92.38854, 26.45777], [92.3894, 26.45856], [92.39025, 26.45933], [92.39047, 26.46023], [92.3905, 26.46034], [92.39073, 26.46127], [92.39115, 26.46293], [92.39115, 26.46507], [92.39115, 26.46564], [92.39115, 26.46617], [92.39115, 26.46822], [92.39115, 26.4696], [92.39151, 26.47285], [92.39522, 26.47442], [92.39527, 26.47444], [92.3962, 26.47483], [92.39759, 26.47512], [92.40109, 26.47586], [92.40783, 26.47729], [92.40933, 26.47761], [92.41636, 26.4791], [92.42432, 26.48078], [92.42513, 26.48097], [92.42651, 26.48129], [92.44144, 26.48476]]]}}]}