{"type": "FeatureCollection", "features": [{"type": "Feature", "properties": {"Name": "Dhemaji"}, "geometry": {"type": "Polygon", "coordinates": [[[95.46773, 27.86248], [95.46547, 27.86181], [95.44091, 27.85442], [95.42756, 27.8504], [95.39854553000004, 27.84165707300008], [95.39673, 27.84111], [95.38928676100005, 27.838866082000038], [95.38449, 27.83742], [95.38440354000005, 27.837457461000042], [95.36658, 27.84518], [95.33099, 27.86059], [95.32886, 27.86151], [95.31684, 27.86671], [95.31675765400007, 27.866676471000062], [95.30876, 27.86342], [95.3008, 27.86202], [95.30042, 27.86195], [95.29732, 27.8614], [95.29309996000006, 27.86065417700007], [95.29285, 27.86061], [95.28893596000006, 27.85945180600004], [95.26426, 27.85215], [95.26074, 27.85111], [95.24966, 27.84783], [95.24206, 27.84559], [95.24031, 27.84507], [95.23824335400008, 27.84445542900005], [95.23688, 27.84405], [95.23617, 27.84381], [95.23366, 27.84298], [95.22742, 27.84091], [95.22734, 27.84088], [95.22382, 27.83971], [95.22222, 27.83918], [95.22123, 27.83885], [95.21969, 27.83834], [95.21737, 27.83757], [95.21567, 27.837], [95.21533985900004, 27.83689020500003], [95.20259, 27.83265], [95.19784, 27.83107], [95.19774, 27.83104], [95.19753, 27.83097], [95.19521, 27.8302], [95.19321, 27.82958], [95.19232, 27.82931], [95.19084, 27.82885], [95.18928, 27.82837], [95.18768, 27.82788], [95.18597, 27.82735], [95.18475, 27.82697], [95.183, 27.82643], [95.18088, 27.82578], [95.17606595400008, 27.824301671000057], [95.16564, 27.8211], [95.13914, 27.81295], [95.12839, 27.80963], [95.09273, 27.79864], [95.08671, 27.79679], [95.06602, 27.79041], [95.06504, 27.79011], [95.06183066200003, 27.789121410000064], [95.06056, 27.78873], [95.05804, 27.78795], [95.05659, 27.7875], [95.05483194200008, 27.78695813300004], [95.05367, 27.7866], [95.05224, 27.78616], [95.03917, 27.77366], [95.03849, 27.77339], [95.03637, 27.77256], [95.03355581100004, 27.771467572000063], [95.03163, 27.77072], [95.02715, 27.76988], [95.02539, 27.76955], [95.02493, 27.76946], [95.02161314200004, 27.76883808900004], [95.01997, 27.76853], [95.01957, 27.76846], [95.01555, 27.76924], [95.01394, 27.76955], [95.00946, 27.77041], [95.00604, 27.77107], [95.00056600700003, 27.77212650900003], [94.99848240600005, 27.77252865500003], [94.99832, 27.77256], [94.99149, 27.76897], [94.99019, 27.76829], [94.98751941500007, 27.766885470000034], [94.98749, 27.76687], [94.97296, 27.76331], [94.97253, 27.7632], [94.96064396400004, 27.76025894600008], [94.95324871400004, 27.758424355000045], [94.94935157100008, 27.75747255300007], [94.94716, 27.75693], [94.94223, 27.75571], [94.94169, 27.75558], [94.94069, 27.75533], [94.93539, 27.75403], [94.9353, 27.75401], [94.93436, 27.75377], [94.93345, 27.75355], [94.93148, 27.75307], [94.93051, 27.75283], [94.92840313700003, 27.75216372700004], [94.92817, 27.75209], [94.92617, 27.75146], [94.9162, 27.74829], [94.91608, 27.74825], [94.91596, 27.74821], [94.91396, 27.74757], [94.91154, 27.74681], [94.91127, 27.74672], [94.90662776200008, 27.745249192000074], [94.9042, 27.74448], [94.89952, 27.74299], [94.89269, 27.74083], [94.88443, 27.73821], [94.88268252600005, 27.738557059000073], [94.87582, 27.73992], [94.87444, 27.74019], [94.86643, 27.74177], [94.86522, 27.73894], [94.86396531200006, 27.73599442400007], [94.86394781200005, 27.735953339000048], [94.86297233900007, 27.733663265000075], [94.86266, 27.73293], [94.86221, 27.73188], [94.86154, 27.73029], [94.86131, 27.72974], [94.86123, 27.72955], [94.85635, 27.72835], [94.85409, 27.7278], [94.85393, 27.7271], [94.85369, 27.72604], [94.84934, 27.7071], [94.84928, 27.70684], [94.83987, 27.69971], [94.82832, 27.69505], [94.82176, 27.6924], [94.81949, 27.6925], [94.80835, 27.69298], [94.80073, 27.69331], [94.7981, 27.69166], [94.79771, 27.69142], [94.79456, 27.68945], [94.79149, 27.68508], [94.78908, 27.68417], [94.78478, 27.68255], [94.77849, 27.68019], [94.77696, 27.67962], [94.77221, 27.678], [94.7695, 27.67707], [94.76747, 27.67638], [94.7674, 27.67624], [94.76482, 27.67081], [94.76107, 27.66598], [94.76006, 27.66469], [94.75405, 27.66291], [94.7513, 27.66209], [94.74514, 27.66026], [94.74487, 27.66018], [94.74318, 27.65968], [94.73757, 27.66193], [94.73665, 27.66215], [94.73472, 27.66261], [94.73364, 27.66287], [94.72822, 27.66416], [94.72284, 27.66582], [94.72246, 27.66594], [94.72126, 27.66631], [94.71875, 27.66115], [94.71855, 27.66075], [94.71719, 27.65796], [94.71584, 27.65836], [94.71351, 27.65905], [94.71256, 27.65933], [94.71167, 27.65959], [94.70095, 27.66276], [94.70008, 27.66302], [94.69911, 27.6633], [94.69865, 27.66344], [94.69377, 27.66351], [94.69285, 27.66352], [94.69189, 27.66353], [94.6901, 27.66356], [94.68999, 27.66356], [94.6892, 27.66301], [94.68884, 27.66276], [94.68795, 27.66214], [94.68641, 27.66106], [94.68446, 27.6597], [94.6848, 27.6589], [94.68622, 27.65553], [94.68648, 27.65491], [94.68707, 27.65349], [94.68649, 27.65241], [94.68521, 27.64999], [94.68507, 27.64972], [94.68455, 27.64875], [94.68306, 27.64594], [94.68188, 27.64613], [94.67723, 27.64686], [94.67631, 27.64701], [94.67597, 27.64699], [94.66967, 27.64665], [94.66633, 27.64485], [94.66521, 27.64424], [94.66007, 27.6424], [94.65766, 27.64154], [94.64901, 27.63846], [94.64806, 27.63683], [94.64579, 27.63293], [94.64464, 27.63175], [94.64452, 27.63162], [94.64101, 27.62801], [94.64095, 27.62795], [94.64088, 27.62788], [94.64037, 27.62735], [94.63997, 27.62719], [94.635, 27.62517], [94.62641, 27.6264], [94.62554, 27.62653], [94.62455, 27.62613], [94.62355, 27.62573], [94.61752, 27.62331], [94.61466, 27.62216], [94.61164, 27.62017], [94.60996, 27.61907], [94.60466, 27.61954], [94.59637, 27.61792], [94.58838, 27.61678], [94.58823, 27.61676], [94.58691, 27.61658], [94.58432, 27.61462], [94.58351, 27.61401], [94.58337, 27.61384], [94.58247, 27.61315], [94.5805, 27.61086], [94.57531, 27.60481], [94.57517, 27.6048], [94.57428, 27.6047], [94.57345, 27.60431], [94.57256, 27.6037], [94.57231, 27.60343], [94.56451, 27.60345], [94.56062, 27.60159], [94.55672, 27.59973], [94.55188, 27.59988], [94.54704, 27.60004], [94.5372, 27.5935], [94.53658, 27.59342], [94.53106, 27.59278], [94.52689, 27.5923], [94.52105, 27.58623], [94.51627, 27.58126], [94.51003, 27.5806], [94.50083, 27.57385], [94.49482, 27.57268], [94.49159, 27.57204], [94.49114, 27.57214], [94.48373, 27.57377], [94.47683, 27.56718], [94.47597, 27.56636], [94.47105, 27.56165], [94.46994, 27.56059], [94.4653, 27.55754], [94.46289, 27.55595], [94.46036, 27.55429], [94.45861, 27.55689], [94.45686, 27.55949], [94.45584, 27.56252], [94.4555, 27.56352], [94.45413, 27.56754], [94.45028, 27.57166], [94.44943, 27.57218], [94.44306, 27.5761], [94.44238, 27.57663], [94.43723, 27.58068], [94.43673, 27.58107], [94.43637, 27.58188], [94.43365, 27.58792], [94.43282, 27.58978], [94.43131, 27.59314], [94.43178, 27.59976], [94.42781, 27.59909], [94.42169, 27.59804], [94.40392, 27.5839], [94.39562, 27.58551], [94.38837, 27.58603], [94.38478, 27.58394], [94.38119, 27.58184], [94.3754, 27.57768], [94.37308, 27.57602], [94.36825, 27.5735], [94.36722, 27.57419], [94.36298, 27.577], [94.35648, 27.57415], [94.34964, 27.57624], [94.34589, 27.58139], [94.33895, 27.57784], [94.3299, 27.58522], [94.32457, 27.58401], [94.32056, 27.58691], [94.32018, 27.58688], [94.31327, 27.58651], [94.30924, 27.59245], [94.30253, 27.59677], [94.29892, 27.60118], [94.29379, 27.59727], [94.28938, 27.59141], [94.27694, 27.59027], [94.27337, 27.60041], [94.26285, 27.60707], [94.25507, 27.61068], [94.257, 27.61417], [94.25808, 27.6161], [94.26321, 27.62151], [94.26816, 27.62485], [94.26771, 27.62954], [94.2638, 27.63302], [94.26305, 27.63308], [94.26294, 27.63309], [94.257, 27.63356], [94.25414, 27.63691], [94.25326, 27.63795], [94.2483, 27.63283], [94.23612, 27.62955], [94.22698, 27.61502], [94.21844, 27.60603], [94.21529, 27.60696], [94.21214376600005, 27.607885949000035], [94.21213, 27.60789], [94.21255959805481, 27.60672755820464], [94.21451, 27.60145], [94.21593, 27.60089], [94.22126, 27.5988], [94.22316, 27.59805], [94.22391, 27.59776], [94.22396984500006, 27.59769678300006], [94.22604, 27.59551], [94.22623, 27.59278], [94.22625, 27.59247], [94.22627, 27.59224], [94.22367, 27.5873], [94.22241, 27.5849], [94.2259, 27.5789], [94.2264, 27.57804], [94.22726, 27.57339], [94.22741, 27.5726], [94.22943, 27.5715], [94.23508, 27.56842], [94.2415, 27.5673], [94.24185, 27.56702], [94.24713, 27.5627], [94.25279, 27.55807], [94.25736, 27.55434], [94.25657, 27.54765], [94.25689, 27.54477], [94.25709, 27.54295], [94.2577, 27.53738], [94.2589, 27.53456], [94.26039, 27.53108], [94.26329, 27.52429], [94.26591, 27.5091], [94.26588, 27.50836], [94.27522, 27.50478], [94.27746, 27.50375], [94.27958, 27.50203], [94.28015, 27.50016], [94.2803, 27.48898], [94.28, 27.48091], [94.27988, 27.47751], [94.27915, 27.47271], [94.27845, 27.46817], [94.28072, 27.4631], [94.28101, 27.46245], [94.28202, 27.46019], [94.28207, 27.46013], [94.28302, 27.45796], [94.28353, 27.45733], [94.28433, 27.45633], [94.28441, 27.45623], [94.28555, 27.45482], [94.28588, 27.45442], [94.2886, 27.45105], [94.29049, 27.4487], [94.29607, 27.44502], [94.3013, 27.44063], [94.30289, 27.4393], [94.30449, 27.43796], [94.30554, 27.43708], [94.30583, 27.43594], [94.30597, 27.43482], [94.30635, 27.43185], [94.30602, 27.43111], [94.30504, 27.42892], [94.30503, 27.42873], [94.30483, 27.42614], [94.30482, 27.42598], [94.30468, 27.42406], [94.30448, 27.42121], [94.30457, 27.42084], [94.30517, 27.41848], [94.3068, 27.41208], [94.30684, 27.41191], [94.30624, 27.40902], [94.30552, 27.40425], [94.30462, 27.39825], [94.30476, 27.39618], [94.3046, 27.39586], [94.30194, 27.39059], [94.29868, 27.38664], [94.29463, 27.38539], [94.29287, 27.38485], [94.28687, 27.383], [94.28565, 27.38262], [94.28445, 27.38315], [94.28068, 27.38483], [94.27721, 27.38865], [94.26989, 27.39309], [94.26642, 27.39844], [94.26604, 27.39853], [94.2597, 27.39922], [94.25788, 27.39942], [94.25673, 27.39955], [94.25654, 27.39946], [94.25201, 27.39732], [94.25027, 27.3945], [94.24747, 27.38997], [94.24838, 27.38784], [94.25035, 27.38323], [94.25055, 27.38275], [94.2522, 27.38106], [94.25328, 27.37994], [94.25764, 27.37545], [94.26227, 27.37069], [94.2723, 27.36267], [94.28554, 27.355], [94.2917, 27.35329], [94.2926, 27.35304], [94.29933, 27.35117], [94.30159, 27.34562], [94.30196, 27.34241], [94.30214, 27.34077], [94.30129, 27.33843], [94.29948, 27.3334], [94.29989, 27.33262], [94.30109, 27.33031], [94.30278, 27.32706], [94.30294, 27.32626], [94.30321, 27.32486], [94.3033, 27.3244], [94.3042, 27.31979], [94.30597, 27.32089], [94.30786, 27.32207], [94.3115, 27.32433], [94.31383, 27.32587], [94.31438, 27.32634], [94.3194, 27.33056], [94.32092, 27.32825], [94.32386, 27.32548], [94.32578, 27.32439], [94.32809, 27.32422], [94.33332, 27.32509], [94.33405, 27.3254], [94.33797, 27.32706], [94.33868, 27.32736], [94.33934, 27.32732], [94.34037, 27.32725], [94.34213, 27.3263], [94.34386, 27.32424], [94.34448, 27.32102], [94.34587, 27.32239], [94.34616, 27.32297], [94.34629, 27.32322], [94.34634, 27.32476], [94.34653, 27.32852], [94.34714, 27.32984], [94.34822, 27.33215], [94.34829, 27.33233], [94.3488, 27.33366], [94.34975, 27.33617], [94.34973, 27.33971], [94.35192, 27.33929], [94.35362, 27.33813], [94.35466, 27.33805], [94.35362, 27.34116], [94.35416, 27.34168], [94.35552, 27.34022], [94.35643, 27.33925], [94.35898, 27.33904], [94.35909, 27.33899], [94.36008, 27.33851], [94.36047, 27.33832], [94.3614, 27.33787], [94.36225, 27.33743], [94.36505, 27.33541], [94.36774, 27.33293], [94.37004, 27.33377], [94.37013, 27.33949], [94.37069, 27.34131], [94.37073, 27.34145], [94.37061, 27.34392], [94.36991, 27.34624], [94.37036, 27.34629], [94.37334, 27.34639], [94.37494, 27.34783], [94.37662, 27.34748], [94.37763, 27.34662], [94.38087, 27.34626], [94.38358, 27.35018], [94.38319, 27.3511], [94.38054, 27.35353], [94.38037, 27.35464], [94.3807, 27.3554], [94.38763, 27.35778], [94.39099, 27.35876], [94.39138, 27.35908], [94.39181, 27.35944], [94.39183, 27.35938], [94.39287, 27.35794], [94.39322, 27.35733], [94.39347, 27.35695], [94.39427, 27.35577], [94.39474, 27.35552], [94.39638, 27.35462], [94.39766, 27.35223], [94.39868, 27.35033], [94.39931, 27.34951], [94.40103, 27.34849], [94.40155, 27.34845], [94.40242, 27.34839], [94.40285, 27.34836], [94.40393, 27.34907], [94.40503, 27.35091], [94.40545, 27.35084], [94.40645, 27.3509], [94.40799, 27.35099], [94.41171, 27.35177], [94.41319, 27.34734], [94.41337, 27.34679], [94.41468, 27.34608], [94.41555, 27.3456], [94.41718, 27.34427], [94.41938, 27.34382], [94.42117, 27.34536], [94.42146, 27.34561], [94.42203, 27.3461], [94.42248, 27.34603], [94.42306, 27.34594], [94.42308, 27.34585], [94.42313, 27.34553], [94.42326, 27.34475], [94.42333, 27.34436], [94.42356, 27.34305], [94.42362, 27.34277], [94.42485, 27.34287], [94.42503, 27.34476], [94.42576, 27.34467], [94.42659, 27.34456], [94.42693, 27.34388], [94.42738, 27.34301], [94.42764, 27.34249], [94.42949, 27.34246], [94.42966, 27.33956], [94.42973, 27.33835], [94.43108, 27.33702], [94.43237, 27.33306], [94.43236, 27.3323], [94.43427, 27.33176], [94.43504, 27.33154], [94.43599, 27.33129], [94.43649, 27.33116], [94.43654, 27.33088], [94.43669, 27.33019], [94.43661, 27.32944], [94.43659, 27.32924], [94.43608, 27.3289], [94.43402, 27.32865], [94.43341, 27.32841], [94.4331, 27.32747], [94.4333, 27.32708], [94.43411, 27.32558], [94.43454, 27.32479], [94.43433, 27.32183], [94.43474, 27.32114], [94.43509, 27.32098], [94.43577, 27.32068], [94.43742, 27.32127], [94.44038, 27.3197], [94.4409, 27.31976], [94.44121, 27.32098], [94.44154, 27.32106], [94.44183, 27.32113], [94.44296, 27.3202], [94.44429, 27.31963], [94.44605, 27.32095], [94.44708, 27.32136], [94.44815, 27.32083], [94.44821, 27.3208], [94.44821, 27.31985], [94.4482, 27.31978], [94.44799, 27.31832], [94.44581, 27.31501], [94.4459, 27.31404], [94.4461, 27.31388], [94.44642, 27.31362], [94.44695, 27.31355], [94.44857, 27.31338], [94.45043, 27.31384], [94.45085, 27.31487], [94.45051, 27.31639], [94.45045, 27.31663], [94.45002, 27.32046], [94.44996, 27.32098], [94.45008, 27.3226], [94.45069, 27.32294], [94.45296, 27.3226], [94.45332, 27.32261], [94.45399, 27.32263], [94.45493, 27.32362], [94.45537, 27.32411], [94.45566, 27.32443], [94.45587, 27.32442], [94.45669, 27.32437], [94.45699, 27.32438], [94.4573, 27.32414], [94.45801, 27.32292], [94.45864, 27.32299], [94.45917, 27.32353], [94.4598, 27.32464], [94.4599, 27.32566], [94.46001, 27.32673], [94.46269, 27.33134], [94.46298, 27.33184], [94.46412, 27.33301], [94.46521, 27.33393], [94.4656, 27.33426], [94.46663, 27.335], [94.46809, 27.33514], [94.46975, 27.33475], [94.47119, 27.33361], [94.47139, 27.33226], [94.47138, 27.32981], [94.47137, 27.32907], [94.47137, 27.32872], [94.472, 27.32513], [94.47235, 27.32312], [94.47318, 27.32268], [94.47369, 27.32265], [94.47433, 27.32309], [94.4743, 27.32339], [94.47414, 27.32549], [94.47405, 27.32665], [94.4756, 27.32704], [94.47645, 27.32726], [94.4774, 27.32816], [94.47719, 27.32869], [94.47709, 27.32894], [94.47557, 27.32913], [94.47461, 27.32925], [94.47406, 27.32932], [94.47397, 27.32933], [94.47409, 27.33037], [94.4745, 27.33082], [94.47756, 27.33112], [94.47919, 27.33128], [94.4793, 27.33129], [94.48109, 27.33213], [94.4816, 27.33238], [94.48339, 27.33389], [94.48719, 27.3339], [94.48763, 27.3344], [94.48861, 27.33551], [94.48878, 27.33571], [94.48962, 27.33613], [94.49066, 27.33588], [94.49106, 27.33385], [94.49178, 27.33333], [94.49304, 27.33354], [94.49734, 27.33414], [94.49925, 27.33536], [94.5001, 27.3356], [94.50135, 27.33526], [94.50281, 27.33487], [94.50323, 27.33551], [94.50378, 27.33634], [94.50442, 27.3363], [94.50504, 27.33626], [94.50547, 27.33645], [94.50599, 27.33668], [94.50605, 27.3371], [94.50616, 27.33787], [94.50647, 27.34], [94.50657, 27.34017], [94.5069, 27.34074], [94.50738, 27.34111], [94.50792, 27.34153], [94.50989, 27.34306], [94.5099, 27.34382], [94.50975, 27.3465], [94.50974, 27.34667], [94.50973, 27.34679], [94.50977, 27.34699], [94.50977, 27.34736], [94.50987, 27.34879], [94.51052, 27.34941], [94.51259, 27.35141], [94.51321, 27.35201], [94.51377, 27.35311], [94.5149, 27.35157], [94.51521, 27.35115], [94.51742, 27.34813], [94.51749, 27.34804], [94.51815, 27.34632], [94.51884, 27.34453], [94.51895, 27.34425], [94.51888, 27.34311], [94.51876, 27.34083], [94.52296, 27.3407], [94.52329, 27.34066], [94.52436, 27.34051], [94.52721, 27.33926], [94.52535, 27.3353], [94.52326, 27.33255], [94.52298, 27.33182], [94.51948, 27.33471], [94.51856, 27.3351], [94.51805, 27.33532], [94.5178, 27.33542], [94.51544, 27.33556], [94.51398, 27.33554], [94.51103, 27.3338], [94.5083, 27.33219], [94.50909, 27.33102], [94.50994, 27.32975], [94.50997, 27.32971], [94.51311, 27.32534], [94.51276, 27.32424], [94.51187, 27.32336], [94.51057, 27.32209], [94.5103, 27.32176], [94.50721, 27.31822], [94.50812, 27.31645], [94.50973, 27.31334], [94.51044, 27.31197], [94.51066, 27.30995], [94.51076, 27.30908], [94.51089, 27.30784], [94.51101, 27.30671], [94.51175, 27.30442], [94.5123, 27.30293], [94.51345, 27.2998], [94.51363, 27.2992], [94.51507, 27.29434], [94.5131, 27.28204], [94.5126, 27.2789], [94.51266, 27.2777], [94.51269, 27.27705], [94.5129, 27.27495], [94.51289, 27.27319], [94.51297, 27.27158], [94.51334, 27.26457], [94.51358, 27.25993], [94.51373, 27.25736], [94.51482, 27.24835], [94.51485, 27.24809], [94.51505, 27.24646], [94.51526, 27.24281], [94.51532, 27.24183], [94.51791, 27.23754], [94.51803, 27.23734], [94.5198, 27.2351], [94.52465, 27.23155], [94.52559, 27.23076], [94.52594, 27.23047], [94.52873, 27.22811], [94.52996, 27.22707], [94.53972, 27.22361], [94.54274, 27.22254], [94.54291, 27.22264], [94.54867, 27.22588], [94.55602, 27.23007], [94.55774, 27.23104], [94.56059, 27.23658], [94.56521, 27.24488], [94.56677, 27.25724], [94.57062, 27.26061], [94.57513, 27.26117], [94.58033, 27.26112], [94.58624, 27.26291], [94.58937, 27.26411], [94.58945, 27.26979], [94.59341, 27.27433], [94.60082, 27.28662], [94.60525, 27.29307], [94.60877, 27.2982], [94.61388, 27.30564], [94.61227, 27.30825], [94.61361, 27.31205], [94.61455, 27.31474], [94.61108, 27.32098], [94.61239, 27.32413], [94.61228, 27.32454], [94.61191, 27.32571], [94.61168, 27.32657], [94.61174, 27.32716], [94.61187, 27.32742], [94.61212, 27.32801], [94.61214, 27.3283], [94.61233, 27.3288], [94.61282, 27.32945], [94.61368, 27.32994], [94.6146, 27.33041], [94.61505, 27.33051], [94.61522, 27.33081], [94.61626, 27.33112], [94.61824, 27.33171], [94.62087, 27.33247], [94.63341, 27.32036], [94.63645, 27.3199], [94.64082, 27.32546], [94.63835, 27.33133], [94.63973, 27.33522], [94.64053, 27.33748], [94.64361, 27.34053], [94.64448, 27.34088], [94.64507, 27.34112], [94.6547, 27.34499], [94.66504, 27.34914], [94.66698, 27.35699], [94.66682, 27.36332], [94.66334, 27.3713], [94.66339, 27.37194], [94.66392, 27.37637], [94.66853, 27.37733], [94.67129, 27.3779], [94.67261, 27.37836], [94.68644, 27.38321], [94.68751, 27.38486], [94.69073, 27.38974], [94.68861, 27.40005], [94.68759, 27.40997], [94.69175, 27.41897], [94.69666, 27.42148], [94.69914, 27.42274], [94.70814, 27.42442], [94.70965, 27.4247], [94.71771, 27.4262], [94.72035, 27.42669], [94.72104, 27.42682], [94.72149, 27.4269], [94.72167, 27.42693], [94.72176, 27.42715], [94.72195, 27.42758], [94.72561, 27.43591], [94.72649, 27.4379], [94.7267, 27.43838], [94.72702, 27.43911], [94.72736, 27.43987], [94.72744, 27.4399], [94.72795, 27.44009], [94.72818, 27.44017], [94.72836, 27.44024], [94.73138, 27.44134], [94.73452, 27.44036], [94.73821, 27.43906], [94.73967, 27.43779], [94.74105, 27.43659], [94.74156, 27.43614], [94.74521, 27.43506], [94.75097, 27.44483], [94.75298, 27.45449], [94.7534, 27.4565], [94.7582, 27.46338], [94.75864, 27.46401], [94.76176, 27.47098], [94.77315, 27.48299], [94.77326, 27.48303], [94.7782, 27.48475], [94.78548, 27.48271], [94.79067, 27.48213], [94.79408, 27.48174], [94.79813, 27.4905], [94.81065, 27.49901], [94.8201, 27.50542], [94.81698, 27.51496], [94.82139, 27.51802], [94.82401, 27.51985], [94.83777, 27.52941], [94.84149, 27.53199], [94.85275, 27.54497], [94.87118, 27.55677], [94.87354, 27.56082], [94.881, 27.57363], [94.89522, 27.58442], [94.90611, 27.58525], [94.90929, 27.58341], [94.92068, 27.58873], [94.94118, 27.59252], [94.96587, 27.59442], [94.96627, 27.59442], [94.98562, 27.59442], [94.99245, 27.59556], [95.00992, 27.60392], [95.01557, 27.60852], [95.02017, 27.61227], [95.05321, 27.62404], [95.07979, 27.6286], [95.11853, 27.63316], [95.11968, 27.63313], [95.14435, 27.6324], [95.15957, 27.63837], [95.17141, 27.63771], [95.17815, 27.63733], [95.20853, 27.64417], [95.22182, 27.64873], [95.23891, 27.66202], [95.27156, 27.69012], [95.29853, 27.70759], [95.36232, 27.75012], [95.39768, 27.7827], [95.40106, 27.78582], [95.41566, 27.79712], [95.41593, 27.79733], [95.4246, 27.80404], [95.42846, 27.80709], [95.45346, 27.82683], [95.45878, 27.83442], [95.46106, 27.84581], [95.46773, 27.86248]]]}}]}