{"type": "FeatureCollection", "features": [{"type": "Feature", "properties": {"Name": "Dhubri"}, "geometry": {"type": "Polygon", "coordinates": [[[90.37836, 26.18166], [90.37844, 26.18226], [90.37934, 26.18891], [90.3796, 26.19449], [90.37961, 26.19461], [90.37977, 26.19801], [90.37978, 26.19827], [90.38017, 26.20663], [90.37905, 26.21338], [90.37899, 26.21782], [90.37896, 26.22012], [90.37894, 26.22156], [90.38047, 26.22355], [90.38087, 26.22408], [90.38459, 26.22572], [90.38584, 26.22558], [90.39019, 26.22511], [90.39122, 26.22458], [90.39557, 26.22236], [90.39561, 26.22232], [90.39602, 26.22192], [90.39741, 26.22056], [90.40129, 26.22082], [90.40277, 26.22184], [90.40567, 26.22384], [90.40616, 26.22418], [90.41694, 26.23429], [90.41724, 26.23458], [90.42116, 26.23651], [90.42505, 26.24054], [90.4289, 26.24452], [90.43384, 26.24401], [90.43959, 26.24341], [90.44145, 26.24431], [90.44164, 26.24499], [90.44738, 26.24462], [90.45217, 26.24429], [90.46016, 26.24444], [90.45989, 26.24585], [90.45857, 26.24709], [90.45753, 26.24832], [90.45614, 26.25002], [90.4566, 26.25186], [90.45773, 26.25407], [90.45866, 26.25423], [90.46131, 26.25511], [90.46369, 26.25568], [90.4662, 26.25628], [90.46881, 26.25675], [90.47015, 26.25699], [90.47541, 26.25895], [90.47593, 26.25915], [90.47715, 26.26043], [90.47871, 26.26206], [90.47942, 26.26281], [90.48065, 26.26432], [90.48185, 26.26486], [90.48177, 26.26503], [90.48245, 26.26593], [90.48323, 26.26655], [90.48346, 26.26674], [90.48407, 26.26723], [90.48552, 26.26824], [90.48588, 26.26847], [90.48931, 26.27065], [90.48935, 26.27081], [90.48955, 26.27165], [90.48864, 26.27265], [90.48633, 26.27586], [90.48605, 26.27602], [90.48392, 26.2763], [90.48208, 26.27655], [90.4814, 26.27684], [90.47863, 26.27804], [90.47846, 26.2784], [90.47833, 26.27867], [90.47803, 26.27935], [90.47778, 26.28154], [90.47771, 26.28212], [90.47796, 26.28617], [90.47771, 26.28719], [90.47746, 26.28819], [90.47847, 26.28851], [90.48188, 26.2896], [90.48223, 26.28989], [90.48278, 26.29034], [90.48306, 26.29241], [90.48266, 26.29616], [90.48163, 26.298], [90.48087, 26.29936], [90.48079, 26.29951], [90.48042, 26.30168], [90.48037, 26.30199], [90.48043, 26.30213], [90.48046, 26.30221], [90.48103, 26.30355], [90.48169, 26.30511], [90.48175, 26.30526], [90.48156, 26.30574], [90.48064, 26.30821], [90.47943, 26.31], [90.47914, 26.31043], [90.47685, 26.31379], [90.47397, 26.31803], [90.47376, 26.31834], [90.47251, 26.32017], [90.47229, 26.32048], [90.47168, 26.3214], [90.47061, 26.32391], [90.46957, 26.32636], [90.47233, 26.32761], [90.4731, 26.32837], [90.47607, 26.33127], [90.47506, 26.33254], [90.47277, 26.33313], [90.46951, 26.33203], [90.46835, 26.33164], [90.46784, 26.33147], [90.46445, 26.33032], [90.4631, 26.33235], [90.46273, 26.33286], [90.45931, 26.3379], [90.45803, 26.33855], [90.45723, 26.33894], [90.45801, 26.34042], [90.45834, 26.34105], [90.45695, 26.34181], [90.4556, 26.34198], [90.45502, 26.34015], [90.45353, 26.33971], [90.45336, 26.33966], [90.45192, 26.33986], [90.45171, 26.33989], [90.44923, 26.34121], [90.4467, 26.34117], [90.44676, 26.34098], [90.44708, 26.33988], [90.44709, 26.3397], [90.44719, 26.33824], [90.44724, 26.33753], [90.44728, 26.33689], [90.44741, 26.33454], [90.4476, 26.33403], [90.44707, 26.33392], [90.44569, 26.33323], [90.4439, 26.33233], [90.44317, 26.33295], [90.44096, 26.33401], [90.44, 26.33523], [90.43963, 26.33754], [90.43911, 26.33863], [90.43807, 26.34047], [90.43749, 26.34306], [90.43521, 26.34382], [90.43574, 26.34356], [90.43517, 26.34334], [90.4325, 26.34271], [90.43101, 26.34305], [90.42817, 26.34371], [90.42796, 26.34376], [90.42699, 26.34356], [90.42576, 26.3433], [90.42355, 26.34237], [90.42259, 26.34219], [90.42143, 26.34198], [90.42016, 26.34216], [90.41945, 26.34484], [90.4195, 26.3454], [90.41975, 26.34829], [90.41993, 26.34953], [90.42004, 26.35024], [90.41986, 26.35164], [90.41923, 26.3524], [90.41881, 26.35337], [90.41956, 26.35697], [90.41959, 26.35905], [90.41954, 26.35963], [90.41941, 26.36101], [90.41924, 26.36288], [90.41635, 26.36244], [90.41222, 26.36272], [90.41074, 26.36282], [90.40778, 26.36303], [90.4043, 26.36327], [90.40409, 26.36326], [90.40351, 26.36322], [90.39888, 26.36291], [90.39886, 26.36288], [90.3976, 26.36148], [90.39744, 26.3613], [90.39645, 26.36019], [90.39612, 26.35847], [90.39533, 26.35444], [90.3953, 26.35337], [90.39522, 26.35075], [90.39539, 26.34823], [90.3958, 26.34753], [90.39611, 26.347], [90.39654, 26.34627], [90.3973, 26.34499], [90.39734, 26.34493], [90.398, 26.34383], [90.39815, 26.34357], [90.39907, 26.34229], [90.3997, 26.3414], [90.39936, 26.34104], [90.39916, 26.34093], [90.39822, 26.34041], [90.39792, 26.34025], [90.39365, 26.338], [90.39216, 26.33722], [90.38861, 26.33681], [90.38619, 26.33797], [90.38566, 26.33711], [90.3844, 26.33577], [90.38415, 26.3355], [90.3817, 26.33258], [90.38144, 26.33187], [90.38063, 26.32965], [90.37937, 26.32914], [90.37798, 26.32801], [90.37604, 26.32708], [90.37557, 26.32636], [90.37513, 26.32682], [90.3743, 26.33115], [90.374, 26.33268], [90.37365, 26.33276], [90.37036, 26.33232], [90.3681, 26.3323], [90.36614, 26.33228], [90.3655, 26.33227], [90.36428, 26.3322], [90.36426, 26.33246], [90.36316, 26.33377], [90.35824, 26.33698], [90.35334, 26.34092], [90.35358, 26.34174], [90.35383, 26.34182], [90.3546, 26.34205], [90.35553, 26.34202], [90.35719, 26.34197], [90.35829, 26.34198], [90.35902, 26.34199], [90.35885, 26.34293], [90.3585, 26.34491], [90.35865, 26.34849], [90.3588, 26.35021], [90.35671, 26.35058], [90.35628, 26.35066], [90.35411, 26.35107], [90.35242, 26.35148], [90.3514, 26.35137], [90.35027, 26.35208], [90.35015, 26.35333], [90.3497, 26.35384], [90.34912, 26.35488], [90.34934, 26.35623], [90.34934, 26.35747], [90.34888, 26.35848], [90.3484, 26.35899], [90.34743, 26.36002], [90.34636, 26.36417], [90.34607, 26.36459], [90.34502, 26.36609], [90.34264, 26.36713], [90.34022, 26.36766], [90.33919, 26.36835], [90.33834, 26.3696], [90.3362, 26.37124], [90.3352, 26.3722], [90.3347, 26.37385], [90.33415, 26.37707], [90.33424, 26.37988], [90.33524, 26.38086], [90.33668, 26.38133], [90.33931, 26.38024], [90.34601, 26.37696], [90.34665, 26.37696], [90.34739, 26.37697], [90.34854, 26.37789], [90.34969, 26.37891], [90.35073, 26.3791], [90.3529, 26.37902], [90.35382, 26.37903], [90.3547, 26.37831], [90.35558, 26.37369], [90.35577, 26.37326], [90.35631, 26.37392], [90.35684, 26.37457], [90.35805, 26.37691], [90.35779, 26.37887], [90.35735, 26.37937], [90.35604, 26.38087], [90.35324, 26.38283], [90.35039, 26.38562], [90.35035, 26.3885], [90.35178, 26.39102], [90.35244, 26.39162], [90.35045, 26.39253], [90.35002, 26.39272], [90.3464, 26.39493], [90.3464, 26.39664], [90.34688, 26.39861], [90.34936, 26.40041], [90.35108, 26.40195], [90.35198, 26.40411], [90.35203, 26.40423], [90.35225, 26.40489], [90.3533, 26.40797], [90.35341, 26.40831], [90.35517, 26.41146], [90.35597, 26.4129], [90.35675, 26.41328], [90.35427, 26.41348], [90.35125, 26.41373], [90.35076, 26.41377], [90.34169, 26.41326], [90.3396, 26.4126], [90.33501, 26.41115], [90.33491, 26.41112], [90.33294, 26.40964], [90.3324, 26.40924], [90.33162, 26.40273], [90.33152, 26.40192], [90.3315, 26.40178], [90.33129, 26.40002], [90.33097, 26.39735], [90.33093, 26.39701], [90.33091, 26.39682], [90.33086, 26.39641], [90.3313, 26.39575], [90.33217, 26.39445], [90.33228, 26.39428], [90.33487, 26.3904], [90.33514, 26.38941], [90.33566, 26.3875], [90.33579, 26.38699], [90.33521, 26.38631], [90.33337, 26.38679], [90.32924, 26.38871], [90.32294, 26.38938], [90.32178, 26.3895], [90.32166, 26.38951], [90.31945, 26.38867], [90.31839, 26.38827], [90.31568, 26.38523], [90.31551, 26.38483], [90.31392, 26.38099], [90.31477, 26.37762], [90.31496, 26.37689], [90.31754, 26.37422], [90.31784, 26.37391], [90.3236, 26.36796], [90.32332, 26.3659], [90.32105, 26.3632], [90.32233, 26.36262], [90.32541, 26.36358], [90.3261, 26.36414], [90.32765, 26.36541], [90.32995, 26.36585], [90.33168, 26.36561], [90.33166, 26.36446], [90.32208, 26.35652], [90.31983, 26.35544], [90.31892, 26.35303], [90.31416, 26.34946], [90.31261, 26.34829], [90.31187, 26.35049], [90.30824, 26.34538], [90.30394, 26.34289], [90.30319, 26.34168], [90.30327, 26.3405], [90.30287, 26.33814], [90.30309, 26.33626], [90.30414, 26.33575], [90.30208, 26.33546], [90.29983, 26.33567], [90.29957, 26.33626], [90.29819, 26.33663], [90.29759, 26.33679], [90.29256, 26.33763], [90.28863, 26.33653], [90.29109, 26.33346], [90.2915, 26.3311], [90.29066, 26.32897], [90.28947, 26.32599], [90.28824, 26.32335], [90.28625, 26.32175], [90.28566, 26.32152], [90.28158, 26.31999], [90.27651, 26.32331], [90.27597, 26.32544], [90.27541, 26.32767], [90.27535, 26.32792], [90.27514, 26.3281], [90.27408, 26.32902], [90.27193, 26.33015], [90.27119, 26.33054], [90.27098, 26.33065], [90.27021, 26.33105], [90.26996, 26.33118], [90.26842, 26.33165], [90.26557, 26.33253], [90.26051, 26.33408], [90.25928, 26.33446], [90.25712, 26.33479], [90.25654, 26.33488], [90.25637, 26.33403], [90.25574, 26.33087], [90.25492, 26.32954], [90.25475, 26.32927], [90.25399, 26.32805], [90.25363, 26.32781], [90.25277, 26.32722], [90.25202, 26.3267], [90.25148, 26.32634], [90.25107, 26.32632], [90.25027, 26.32629], [90.2485, 26.32762], [90.24806, 26.32767], [90.24596, 26.3279], [90.24467, 26.32804], [90.24461, 26.32805], [90.24299, 26.32541], [90.23972, 26.32393], [90.23864, 26.32483], [90.23823, 26.32517], [90.23663, 26.32651], [90.23361, 26.32903], [90.23215, 26.33025], [90.23069, 26.33147], [90.22987, 26.33216], [90.22923, 26.33269], [90.22446, 26.33008], [90.22422, 26.32995], [90.22199, 26.32969], [90.22135, 26.32962], [90.22045, 26.32954], [90.21977, 26.33182], [90.22025, 26.33264], [90.2238, 26.33923], [90.22521, 26.34109], [90.2251, 26.34125], [90.22457, 26.34203], [90.22383, 26.34298], [90.22333, 26.34362], [90.22198, 26.34414], [90.2215, 26.34428], [90.21838, 26.34516], [90.2177, 26.34535], [90.21717, 26.34684], [90.21576, 26.34877], [90.21523, 26.34919], [90.21273, 26.35093], [90.21103, 26.35164], [90.21056, 26.35181], [90.21008, 26.3517], [90.20992, 26.35213], [90.20962, 26.35318], [90.20899, 26.35412], [90.2088, 26.35538], [90.20964, 26.35853], [90.2102, 26.36154], [90.2098, 26.3626], [90.20703, 26.35883], [90.20359, 26.35704], [90.1962, 26.3532], [90.19328, 26.34937], [90.19309, 26.34912], [90.19147, 26.347], [90.19026, 26.3454], [90.18837, 26.3454], [90.18257, 26.34539], [90.18037, 26.34539], [90.17641, 26.34308], [90.17552, 26.34256], [90.17531, 26.34244], [90.17327, 26.34256], [90.17308, 26.34275], [90.17094, 26.34499], [90.17017, 26.3458], [90.16737, 26.34719], [90.16227, 26.34973], [90.1557, 26.353], [90.1534, 26.35314], [90.14916, 26.35175], [90.14777, 26.35129], [90.14253, 26.34958], [90.14203, 26.34934], [90.13708, 26.34694], [90.13634, 26.34658], [90.13153, 26.34424], [90.13114, 26.34405], [90.12952, 26.34326], [90.12836, 26.3427], [90.12766, 26.34236], [90.12682, 26.34196], [90.12622, 26.34167], [90.12139, 26.33933], [90.11965, 26.33803], [90.1164, 26.3356], [90.1162, 26.33545], [90.11548, 26.33491], [90.11441, 26.33411], [90.11345, 26.33339], [90.11309, 26.33312], [90.11253, 26.3327], [90.11207, 26.33236], [90.11186, 26.33221], [90.11068, 26.33132], [90.11024, 26.33099], [90.10823, 26.32949], [90.10777, 26.32919], [90.10605, 26.32804], [90.10473, 26.32716], [90.10341, 26.32628], [90.10274, 26.32584], [90.10229, 26.32554], [90.10146, 26.32499], [90.10255, 26.32449], [90.10349, 26.32428], [90.10382, 26.3242], [90.10433, 26.32408], [90.10572, 26.3233], [90.10591, 26.32314], [90.10734, 26.32194], [90.1075, 26.31991], [90.10753, 26.31948], [90.10811, 26.31677], [90.10886, 26.31621], [90.1093, 26.31563], [90.10973, 26.31506], [90.10991, 26.31482], [90.11078, 26.31365], [90.11095, 26.31307], [90.11134, 26.31175], [90.11706, 26.31235], [90.11798, 26.31313], [90.11932, 26.31274], [90.12025, 26.31247], [90.12202, 26.31195], [90.12255, 26.3119], [90.12272, 26.31188], [90.12257, 26.31143], [90.12254, 26.31053], [90.123, 26.3094], [90.12376, 26.30841], [90.12356, 26.30582], [90.1235, 26.30502], [90.12382, 26.30378], [90.12444, 26.3014], [90.12483, 26.29993], [90.12684, 26.29709], [90.12795, 26.29526], [90.13101, 26.29245], [90.13332, 26.28904], [90.13588, 26.28616], [90.13692, 26.28601], [90.13362, 26.28305], [90.12918, 26.278], [90.12845, 26.27623], [90.12839, 26.27586], [90.12807, 26.27406], [90.12874, 26.27207], [90.13034, 26.26998], [90.13042, 26.26988], [90.13069, 26.26954], [90.13109, 26.26904], [90.13138, 26.26867], [90.13276, 26.26724], [90.13359, 26.2678], [90.13491, 26.26811], [90.13635, 26.26808], [90.13653, 26.26808], [90.13762, 26.26806], [90.13884, 26.26702], [90.13972, 26.26627], [90.13976, 26.26624], [90.14037, 26.26575], [90.14273, 26.26388], [90.14264, 26.26372], [90.1425, 26.26193], [90.14245, 26.26129], [90.14014, 26.25992], [90.13938, 26.25947], [90.13543, 26.2579], [90.13333, 26.25663], [90.13269, 26.25624], [90.13204, 26.25469], [90.13313, 26.25437], [90.13388, 26.25364], [90.13499, 26.25255], [90.13565, 26.25084], [90.13566, 26.24955], [90.13566, 26.24948], [90.13566, 26.24858], [90.13549, 26.2462], [90.13541, 26.24514], [90.1355, 26.24466], [90.13597, 26.24224], [90.13636, 26.24182], [90.13817, 26.23989], [90.13911, 26.23937], [90.13927, 26.23937], [90.14148, 26.2394], [90.14182, 26.2394], [90.14333, 26.23886], [90.14362, 26.23876], [90.14409, 26.23842], [90.14521, 26.23759], [90.14767, 26.23524], [90.14902, 26.23368], [90.14911, 26.23358], [90.14967, 26.23293], [90.14936, 26.23279], [90.14877, 26.23279], [90.14851, 26.23279], [90.14746, 26.23317], [90.14669, 26.234], [90.14661, 26.23409], [90.14664, 26.23401], [90.14725, 26.23238], [90.1482, 26.23173], [90.14896, 26.2312], [90.14905, 26.22973], [90.15202, 26.22803], [90.15223, 26.22791], [90.15292, 26.2271], [90.15306, 26.22694], [90.15256, 26.22676], [90.15165, 26.22644], [90.15146, 26.22578], [90.15262, 26.22408], [90.15393, 26.22229], [90.15417, 26.22197], [90.15463, 26.21972], [90.15459, 26.21959], [90.15664, 26.2192], [90.1587, 26.21933], [90.15875, 26.21963], [90.15988, 26.21881], [90.16007, 26.21852], [90.15708, 26.2152], [90.15704, 26.21515], [90.15455, 26.21239], [90.15354, 26.21127], [90.15329, 26.21099], [90.15253, 26.21014], [90.15178, 26.20931], [90.15027, 26.20763], [90.14829, 26.20636], [90.14569, 26.2047], [90.14385, 26.20352], [90.14285, 26.20288], [90.14171, 26.20215], [90.13927, 26.20059], [90.13908, 26.20047], [90.13701, 26.19914], [90.13573, 26.19832], [90.13291, 26.19652], [90.13136, 26.19619], [90.13087, 26.19607], [90.12977, 26.19587], [90.12434, 26.19469], [90.10722, 26.19096], [90.10409, 26.19079], [90.10096, 26.19062], [90.10072, 26.19061], [90.09532, 26.19032], [90.09064, 26.19006], [90.0893, 26.18999], [90.08847, 26.18995], [90.08721, 26.18988], [90.08523, 26.18977], [90.08153, 26.18957], [90.07103, 26.18913], [90.06729, 26.18898], [90.04969, 26.18825], [90.04996, 26.1892], [90.05036, 26.19068], [90.05142, 26.19225], [90.05175, 26.19273], [90.05248, 26.19381], [90.05292, 26.19601], [90.05524, 26.20087], [90.05546, 26.20133], [90.05812, 26.20249], [90.05813, 26.20402], [90.05787, 26.20565], [90.05786, 26.20576], [90.05582, 26.20724], [90.0549, 26.2075], [90.05315, 26.20799], [90.05077, 26.20673], [90.04627, 26.20435], [90.04161, 26.20174], [90.03554, 26.20076], [90.03538, 26.20073], [90.03291, 26.19968], [90.02846, 26.19758], [90.02773, 26.19755], [90.02617, 26.1975], [90.02395, 26.19811], [90.02252, 26.19915], [90.02702, 26.20311], [90.02751, 26.20355], [90.03137, 26.207], [90.0357, 26.20962], [90.03904, 26.21166], [90.03699, 26.21229], [90.03284, 26.21417], [90.0328, 26.21422], [90.03272, 26.21431], [90.03127, 26.21612], [90.03071, 26.21794], [90.03028, 26.21937], [90.03027, 26.2194], [90.03026, 26.21969], [90.03009, 26.22667], [90.03001, 26.22927], [90.03001, 26.22941], [90.02911, 26.23203], [90.02762, 26.23354], [90.02408, 26.23502], [90.02366, 26.23505], [90.02199, 26.23517], [90.02149, 26.2352], [90.01936, 26.23477], [90.01901, 26.2347], [90.01879, 26.23456], [90.0169, 26.23337], [90.01685, 26.23334], [90.01501, 26.23218], [90.00906, 26.22934], [90.00464, 26.22723], [90.00218, 26.22618], [89.9978, 26.22432], [89.9956, 26.22383], [89.99428, 26.22353], [89.99248, 26.22409], [89.99236, 26.22413], [89.99104, 26.22454], [89.98486, 26.22526], [89.98319, 26.22545], [89.9808, 26.22573], [89.97235, 26.22269], [89.96969, 26.22249], [89.96591, 26.2222], [89.96196, 26.2227], [89.95967, 26.22187], [89.95847, 26.22142], [89.94737, 26.21768], [89.9429, 26.21616], [89.93904, 26.21556], [89.93871, 26.21263], [89.93775, 26.20929], [89.93427, 26.20467], [89.9298, 26.1992], [89.92604, 26.1946], [89.92345, 26.19403], [89.92197, 26.19409], [89.91975, 26.19508], [89.91958, 26.19516], [89.92003, 26.19542], [89.92127, 26.19793], [89.92058, 26.20062], [89.92022, 26.20205], [89.91879, 26.20499], [89.91707, 26.20763], [89.91449, 26.20879], [89.911, 26.20773], [89.90992, 26.2071], [89.91034, 26.20428], [89.91039, 26.20381], [89.90893, 26.20211], [89.90822, 26.20016], [89.90772, 26.1978], [89.9075, 26.19675], [89.90773, 26.19312], [89.90782, 26.19165], [89.90788, 26.19069], [89.90789, 26.19051], [89.90811, 26.18703], [89.90842, 26.18594], [89.90897, 26.18398], [89.90898, 26.18395], [89.91033, 26.17918], [89.91354, 26.167], [89.91562, 26.15829], [89.91628, 26.1555], [89.91764, 26.1535], [89.91775, 26.15334], [89.91673, 26.15349], [89.91016, 26.15448], [89.90307, 26.15555], [89.89497, 26.15793], [89.89288, 26.15854], [89.89126, 26.15902], [89.8851, 26.16082], [89.87848, 26.16275], [89.8746, 26.16388], [89.87314, 26.16543], [89.8721, 26.16637], [89.87167, 26.1669], [89.86906, 26.16977], [89.86349, 26.17569], [89.85863, 26.1868], [89.85859, 26.18698], [89.85803, 26.18964], [89.85748, 26.19224], [89.85687, 26.19512], [89.85599, 26.19931], [89.85585, 26.19999], [89.85581, 26.2009], [89.85578, 26.20154], [89.85547, 26.2081], [89.85516, 26.21457], [89.85374, 26.2185], [89.85263, 26.2216], [89.85142, 26.22495], [89.85256, 26.22643], [89.85262, 26.22716], [89.85264, 26.22743], [89.85049, 26.2307], [89.85053, 26.23097], [89.85057, 26.23119], [89.851, 26.23412], [89.851, 26.23593], [89.851, 26.23597], [89.84995, 26.2393], [89.84989, 26.23941], [89.84767, 26.2434], [89.84684, 26.2449], [89.84684, 26.24518], [89.84683, 26.24701], [89.8488, 26.24968], [89.84829, 26.25069], [89.84739, 26.25246], [89.84879, 26.25885], [89.84907, 26.26013], [89.85066, 26.26353], [89.85172, 26.2658], [89.85268, 26.26488], [89.85428, 26.26335], [89.8543, 26.26328], [89.85722, 26.26266], [89.85837, 26.26252], [89.85905, 26.26243], [89.85971, 26.26442], [89.86026, 26.26608], [89.86125, 26.26904], [89.86164, 26.27022], [89.86267, 26.2733], [89.86283, 26.27377], [89.86402, 26.27734], [89.8651, 26.2806], [89.86567, 26.28249], [89.86647, 26.28512], [89.86686, 26.28641], [89.86932, 26.29452], [89.87147, 26.30162], [89.87595, 26.30203], [89.87811, 26.30223], [89.87892, 26.30263], [89.88123, 26.30378], [89.88285, 26.30458], [89.88319, 26.30495], [89.8845, 26.30637], [89.88545, 26.3074], [89.88587, 26.30786], [89.88639, 26.30842], [89.88767, 26.30926], [89.88782, 26.31107], [89.88815, 26.3149], [89.88847, 26.31874], [89.88854, 26.31953], [89.88973, 26.32199], [89.89213, 26.32697], [89.89308, 26.32893], [89.89342, 26.32963], [89.89394, 26.33071], [89.89453, 26.33184], [89.89539, 26.33347], [89.89686, 26.33627], [89.89692, 26.33638], [89.8992, 26.34073], [89.90074, 26.34366], [89.90077, 26.34371], [89.90097, 26.3441], [89.90151, 26.34513], [89.90164, 26.34613], [89.90192, 26.34825], [89.902, 26.34888], [89.90233, 26.3514], [89.90257, 26.35323], [89.90263, 26.35368], [89.90294, 26.35603], [89.903, 26.35652], [89.90325, 26.35842], [89.90368, 26.36171], [89.90333, 26.37645], [89.90332, 26.37686], [89.90284, 26.37736], [89.90094, 26.37934], [89.8965, 26.38396], [89.89285, 26.38776], [89.88644, 26.39443], [89.88601, 26.39488], [89.88546, 26.39555], [89.88242, 26.39924], [89.88148, 26.40038], [89.88075, 26.40126], [89.87762, 26.40505], [89.87433, 26.40904], [89.87211, 26.41172], [89.87178, 26.41212], [89.87122, 26.4128], [89.86473, 26.42066], [89.8586, 26.42809], [89.85806, 26.42874], [89.85711, 26.42466], [89.85605, 26.42391], [89.85427, 26.42264], [89.85386, 26.42235], [89.85378, 26.42233], [89.85386, 26.42212], [89.85384685000008, 26.421945294000068], [89.85379, 26.42119], [89.85365, 26.41952], [89.85362, 26.41908], [89.8527, 26.41826], [89.85247, 26.41808], [89.85391, 26.41431], [89.85183, 26.41264], [89.85139, 26.41229], [89.84902, 26.41038], [89.84895, 26.41032], [89.84458, 26.41086], [89.84105605200006, 26.41130262100006], [89.84044, 26.41138], [89.83948, 26.4117], [89.83826259300008, 26.412112680000064], [89.83771, 26.4123], [89.83741, 26.4124], [89.83733, 26.41221], [89.8367, 26.41075], [89.83668, 26.41069], [89.83657, 26.41043], [89.83558, 26.40811], [89.83444, 26.40543], [89.83357, 26.40339], [89.83244, 26.39987], [89.83138, 26.39658], [89.83207, 26.39359], [89.83471, 26.39031], [89.83524, 26.39035], [89.84065, 26.3907], [89.844, 26.39091], [89.84423, 26.39092], [89.84446, 26.39094], [89.84483, 26.39125], [89.8467, 26.39286], [89.84856, 26.39446], [89.8489, 26.39519], [89.84923, 26.39592], [89.85014, 26.39789], [89.85019, 26.39824], [89.8504, 26.39956], [89.8509, 26.40285], [89.85107, 26.40262], [89.85252, 26.4008], [89.853, 26.40019], [89.85352, 26.39952], [89.85441, 26.39839], [89.85724, 26.39609], [89.85817, 26.39348], [89.86041, 26.38718], [89.86048, 26.38697], [89.86097, 26.38559], [89.86133, 26.38457], [89.86031, 26.38344], [89.85912, 26.38214], [89.85533, 26.38416], [89.85523, 26.38416], [89.85517, 26.38416], [89.84956, 26.38414], [89.8488, 26.38309], [89.84501, 26.3779], [89.83817, 26.38136], [89.83507, 26.38214], [89.83196, 26.38124], [89.82968, 26.37945], [89.8285, 26.37701], [89.83147, 26.36993], [89.83141, 26.36939], [89.83113, 26.36678], [89.8271, 26.36169], [89.82511, 26.35919], [89.82559, 26.35842], [89.82607, 26.35764], [89.82746, 26.35538], [89.82618, 26.35299], [89.82611, 26.35287], [89.82604, 26.35274], [89.82524, 26.35126], [89.82415, 26.35052], [89.82393, 26.35057], [89.81968, 26.35158], [89.81776, 26.35329], [89.81585, 26.3576], [89.8158, 26.35772], [89.81561, 26.35814], [89.81562, 26.35848], [89.81565, 26.35938], [89.81566, 26.35967], [89.81566, 26.35977], [89.81569, 26.36083], [89.81681, 26.36252], [89.81763, 26.36319], [89.81777, 26.3633], [89.81909, 26.36437], [89.82136, 26.36621], [89.82441, 26.37052], [89.8245, 26.37064], [89.82029, 26.36904], [89.81393, 26.36662], [89.81235, 26.3655], [89.8123, 26.36546], [89.80955, 26.36351], [89.80808, 26.36247], [89.80403, 26.3612], [89.80328, 26.36097], [89.80305, 26.36089], [89.79685, 26.35895], [89.79563, 26.35857], [89.79441, 26.35819], [89.78898, 26.35507], [89.78782, 26.3544], [89.7861, 26.35341], [89.78554, 26.35286], [89.78499, 26.35231], [89.78366, 26.34888], [89.78314, 26.34754], [89.78314, 26.34747], [89.78315, 26.34739], [89.78322, 26.34536], [89.78329, 26.34334], [89.78511, 26.33597], [89.78511, 26.33575], [89.78502, 26.33324], [89.785, 26.33277], [89.78494, 26.33102], [89.78408, 26.33016], [89.78376, 26.32984], [89.78303, 26.32911], [89.78193, 26.32801], [89.78181, 26.3279], [89.78093, 26.32752], [89.77964, 26.32696], [89.77514, 26.32503], [89.77459, 26.3248], [89.77304, 26.32413], [89.77261, 26.32394], [89.76967, 26.32094], [89.76948, 26.32075], [89.76605, 26.31724], [89.76524, 26.3177], [89.76139, 26.31988], [89.75774, 26.32195], [89.75589, 26.32227], [89.75573, 26.3223], [89.75551, 26.32216], [89.75491, 26.32179], [89.75474, 26.32168], [89.75463, 26.32161], [89.75465, 26.32044], [89.75466, 26.32004], [89.75474, 26.31628], [89.75475, 26.31582], [89.75476, 26.31566], [89.75482, 26.31293], [89.75483, 26.31232], [89.75496, 26.3064], [89.75625, 26.30424], [89.75653, 26.30378], [89.75682, 26.30331], [89.75745, 26.30226], [89.75888, 26.29988], [89.7609, 26.29655], [89.76162, 26.29535], [89.76319, 26.29275], [89.76315, 26.29238], [89.76306, 26.29182], [89.7627, 26.28949], [89.76115, 26.28869], [89.75843, 26.28898], [89.75382, 26.28946], [89.75294, 26.28956], [89.75279, 26.28963], [89.75072, 26.29063], [89.75011, 26.29092], [89.74641, 26.29537], [89.74501, 26.29506], [89.73587, 26.29306], [89.73508, 26.29323], [89.73235, 26.29384], [89.73099, 26.29415], [89.72815, 26.29478], [89.72754, 26.29491], [89.72498, 26.29645], [89.72389, 26.29879], [89.72472, 26.30127], [89.72687, 26.3077], [89.72435, 26.30829], [89.72194, 26.30586], [89.71978, 26.30214], [89.71955, 26.29719], [89.72114, 26.29321], [89.72517, 26.28834], [89.72806, 26.28647], [89.73094, 26.2846], [89.73113, 26.28448], [89.73118, 26.28445], [89.73215, 26.28373], [89.73327, 26.2831], [89.73424, 26.2817], [89.73572, 26.27957], [89.73794, 26.27638], [89.7391, 26.27472], [89.74033, 26.27295], [89.7415, 26.27127], [89.74111, 26.27079], [89.74037, 26.26989], [89.73772, 26.26663], [89.7377, 26.26634], [89.73763, 26.26494], [89.73761, 26.26463], [89.7375, 26.26267], [89.73721, 26.26213], [89.73632, 26.26051], [89.73456, 26.26003], [89.72926, 26.25858], [89.72705, 26.25879], [89.72325, 26.25915], [89.72307, 26.25917], [89.72282, 26.25919], [89.72139, 26.25933], [89.71975, 26.26047], [89.71962, 26.26056], [89.71928, 26.26081], [89.71881, 26.26113], [89.71852, 26.26133], [89.71578, 26.26325], [89.71548, 26.26346], [89.71491, 26.26473], [89.71514, 26.26642], [89.7156, 26.26975], [89.71484, 26.27012], [89.71302, 26.27099], [89.70963, 26.27024], [89.70888, 26.27008], [89.70756, 26.26719], [89.70539, 26.26242], [89.70474, 26.26102], [89.70505, 26.25938], [89.70769, 26.25715], [89.70954, 26.2574], [89.71543, 26.25821], [89.7158, 26.25807], [89.71812, 26.25717], [89.71943, 26.25666], [89.72046, 26.25543], [89.72052, 26.25393], [89.72057, 26.25252], [89.72055, 26.25247], [89.71954, 26.25023], [89.71906, 26.24915], [89.7194, 26.24786], [89.71954, 26.24732], [89.71974, 26.24657], [89.72122, 26.24603], [89.72164, 26.24588], [89.7238, 26.2451], [89.72449, 26.24485], [89.72758, 26.24373], [89.72812, 26.24319], [89.72929, 26.24198], [89.73024, 26.241], [89.7323, 26.23888], [89.73279, 26.23838], [89.73248, 26.23808], [89.73177, 26.2374], [89.73112, 26.23677], [89.73039, 26.23606], [89.72937, 26.23508], [89.72765, 26.23343], [89.72737, 26.23316], [89.72732, 26.23311], [89.72711, 26.23306], [89.72346, 26.23212], [89.7222, 26.2318], [89.71965, 26.23054], [89.7195, 26.23047], [89.71683, 26.22915], [89.71639, 26.22867], [89.71573, 26.22794], [89.71473, 26.22217], [89.71424, 26.21933], [89.71003, 26.21745], [89.70957, 26.21725], [89.70942, 26.21727], [89.70712, 26.2175], [89.70359, 26.2191], [89.70125, 26.21742], [89.70156, 26.21614], [89.70174, 26.21599], [89.70426, 26.21396], [89.70706, 26.21349], [89.70854, 26.21365], [89.71265, 26.21415], [89.71461, 26.21438], [89.71934, 26.21495], [89.7195, 26.21497], [89.72031, 26.2152], [89.72316, 26.216], [89.72618, 26.21684], [89.72836, 26.21747], [89.73526, 26.2151], [89.73601, 26.21247], [89.73552, 26.21146], [89.73529, 26.21096], [89.73479, 26.21055], [89.72963, 26.20627], [89.72717, 26.20553], [89.72459, 26.20637], [89.72124, 26.20581], [89.71821, 26.20618], [89.71561, 26.2034], [89.71954, 26.20284], [89.72145, 26.20032], [89.72207, 26.197], [89.72156, 26.19557], [89.72137, 26.19506], [89.72132, 26.1949], [89.72126, 26.19475], [89.72113, 26.1944], [89.7204, 26.19236], [89.7201, 26.19153], [89.71801, 26.18956], [89.71472, 26.18876], [89.71218, 26.18703], [89.71056, 26.18646], [89.71039, 26.18376], [89.70783, 26.18051], [89.7065, 26.17733], [89.70822, 26.17475], [89.70937, 26.17403], [89.71048, 26.17334], [89.71059, 26.17335], [89.71222, 26.17347], [89.71557, 26.17371], [89.72101, 26.17741], [89.72373, 26.17815], [89.72408, 26.17811], [89.72933, 26.17764], [89.73418, 26.1772], [89.73707, 26.17607], [89.7381, 26.17519], [89.73788, 26.17431], [89.7377, 26.17357], [89.7375, 26.17347], [89.73685, 26.17316], [89.73612, 26.17328], [89.73544, 26.17338], [89.73553, 26.17337], [89.73535, 26.1734], [89.73445, 26.17354], [89.73146, 26.174], [89.73099, 26.17408], [89.72903, 26.17181], [89.72903, 26.16983], [89.72208, 26.1659], [89.72073, 26.16515], [89.72084, 26.16416], [89.72132, 26.16297], [89.72156, 26.16222], [89.72173, 26.1609], [89.72202, 26.15958], [89.72214, 26.15931], [89.72233, 26.15915], [89.7232, 26.15877], [89.72375, 26.1585], [89.72395, 26.15846], [89.7242, 26.15846], [89.72499, 26.15856], [89.72546, 26.15874], [89.72586, 26.15883], [89.72715, 26.15898], [89.72751, 26.15906], [89.72895, 26.15948], [89.72937, 26.1595], [89.72979, 26.15951], [89.73323, 26.15998], [89.73441, 26.1601], [89.73483, 26.16012], [89.7361, 26.16007], [89.73763, 26.16019], [89.73782, 26.16024], [89.73841, 26.16049], [89.73865, 26.16055], [89.73947, 26.16048], [89.74048, 26.16057], [89.74127, 26.1605], [89.74164, 26.1605], [89.7419, 26.16056], [89.74258, 26.16091], [89.74274, 26.16092], [89.74336, 26.16086], [89.74426, 26.16061], [89.74512, 26.1603], [89.74622, 26.15986], [89.7482, 26.15857], [89.74872, 26.15816], [89.74906, 26.15777], [89.74983, 26.15668], [89.75105, 26.15484], [89.75184, 26.15372], [89.75289, 26.15197], [89.75394, 26.14984], [89.75408, 26.14952], [89.75433, 26.14867], [89.75498, 26.14713], [89.75529, 26.14565], [89.75571, 26.14327], [89.75576, 26.14279], [89.75575, 26.14164], [89.75565, 26.14082], [89.7557, 26.14068], [89.75577, 26.14062], [89.756, 26.14056], [89.75677, 26.14055], [89.75747, 26.14047], [89.75931, 26.14007], [89.76156, 26.13945], [89.76318, 26.13868], [89.7636, 26.13848], [89.76426, 26.13809], [89.76451, 26.13779], [89.7655, 26.13631], [89.76589, 26.13523], [89.76722, 26.13255], [89.76736, 26.13217], [89.7674, 26.13196], [89.76763, 26.12999], [89.76793, 26.12896], [89.76801, 26.12853], [89.7679, 26.12776], [89.76704, 26.12533], [89.76467, 26.12213], [89.76413, 26.12128], [89.76353, 26.12048], [89.76278, 26.11914], [89.76259, 26.11889], [89.76055, 26.11653], [89.76039, 26.11636], [89.76028, 26.11632], [89.76024, 26.11621], [89.75928, 26.11511], [89.75812, 26.11403], [89.75794, 26.11388], [89.75712, 26.11339], [89.75688, 26.11319], [89.75681, 26.11308], [89.75672, 26.11287], [89.75667, 26.11267], [89.75667, 26.11238], [89.75721, 26.11043], [89.75734, 26.11017], [89.75745, 26.11004], [89.75763, 26.1099], [89.75779, 26.10983], [89.75804, 26.10982], [89.75837, 26.10993], [89.75894, 26.11028], [89.75971, 26.11059], [89.76016, 26.11072], [89.76198, 26.11109], [89.76285, 26.11123], [89.76373, 26.11127], [89.76433, 26.11116], [89.76496, 26.111], [89.76544, 26.11085], [89.76609, 26.11057], [89.76649, 26.11037], [89.76779, 26.10964], [89.76802, 26.10956], [89.76879, 26.10945], [89.76896, 26.10937], [89.76922, 26.10892], [89.77004, 26.10778], [89.77066, 26.1064], [89.77322, 26.10727], [89.77444, 26.10704], [89.77546, 26.10699], [89.77608, 26.10821], [89.77684, 26.10884], [89.77703, 26.10895], [89.77761, 26.10918], [89.77948, 26.1098], [89.77986, 26.10979], [89.78044, 26.1095], [89.78395, 26.10856], [89.78432, 26.1084], [89.78507, 26.10791], [89.78555, 26.10738], [89.78564, 26.10721], [89.78579, 26.10651], [89.78581, 26.10603], [89.78582, 26.10562], [89.78585, 26.10548], [89.78605, 26.10509], [89.78656, 26.10431], [89.78671, 26.10399], [89.78676, 26.10378], [89.78698, 26.10261], [89.78707, 26.10239], [89.78712, 26.10211], [89.78723, 26.10104], [89.78714, 26.10054], [89.78685, 26.09956], [89.78678, 26.09923], [89.78698, 26.09852], [89.78733, 26.09754], [89.78756, 26.09619], [89.78757, 26.09598], [89.78756, 26.09588], [89.7875, 26.09577], [89.78739, 26.09567], [89.78667, 26.09516], [89.78561, 26.09434], [89.78456, 26.09342], [89.78441, 26.09322], [89.78437, 26.09305], [89.78424, 26.09086], [89.7842, 26.09072], [89.78322, 26.08923], [89.7831, 26.08895], [89.78308, 26.08882], [89.783, 26.08816], [89.78299, 26.08777], [89.78317, 26.08491], [89.78324, 26.08478], [89.78341, 26.08466], [89.78353, 26.08464], [89.78366, 26.08464], [89.78394, 26.08473], [89.78436, 26.08497], [89.78472, 26.08538], [89.78524, 26.086], [89.7857, 26.08682], [89.78631, 26.08814], [89.78697, 26.08903], [89.78745, 26.08959], [89.78774, 26.08984], [89.78929, 26.09033], [89.79026, 26.09073], [89.79103, 26.09083], [89.79165, 26.09126], [89.79182, 26.09125], [89.79219, 26.09109], [89.79286, 26.0909], [89.79374, 26.09041], [89.7941, 26.09013], [89.79421, 26.0901], [89.79427, 26.09009], [89.79447, 26.09015], [89.79526, 26.09052], [89.7955, 26.09057], [89.79564, 26.09048], [89.79568, 26.0904], [89.79597, 26.08847], [89.79709, 26.08634], [89.79714, 26.08617], [89.79708, 26.08593], [89.79675, 26.08517], [89.79659, 26.0842], [89.79624, 26.08285], [89.79602, 26.08227], [89.79549, 26.08134], [89.7942, 26.07998], [89.79323, 26.07883], [89.79309, 26.07862], [89.7931, 26.07835], [89.79331, 26.07817], [89.79361, 26.07821], [89.79423, 26.07844], [89.79537, 26.07835], [89.7961, 26.07817], [89.79645, 26.07806], [89.79728, 26.07768], [89.79759, 26.07739], [89.79826, 26.07703], [89.7983, 26.07694], [89.79833, 26.07668], [89.79817, 26.07594], [89.79805, 26.07556], [89.79741, 26.07412], [89.79744, 26.07354], [89.7974, 26.07332], [89.79743, 26.07316], [89.79855, 26.07], [89.79885, 26.06925], [89.79903, 26.06857], [89.79929, 26.06673], [89.79993, 26.06521], [89.80014, 26.06455], [89.80002, 26.06381], [89.79994, 26.06355], [89.79958, 26.06305], [89.79954, 26.06282], [89.79953, 26.06246], [89.79964, 26.06209], [89.8002, 26.06069], [89.80022, 26.06051], [89.8002, 26.06014], [89.80011, 26.05936], [89.80001, 26.05893], [89.79966, 26.05829], [89.79943, 26.05808], [89.79917, 26.05792], [89.79848, 26.05764], [89.79706, 26.05717], [89.79668, 26.057], [89.79557, 26.05685], [89.79419, 26.05653], [89.79131, 26.05607], [89.78929, 26.05564], [89.78856, 26.05557], [89.78751, 26.05558], [89.78744, 26.05547], [89.78748, 26.05535], [89.78746, 26.05527], [89.78697, 26.05512], [89.78691, 26.05515], [89.78687, 26.05521], [89.78694, 26.05535], [89.78709, 26.05552], [89.78706, 26.05559], [89.78683, 26.05567], [89.78655, 26.05562], [89.78643, 26.05543], [89.78639, 26.05524], [89.78641, 26.05432], [89.78625, 26.05324], [89.78634, 26.05297], [89.78775, 26.05221], [89.78894, 26.05145], [89.78919, 26.05125], [89.78942, 26.051], [89.78972, 26.05056], [89.79006, 26.04988], [89.79021, 26.04952], [89.7902, 26.0491], [89.79016, 26.04894], [89.78966, 26.04802], [89.78915, 26.04744], [89.78893, 26.04727], [89.78853, 26.04705], [89.78663, 26.04626], [89.78544, 26.04604], [89.78512, 26.04586], [89.78489, 26.04565], [89.78416, 26.04467], [89.78383, 26.04401], [89.78371, 26.04389], [89.78348, 26.04388], [89.78275, 26.04399], [89.78249, 26.04398], [89.78089, 26.04373], [89.78068, 26.04368], [89.78029, 26.04351], [89.77999, 26.04357], [89.77923, 26.04297], [89.77841, 26.04208], [89.77805, 26.04177], [89.77785, 26.04182], [89.77773, 26.04158], [89.77782, 26.04149], [89.77718, 26.0408], [89.77643, 26.04005], [89.77549, 26.03902], [89.77503, 26.03827], [89.77593, 26.03735], [89.77641, 26.03691], [89.77724, 26.03805], [89.77743, 26.03836], [89.7779, 26.03946], [89.77844, 26.0409], [89.77872, 26.04137], [89.77916, 26.04169], [89.7796, 26.04179], [89.78015, 26.04178], [89.78049, 26.04192], [89.78131, 26.04188], [89.78334, 26.04215], [89.78433, 26.04219], [89.78558, 26.04208], [89.7881, 26.04164], [89.78892, 26.04149], [89.79019, 26.04151], [89.79036, 26.04155], [89.79049, 26.0416], [89.79153, 26.04241], [89.79217, 26.04298], [89.79273, 26.0434], [89.79306, 26.0436], [89.79406, 26.04384], [89.79587, 26.04396], [89.79727, 26.04347], [89.80025, 26.04264], [89.80057, 26.04252], [89.80126, 26.04216], [89.80245, 26.04145], [89.80263, 26.04141], [89.80295, 26.04154], [89.80305, 26.04235], [89.80287, 26.04244], [89.80289, 26.04294], [89.80334, 26.04402], [89.80416, 26.04513], [89.80516, 26.04595], [89.80615, 26.04599], [89.80739, 26.04584], [89.80867, 26.04518], [89.81116, 26.04343], [89.81227, 26.04239], [89.81294, 26.0412], [89.8136, 26.04027], [89.81422, 26.03912], [89.81422, 26.03626], [89.8146, 26.03466], [89.81497, 26.03255], [89.8152, 26.03214], [89.81574, 26.03139], [89.81612, 26.03093], [89.81653, 26.03051], [89.81711, 26.03014], [89.81842, 26.02877], [89.81894, 26.02832], [89.8194, 26.02786], [89.82014, 26.0274], [89.82152, 26.02606], [89.82152, 26.02529], [89.82113, 26.0244], [89.82085, 26.02355], [89.82053, 26.02279], [89.8204, 26.02194], [89.81978, 26.02004], [89.81948, 26.01952], [89.81924, 26.01927], [89.81881, 26.0189], [89.81861, 26.01809], [89.81903, 26.01762], [89.81959, 26.0172], [89.82015, 26.0164], [89.82047, 26.01546], [89.82094, 26.01437], [89.82144, 26.01381], [89.82211, 26.01294], [89.82289, 26.01228], [89.82359, 26.01153], [89.82368, 26.00876], [89.82239, 26.00668], [89.82149, 26.00543], [89.82056, 26.00438], [89.82074, 26.00358], [89.82168, 26.00197], [89.82194, 26.00045], [89.82154, 25.99837], [89.82141, 25.99664], [89.8199, 25.99544], [89.81847, 25.99415], [89.81941, 25.99271], [89.82039, 25.99071], [89.82191, 25.98826], [89.82441, 25.98682], [89.82758, 25.9855], [89.83074, 25.98478], [89.83086, 25.98468], [89.83259, 25.9831], [89.83644, 25.98319], [89.84049, 25.98556], [89.84271, 25.99011], [89.842, 25.99539], [89.84035, 25.99868], [89.83977, 25.99984], [89.83633, 26.00284], [89.83339, 26.00448], [89.8334, 26.00517], [89.83339, 26.00775], [89.83673, 26.00912], [89.83926, 26.0093], [89.84098, 26.00839], [89.84371, 26.00448], [89.84625, 26.00239], [89.84756, 26.00112], [89.84878, 25.99921], [89.84888, 25.99484], [89.84888, 25.99029], [89.84933, 25.98648], [89.84939, 25.98593], [89.85152, 25.9842], [89.85405, 25.98456], [89.85628, 25.98389], [89.85881, 25.98225], [89.85972, 25.97888], [89.8575, 25.97524], [89.8538, 25.97382], [89.85132, 25.97288], [89.84657, 25.97287], [89.84545, 25.97296], [89.84444, 25.97296], [89.84363, 25.97214], [89.84262, 25.97087], [89.841, 25.9696], [89.84011, 25.96786], [89.83822, 25.96526], [89.83817, 25.96521], [89.83708, 25.96414], [89.83543, 25.96223], [89.83515, 25.96012], [89.8346, 25.95812], [89.83385, 25.95558], [89.83199, 25.95391], [89.83034, 25.95437], [89.82999, 25.95447], [89.82793, 25.95651], [89.82545, 25.95638], [89.82139, 25.95514], [89.8174, 25.95378], [89.81513, 25.95229], [89.81437, 25.94889], [89.81486, 25.9484], [89.81623, 25.94703], [89.81933, 25.94579], [89.82408, 25.94511], [89.82587, 25.94573], [89.82662, 25.94573], [89.83005, 25.94629], [89.83048, 25.94636], [89.83454, 25.94717], [89.83702, 25.94648], [89.83703, 25.94625], [89.83716, 25.94388], [89.83702, 25.94209], [89.83675, 25.94029], [89.83675, 25.93825], [89.83751, 25.93646], [89.84012, 25.93621], [89.84281, 25.93646], [89.84453, 25.93714], [89.84638, 25.93733], [89.84804, 25.93769], [89.84893, 25.93788], [89.85237, 25.93832], [89.8528, 25.93832], [89.85284, 25.93847], [89.85303, 25.93876], [89.85369, 25.93933], [89.85379, 25.93938], [89.85423, 25.9394], [89.85497, 25.93956], [89.85546, 25.93979], [89.85593, 25.94001], [89.85627, 25.94032], [89.85708, 25.94092], [89.85794, 25.94167], [89.8583, 25.94203], [89.8588, 25.94268], [89.85914, 25.94324], [89.85942, 25.9438], [89.85946, 25.94399], [89.85969, 25.94521], [89.85942, 25.94716], [89.85979, 25.94908], [89.86056, 25.95064], [89.86178, 25.95132], [89.86291, 25.95164], [89.86394, 25.95167], [89.86514, 25.95134], [89.86633, 25.95067], [89.86732, 25.94952], [89.86891, 25.94802], [89.87001, 25.94589], [89.87069, 25.94546], [89.87214, 25.94472], [89.87298, 25.94475], [89.87353, 25.9449], [89.87592, 25.94519], [89.87713, 25.9455], [89.87778, 25.94556], [89.878, 25.94557], [89.87862, 25.9454], [89.88018, 25.94498], [89.88056, 25.94461], [89.88058, 25.94422], [89.88021, 25.94368], [89.87956, 25.9431], [89.87857, 25.9421], [89.87801, 25.94061], [89.87783, 25.94], [89.87781, 25.93932], [89.87795, 25.93885], [89.87818, 25.93849], [89.87892, 25.93799], [89.87943, 25.93709], [89.87943, 25.93649], [89.87926, 25.93585], [89.87887, 25.93537], [89.87841, 25.93508], [89.87776, 25.93444], [89.87733, 25.93348], [89.8771, 25.93083], [89.87757, 25.93016], [89.87773, 25.93003], [89.87793, 25.92988], [89.87809, 25.92976], [89.87874, 25.92904], [89.87883, 25.92771], [89.87881, 25.92695], [89.8784, 25.92572], [89.87838, 25.92565], [89.87812, 25.92411], [89.87847, 25.92408], [89.87913, 25.92411], [89.88008, 25.92432], [89.88006, 25.92376], [89.87978, 25.92295], [89.87938, 25.92211], [89.8793, 25.92181], [89.8794, 25.92132], [89.87936, 25.92114], [89.87846, 25.92036], [89.87753, 25.91999], [89.87664, 25.91988], [89.87691, 25.91968], [89.8774, 25.91945], [89.87837, 25.91907], [89.87752, 25.91851], [89.87635, 25.91738], [89.8757, 25.9164], [89.87477, 25.91338], [89.87424, 25.91234], [89.87386, 25.91152], [89.87338, 25.91089], [89.87207, 25.91002], [89.87059, 25.90942], [89.86866, 25.90884], [89.86703, 25.90851], [89.86616, 25.90816], [89.86386, 25.90766], [89.86292, 25.90737], [89.8623, 25.90713], [89.86127, 25.90665], [89.86103, 25.90647], [89.86052, 25.90609], [89.86013, 25.90555], [89.85953, 25.90401], [89.85926, 25.90265], [89.85923, 25.90197], [89.8594, 25.90098], [89.85966, 25.9004], [89.86023, 25.89959], [89.8607, 25.89907], [89.86159, 25.89838], [89.8622, 25.89795], [89.86304, 25.89743], [89.86379, 25.89688], [89.86423, 25.89637], [89.86445, 25.89592], [89.86445, 25.89566], [89.86448, 25.89543], [89.86444, 25.89502], [89.86429, 25.89453], [89.86396, 25.89388], [89.86319, 25.8925], [89.86662006400007, 25.893943857000068], [89.87855702700006, 25.89867719600005], [89.88571609600007, 25.90256138700005], [89.97887893100005, 25.97138871800007], [90.02266569400007, 26.009337247000076], [90.08396716300007, 26.047285774000045], [90.11930631200005, 26.061837189000073], [90.12847584600007, 26.061003595000045], [90.13389329100005, 26.062164476000078], [90.13814985400006, 26.060229674000027], [90.14627602100006, 26.063325357000053], [90.15633699000006, 26.06951672200006], [90.17452412400007, 26.071451524000054], [90.17518620300007, 26.07244464000007], [90.17858480295993, 26.0745751289749], [90.17844, 26.07496], [90.17812, 26.07747], [90.1771, 26.07931], [90.17539, 26.08099], [90.17449, 26.08265], [90.17444, 26.08453], [90.17492, 26.08705], [90.17578, 26.08899], [90.18159, 26.09502], [90.18231, 26.09605], [90.18274, 26.09839], [90.18267, 26.10088], [90.18242, 26.10293], [90.18236, 26.10369], [90.18252, 26.10514], [90.18261, 26.10534], [90.18388, 26.10695], [90.18406, 26.10718], [90.18704, 26.11274], [90.18748, 26.11416], [90.18784, 26.11528], [90.188, 26.1158], [90.18813, 26.11624], [90.18819, 26.11643], [90.1883, 26.11675], [90.18886, 26.11853], [90.1894, 26.12026], [90.19676, 26.11981], [90.20539, 26.11928], [90.2092, 26.11983], [90.2077, 26.12384], [90.20847, 26.12475], [90.20931, 26.12574], [90.20944, 26.12619], [90.2103, 26.12913], [90.21312, 26.13119], [90.21426, 26.1312], [90.21783, 26.13122], [90.22007, 26.1327], [90.22235, 26.13775], [90.22771, 26.13801], [90.2316, 26.13913], [90.23968, 26.13863], [90.24191, 26.13971], [90.24754, 26.1482], [90.24799, 26.15099], [90.25074, 26.15132], [90.25408, 26.15247], [90.25477, 26.15245], [90.25562, 26.15243], [90.25733, 26.15094], [90.26034, 26.14912], [90.26315, 26.14876], [90.26345, 26.14866], [90.26326, 26.15145], [90.2632, 26.15186], [90.26211, 26.15847], [90.26201, 26.15889], [90.26131, 26.16124], [90.26012, 26.16525], [90.26009, 26.16704], [90.26324, 26.16663], [90.26656, 26.1662], [90.26873, 26.16611], [90.27843, 26.16602], [90.28122, 26.16594], [90.28409, 26.16586], [90.28728, 26.16548], [90.28852, 26.16527], [90.29101, 26.16487], [90.2955, 26.16597], [90.298, 26.16745], [90.29997, 26.16728], [90.30034, 26.16629], [90.29966, 26.16399], [90.29817, 26.15986], [90.30126, 26.16141], [90.30641, 26.16351], [90.30834, 26.16495], [90.31135, 26.16716], [90.31963, 26.17543], [90.32078, 26.17673], [90.32105, 26.17702], [90.328, 26.17824], [90.33078, 26.17387], [90.33669, 26.17314], [90.3432, 26.1754], [90.34664, 26.17572], [90.35559, 26.17654], [90.36068, 26.17701], [90.36526, 26.17743], [90.3659, 26.17754], [90.36733, 26.17778], [90.37025, 26.17827], [90.37215, 26.17859], [90.37295, 26.17872], [90.37389, 26.17888], [90.37418, 26.17893], [90.37618, 26.17926], [90.37793, 26.18119], [90.37836, 26.18166]]]}}]}