{"type": "FeatureCollection", "features": [{"type": "Feature", "properties": {"Name": "Dibrugarh"}, "geometry": {"type": "Polygon", "coordinates": [[[95.37136, 27.09577], [95.37567, 27.09627], [95.38415, 27.09918], [95.38427364500006, 27.100428503000046], [95.38456, 27.10332], [95.38462, 27.10388], [95.38480714300005, 27.105771126000036], [95.38481, 27.1058], [95.39483, 27.10854], [95.40499, 27.11238], [95.41033, 27.11714], [95.41196798500005, 27.118600077000053], [95.41567, 27.1219], [95.41895, 27.12483], [95.42125140700006, 27.125667578000048], [95.42368383200005, 27.126552839000055], [95.42788, 27.12808], [95.43307863300004, 27.127521173000048], [95.43802, 27.12699], [95.43929177200005, 27.126850415000035], [95.43966, 27.12681], [95.4401, 27.12695], [95.44128, 27.12733], [95.442, 27.12757], [95.44243002300004, 27.127706302000036], [95.44424, 27.12828], [95.44427, 27.12835], [95.44451, 27.12898], [95.44478, 27.12968], [95.44486, 27.12988], [95.44494, 27.13009], [95.4451, 27.13049], [95.44519466200006, 27.130735323000067], [95.44581, 27.13233], [95.44896700100009, 27.132764088000044], [95.44901, 27.13277], [95.44942, 27.13283], [95.4495, 27.13274], [95.45207, 27.12986], [95.45284, 27.12981], [95.45339, 27.12978], [95.4536, 27.12977], [95.45455, 27.12972], [95.45632447400004, 27.12961726800006], [95.45645, 27.12961], [95.45757524600003, 27.131186032000073], [95.45972, 27.13419], [95.46001, 27.13531], [95.4619, 27.14255], [95.46202, 27.14302], [95.46236, 27.14434], [95.46453, 27.14878], [95.46379380700006, 27.151432184000043], [95.46375, 27.15159], [95.462, 27.15354], [95.46197260400004, 27.153547127000024], [95.46077, 27.15386], [95.46067688700003, 27.15402083200007], [95.46066, 27.15405], [95.45985, 27.15442], [95.45974, 27.15421], [95.45973, 27.15413], [95.45863389900006, 27.154415939000046], [95.45858, 27.15443], [95.45830531400009, 27.155102982000074], [95.45758, 27.15688], [95.45741, 27.15729], [95.45830151800004, 27.15793744100006], [95.46088, 27.15981], [95.46105, 27.1599], [95.46118, 27.16003], [95.46224, 27.1608], [95.46254, 27.16102], [95.46516347800008, 27.164341814000068], [95.46671, 27.1663], [95.46665801000006, 27.166418960000044], [95.46632369700006, 27.167183914000077], [95.46612, 27.16765], [95.46598, 27.16797], [95.46256, 27.17581], [95.46241, 27.17615], [95.46252, 27.17626], [95.46266772300004, 27.176502688000028], [95.46294, 27.17695], [95.46293, 27.17757], [95.46295039300009, 27.177835108000068], [95.46297, 27.17809], [95.46335, 27.17843], [95.46350057600006, 27.17850947100004], [95.46371, 27.17862], [95.46414, 27.17882], [95.46444, 27.17895], [95.46464649800004, 27.178963767000027], [95.46474, 27.17897], [95.46522, 27.17916], [95.46543017600004, 27.179304496000043], [95.46554, 27.17938], [95.46586, 27.17958], [95.46591940500008, 27.179773066000052], [95.46594, 27.17984], [95.46614, 27.18049], [95.46642, 27.1814], [95.46659, 27.18195], [95.46683, 27.18275], [95.4671, 27.18363], [95.46732, 27.18435], [95.46738, 27.18454], [95.46615, 27.18757], [95.46546, 27.18928], [95.46457, 27.19148], [95.46437445500004, 27.19177248400007], [95.4634, 27.19323], [95.46322, 27.1935], [95.46285, 27.19405], [95.46275563500006, 27.194191198000055], [95.4615, 27.19607], [95.46114, 27.1966], [95.46097, 27.19681], [95.46062, 27.19708], [95.46053152400003, 27.197156680000035], [95.46017, 27.19747], [95.46005, 27.19797], [95.46005684500005, 27.198040727000034], [95.46008, 27.19828], [95.46009, 27.19859], [95.46006, 27.19885], [95.45977, 27.19929], [95.45972, 27.19954], [95.45959, 27.19973], [95.45954, 27.19978], [95.45947, 27.20004], [95.45922, 27.20038], [95.45890530100007, 27.200730665000037], [95.45887, 27.20077], [95.45882864700008, 27.200860976000058], [95.45862, 27.20132], [95.45799061100007, 27.202285637000045], [95.45789, 27.20244], [95.45780891100009, 27.20259452700003], [95.45768311700004, 27.202808377000053], [95.45765947600006, 27.202879300000063], [95.45736, 27.20345], [95.4571, 27.20446], [95.45710305400007, 27.204548566000028], [95.45712, 27.20504], [95.45736, 27.20562], [95.45758, 27.20636], [95.45765, 27.20724], [95.45783, 27.20834], [95.45802304300008, 27.20859739200006], [95.45822, 27.20886], [95.45902, 27.2092], [95.45999, 27.2092], [95.46075, 27.20935], [95.46138, 27.20964], [95.46292, 27.21025], [95.46413175300006, 27.21072094400006], [95.46560279900007, 27.21132484700007], [95.46691, 27.21194], [95.46863, 27.21362], [95.46895, 27.21523], [95.46906, 27.21566], [95.46948, 27.2173], [95.46980813600004, 27.217338604000076], [95.46999, 27.21736], [95.4705, 27.21743], [95.4727, 27.21773], [95.473, 27.21932], [95.4732, 27.22031], [95.47323, 27.22051], [95.47325, 27.2206], [95.47332, 27.22096], [95.47702, 27.22431], [95.47881, 27.22593], [95.47935, 27.22642], [95.47974, 27.22721], [95.48033, 27.22842], [95.48132, 27.23044], [95.48275, 27.23336], [95.48359301800008, 27.235080028000027], [95.48399, 27.23589], [95.48436, 27.23665], [95.48578, 27.23954], [95.48606, 27.24012], [95.48625968600004, 27.240260850000027], [95.48718, 27.24091], [95.48983, 27.24279], [95.48977207100006, 27.24290404900006], [95.48951, 27.24342], [95.4891, 27.24422], [95.48783, 27.2467], [95.48577, 27.25074], [95.483, 27.25191], [95.4806, 27.25292], [95.47985, 27.25382], [95.47316, 27.26188], [95.47221, 27.26303], [95.47194, 27.26282], [95.47042, 27.26164], [95.46937, 27.26083], [95.46813, 27.25987], [95.46785, 27.25966], [95.46461, 27.25576], [95.46243, 27.25313], [95.46218, 27.25283], [95.45786, 27.24762], [95.45983, 27.24299], [95.46088, 27.24052], [95.46106, 27.24009], [95.45642, 27.23233], [95.4555, 27.23388], [95.45484, 27.23501], [95.45393, 27.23655], [95.4534, 27.23746], [95.45021, 27.24286], [95.44788, 27.24681], [95.44552, 27.25247], [95.46367, 27.26678], [95.46425, 27.27153], [95.46443, 27.27166], [95.46559, 27.27196], [95.46934, 27.2718], [95.47181, 27.27345], [95.47461, 27.27494], [95.47705, 27.27753], [95.47869, 27.27969], [95.48161, 27.27951], [95.48253, 27.28068], [95.48313, 27.28219], [95.48372, 27.28536], [95.48477, 27.2889], [95.48799, 27.28997], [95.49104, 27.29329], [95.49227, 27.29849], [95.49299, 27.2997], [95.49594, 27.30122], [95.49662, 27.30244], [95.49702, 27.30556], [95.49744, 27.30691], [95.49969, 27.30816], [95.50753, 27.31434], [95.51172, 27.31648], [95.51308, 27.31689], [95.51805, 27.31478], [95.5194, 27.31475], [95.51994, 27.31617], [95.51544, 27.32159], [95.5145, 27.32362], [95.51499, 27.32663], [95.51953, 27.33237], [95.52008, 27.3335], [95.51966, 27.33423], [95.51423, 27.33383], [95.51272, 27.3343], [95.50728, 27.33864], [95.50602, 27.34084], [95.50588, 27.34373], [95.5072, 27.34741], [95.50965, 27.34904], [95.51142, 27.34949], [95.50727, 27.34919], [95.50538, 27.34853], [95.50145, 27.34668], [95.4935, 27.34234], [95.49129, 27.33921], [95.4878, 27.33575], [95.48685, 27.33308], [95.48649, 27.33206], [95.48562, 27.3296], [95.48227, 27.32462], [95.47988, 27.3127], [95.47209, 27.3052], [95.46622, 27.30097], [95.46763, 27.30419], [95.46885, 27.30629], [95.46778, 27.30893], [95.46746, 27.30973], [95.46734, 27.31003], [95.46722, 27.31033], [95.46501, 27.31575], [95.46474, 27.31641], [95.46473, 27.31644], [95.46439, 27.31728], [95.46345, 27.3196], [95.46309, 27.32049], [95.46271, 27.32143], [95.46008, 27.32348], [95.45944, 27.32398], [95.45814, 27.32499], [95.4556, 27.32696], [95.45385, 27.32833], [95.45147, 27.33018], [95.45146, 27.33019], [95.45149, 27.33022], [95.45251, 27.33127], [95.45274, 27.33151], [95.45341, 27.33219], [95.45386, 27.33266], [95.45957, 27.33856], [95.46141, 27.33903], [95.46484, 27.33992], [95.4689, 27.34097], [95.47213, 27.3418], [95.47508, 27.34256], [95.47504, 27.34288], [95.47482, 27.34463], [95.47452, 27.34748], [95.47397, 27.35238], [95.47307, 27.36035], [95.47304, 27.3606], [95.473, 27.36096], [95.4726, 27.36449], [95.47163, 27.36468], [95.46958, 27.36508], [95.46706, 27.36558], [95.46685, 27.36562], [95.46656, 27.36568], [95.46532, 27.36592], [95.4634, 27.3663], [95.46053, 27.36686], [95.44919, 27.36909], [95.44706, 27.36775], [95.44614, 27.36718], [95.44467, 27.36626], [95.44439, 27.36608], [95.4427, 27.36502], [95.44152, 27.36429], [95.44138, 27.3642], [95.43968, 27.36314], [95.43962, 27.3631], [95.43914, 27.36355], [95.43873, 27.36332], [95.439, 27.36233], [95.43918, 27.36169], [95.43935, 27.36032], [95.4394, 27.35989], [95.43944, 27.35952], [95.43966, 27.35614], [95.44022, 27.35441], [95.44071, 27.35288], [95.44082, 27.35253], [95.44246, 27.35236], [95.44339, 27.35226], [95.44444, 27.35184], [95.44479, 27.3517], [95.44533, 27.3491], [95.4454, 27.34875], [95.44603, 27.34575], [95.44768, 27.3445], [95.45092, 27.34204], [95.4508, 27.3409], [95.45075, 27.34046], [95.4506, 27.3391], [95.44902, 27.33745], [95.44823, 27.33663], [95.44806, 27.33645], [95.44718, 27.33768], [95.44677, 27.33826], [95.44454, 27.33944], [95.4414, 27.34389], [95.44108, 27.34435], [95.44008, 27.34536], [95.43996, 27.34711], [95.43992, 27.34775], [95.43987, 27.34857], [95.43981, 27.34943], [95.43972, 27.35066], [95.43968, 27.3511], [95.43957, 27.35124], [95.43661, 27.35496], [95.43575, 27.3562], [95.43644, 27.3574], [95.43687, 27.35814], [95.43705, 27.36034], [95.43694, 27.36092], [95.43661, 27.3627], [95.43647, 27.36314], [95.43646, 27.36318], [95.43648, 27.36337], [95.43687, 27.3642], [95.43722, 27.36496], [95.43757, 27.36503], [95.43634, 27.36619], [95.43435, 27.36806], [95.43354, 27.36883], [95.43094, 27.37128], [95.43059, 27.3716], [95.43009, 27.37208], [95.42995, 27.37214], [95.42953, 27.37233], [95.42909, 27.37252], [95.42338, 27.37503], [95.42317, 27.37533], [95.42198, 27.37699], [95.42192, 27.37704], [95.4212, 27.37804], [95.41963, 27.38019], [95.41946, 27.38043], [95.41903, 27.38103], [95.41892, 27.38118], [95.4184, 27.38189], [95.41782, 27.38214], [95.41743, 27.3823], [95.41711, 27.38244], [95.41485, 27.3834], [95.40882, 27.38596], [95.40831, 27.38618], [95.40804, 27.38629], [95.40685, 27.38679], [95.40523, 27.38748], [95.40299, 27.38843], [95.40411, 27.39121], [95.40481, 27.39294], [95.40489, 27.39302], [95.40428, 27.39358], [95.40388, 27.39394], [95.40373, 27.39609], [95.40372, 27.39618], [95.40255, 27.39622], [95.40079, 27.39628], [95.40044, 27.39553], [95.40025, 27.39514], [95.3995, 27.39361], [95.39766, 27.39164], [95.39735, 27.3913], [95.39748, 27.39076], [95.39579, 27.39148], [95.3932, 27.39153], [95.39016, 27.39159], [95.38834, 27.39162], [95.38825, 27.39162], [95.38693, 27.39164], [95.38668, 27.39164], [95.38513, 27.39167], [95.383, 27.39171], [95.3807, 27.39175], [95.37698, 27.39181], [95.37779, 27.38895], [95.37877, 27.38549], [95.3786, 27.38527], [95.37836, 27.38496], [95.37669, 27.38607], [95.37461, 27.38601], [95.37444, 27.386], [95.37419, 27.38603], [95.37262, 27.38703], [95.37014, 27.38862], [95.36985, 27.38841], [95.36894, 27.38869], [95.36814, 27.38893], [95.36565, 27.38969], [95.36325, 27.39042], [95.3617, 27.39089], [95.35993, 27.39143], [95.35959, 27.39152], [95.35872, 27.39175], [95.3551, 27.39272], [95.35269, 27.39337], [95.34903, 27.39435], [95.34861, 27.39446], [95.34389, 27.39403], [95.34342, 27.39317], [95.34314, 27.39277], [95.34295, 27.39275], [95.34066, 27.39253], [95.33999, 27.39246], [95.33826, 27.39229], [95.338, 27.39226], [95.33712, 27.39218], [95.33699, 27.39212], [95.33595, 27.39167], [95.33505, 27.39127], [95.33321, 27.39047], [95.33025, 27.3904], [95.33021, 27.3904], [95.32947, 27.39036], [95.32718, 27.39022], [95.32484, 27.39001], [95.32242, 27.3898], [95.32112, 27.39003], [95.32105, 27.39004], [95.31606, 27.3909], [95.31376, 27.39139], [95.3132, 27.39192], [95.31087, 27.39416], [95.31063, 27.3944], [95.30973, 27.39527], [95.3069, 27.39799], [95.3065, 27.39837], [95.30633, 27.39854], [95.30593, 27.39922], [95.30522, 27.40044], [95.3039, 27.40269], [95.3029, 27.4044], [95.30216, 27.40566], [95.30033, 27.4088], [95.29952, 27.40924], [95.29512, 27.41161], [95.2948, 27.41178], [95.29365, 27.41139], [95.28551, 27.40859], [95.28534, 27.40853], [95.28349, 27.4079], [95.27982, 27.40983], [95.27647, 27.41159], [95.2737, 27.40935], [95.27078, 27.40698], [95.26912, 27.40564], [95.26839, 27.40594], [95.26774, 27.40621], [95.26089, 27.40907], [95.2574, 27.41053], [95.25801, 27.41346], [95.2586, 27.4163], [95.25893, 27.41789], [95.25767, 27.41916], [95.25564, 27.41676], [95.25557, 27.41668], [95.25524, 27.41629], [95.25433, 27.41521], [95.25355, 27.41531], [95.2515, 27.41558], [95.24993, 27.41351], [95.24938, 27.41278], [95.24795, 27.41187], [95.24805, 27.41322], [95.24771, 27.41427], [95.24437, 27.4185], [95.24395, 27.41903], [95.2437, 27.41935], [95.24142, 27.41967], [95.23904, 27.42142], [95.23884, 27.42157], [95.2385, 27.42182], [95.23816, 27.42187], [95.23543, 27.42233], [95.2346, 27.42289], [95.23137, 27.42505], [95.2302, 27.4234], [95.22951, 27.42335], [95.22835, 27.42328], [95.22612, 27.42306], [95.22544, 27.42262], [95.22491, 27.42228], [95.2227, 27.42086], [95.22074, 27.42096], [95.21961, 27.42011], [95.21739, 27.42049], [95.21749, 27.42065], [95.21717, 27.4223], [95.21659, 27.42528], [95.2163, 27.42678], [95.21574, 27.42964], [95.21403, 27.43259], [95.21463, 27.43526], [95.2149, 27.43644], [95.21727, 27.43631], [95.21849, 27.43527], [95.22031, 27.43372], [95.22278, 27.43514], [95.22556, 27.43673], [95.22584, 27.43706], [95.22717, 27.43852], [95.22764, 27.43904], [95.22877, 27.44028], [95.23158, 27.44111], [95.2317, 27.44107], [95.23273, 27.44034], [95.2306, 27.44418], [95.23008, 27.44512], [95.22948, 27.44619], [95.2291, 27.44688], [95.22895, 27.44707], [95.22765, 27.44871], [95.22409, 27.45315], [95.22024, 27.45798], [95.2248, 27.46511], [95.22581, 27.46665], [95.22679, 27.46823], [95.22688, 27.46837], [95.22799, 27.4701], [95.22897, 27.47163], [95.22934, 27.47221], [95.22905, 27.47733], [95.22902, 27.47793], [95.22884, 27.48108], [95.22884, 27.48116], [95.22901, 27.48558], [95.22902, 27.48604], [95.22909, 27.4865], [95.22931, 27.48805], [95.22991, 27.49229], [95.22999, 27.49283], [95.23049, 27.49262], [95.23126, 27.49223], [95.23214, 27.49179], [95.2331, 27.49198], [95.23562, 27.49249], [95.23581, 27.49255], [95.23739, 27.4942], [95.23798, 27.49482], [95.23973, 27.49601], [95.24005, 27.49623], [95.24168, 27.49685], [95.24197, 27.49702], [95.24308, 27.49743], [95.24444, 27.49792], [95.24485, 27.49807], [95.24728, 27.49958], [95.24961, 27.50168], [95.24962, 27.50169], [95.2504, 27.50292], [95.25028, 27.5046], [95.25015, 27.50657], [95.25087, 27.50678], [95.25147, 27.50696], [95.25179, 27.50701], [95.2529, 27.50719], [95.25461, 27.50747], [95.25494, 27.50752], [95.25611, 27.50771], [95.25733, 27.50791], [95.25736, 27.50791], [95.25754, 27.50794], [95.25802, 27.50802], [95.25983, 27.50892], [95.26262, 27.5103], [95.26551, 27.51593], [95.26553, 27.51653], [95.26554, 27.51668], [95.26559, 27.51848], [95.26562, 27.51943], [95.26568, 27.52131], [95.26573, 27.52305], [95.26575, 27.52365], [95.26597, 27.52373], [95.26674, 27.52399], [95.27053, 27.52527], [95.27077, 27.52535], [95.2707, 27.52549], [95.26843, 27.5298], [95.26833, 27.52999], [95.26831, 27.53003], [95.26682, 27.53287], [95.26677, 27.53296], [95.26632, 27.53382], [95.26589, 27.53464], [95.265, 27.53633], [95.26544, 27.53732], [95.26607, 27.53872], [95.26649, 27.53965], [95.26739, 27.54166], [95.2682, 27.54346], [95.2688, 27.54479], [95.26914, 27.54555], [95.26957, 27.54651], [95.26967, 27.54672], [95.27179, 27.54864], [95.27334, 27.55005], [95.27408, 27.5497], [95.28025, 27.54675], [95.28189, 27.54649], [95.28584, 27.54587], [95.28628, 27.54604], [95.287, 27.54632], [95.28815, 27.54672], [95.29024, 27.54745], [95.28886, 27.55139], [95.288, 27.55387], [95.28795, 27.554], [95.28715, 27.55595], [95.28537, 27.56027], [95.28516, 27.56175], [95.28481, 27.56416], [95.28456, 27.5659], [95.2843, 27.56767], [95.28414, 27.56879], [95.27767, 27.57279], [95.2745, 27.57443], [95.27396, 27.57561], [95.27389, 27.57727], [95.27525, 27.57778], [95.27627, 27.57876], [95.27644, 27.57988], [95.27616, 27.58075], [95.28334, 27.58227], [95.28827, 27.58417], [95.29625, 27.59101], [95.30118, 27.60112], [95.30202, 27.60284], [95.30254, 27.6039], [95.30384, 27.60657], [95.30369, 27.61149], [95.30346, 27.61911], [95.30232, 27.62708], [95.30202, 27.62773], [95.29864, 27.63512], [95.29397, 27.64531], [95.28827, 27.65101], [95.28737, 27.65155], [95.28258, 27.65442], [95.28242, 27.65451], [95.27752, 27.65723], [95.27619, 27.65797], [95.27582, 27.65818], [95.27271, 27.65991], [95.27062, 27.66107], [95.26169, 27.66164], [95.25087, 27.65879], [95.23568, 27.65195], [95.23523, 27.6518], [95.22713, 27.64911], [95.22182, 27.64873], [95.20853, 27.64417], [95.17815, 27.63733], [95.17141, 27.63771], [95.15957, 27.63837], [95.14435, 27.6324], [95.11968, 27.63313], [95.11853, 27.63316], [95.07979, 27.6286], [95.05321, 27.62404], [95.02017, 27.61227], [95.01557, 27.60852], [95.00992, 27.60392], [94.99245, 27.59556], [94.98562, 27.59442], [94.96627, 27.59442], [94.96587, 27.59442], [94.94118, 27.59252], [94.92068, 27.58873], [94.90929, 27.58341], [94.90611, 27.58525], [94.89522, 27.58442], [94.881, 27.57363], [94.87354, 27.56082], [94.87118, 27.55677], [94.85275, 27.54497], [94.84149, 27.53199], [94.83777, 27.52941], [94.82401, 27.51985], [94.82139, 27.51802], [94.81698, 27.51496], [94.8201, 27.50542], [94.81065, 27.49901], [94.79813, 27.4905], [94.79408, 27.48174], [94.79067, 27.48213], [94.78548, 27.48271], [94.7782, 27.48475], [94.77326, 27.48303], [94.77315, 27.48299], [94.76176, 27.47098], [94.75864, 27.46401], [94.7582, 27.46338], [94.7534, 27.4565], [94.75298, 27.45449], [94.75097, 27.44483], [94.74521, 27.43506], [94.74156, 27.43614], [94.74105, 27.43659], [94.73967, 27.43779], [94.73821, 27.43906], [94.73452, 27.44036], [94.73138, 27.44134], [94.72836, 27.44024], [94.72818, 27.44017], [94.72795, 27.44009], [94.72744, 27.4399], [94.72736, 27.43987], [94.72702, 27.43911], [94.7267, 27.43838], [94.72649, 27.4379], [94.72561, 27.43591], [94.72195, 27.42758], [94.72176, 27.42715], [94.72167, 27.42693], [94.72149, 27.4269], [94.72104, 27.42682], [94.72035, 27.42669], [94.71771, 27.4262], [94.70965, 27.4247], [94.70814, 27.42442], [94.69914, 27.42274], [94.69666, 27.42148], [94.69175, 27.41897], [94.68759, 27.40997], [94.68861, 27.40005], [94.69073, 27.38974], [94.68751, 27.38486], [94.68644, 27.38321], [94.67261, 27.37836], [94.67129, 27.3779], [94.66853, 27.37733], [94.66392, 27.37637], [94.66339, 27.37194], [94.66334, 27.3713], [94.66682, 27.36332], [94.66698, 27.35699], [94.66504, 27.34914], [94.6547, 27.34499], [94.64507, 27.34112], [94.64448, 27.34088], [94.64361, 27.34053], [94.64053, 27.33748], [94.63973, 27.33522], [94.63835, 27.33133], [94.64082, 27.32546], [94.63645, 27.3199], [94.63341, 27.32036], [94.62087, 27.33247], [94.61824, 27.33171], [94.61626, 27.33112], [94.61522, 27.33081], [94.61505, 27.33051], [94.6146, 27.33041], [94.61368, 27.32994], [94.61282, 27.32945], [94.61233, 27.3288], [94.61214, 27.3283], [94.61212, 27.32801], [94.61187, 27.32742], [94.61174, 27.32716], [94.61168, 27.32657], [94.61191, 27.32571], [94.61228, 27.32454], [94.61239, 27.32413], [94.61108, 27.32098], [94.61455, 27.31474], [94.61361, 27.31205], [94.61227, 27.30825], [94.61388, 27.30564], [94.60877, 27.2982], [94.60525, 27.29307], [94.60082, 27.28662], [94.59341, 27.27433], [94.58945, 27.26979], [94.58937, 27.26411], [94.58624, 27.26291], [94.58033, 27.26112], [94.57513, 27.26117], [94.57062, 27.26061], [94.56677, 27.25724], [94.56521, 27.24488], [94.56059, 27.23658], [94.55774, 27.23104], [94.55602, 27.23007], [94.54867, 27.22588], [94.54291, 27.22264], [94.54759774500008, 27.220945467000035], [94.54966, 27.2202], [94.55408, 27.21862], [94.55833160900005, 27.21436839100005], [94.56092, 27.21178], [94.5609717577442, 27.211738539251026], [94.56200448511413, 27.21091126884138], [94.56851, 27.2057], [94.57459, 27.19963], [94.57467745600007, 27.199209334332096], [94.57590151883971, 27.19332155977626], [94.57838, 27.1814], [94.57892448807685, 27.179858477835026], [94.58297192200007, 27.168399623000028], [94.5875, 27.15558], [94.59099, 27.14471], [94.59132, 27.14372], [94.59167, 27.14265], [94.59262, 27.13971], [94.59356, 27.13685], [94.59425453800009, 27.134638047000067], [94.59448, 27.13392], [94.59617, 27.13551], [94.59813, 27.13735], [94.59884764439998, 27.13823074539998], [94.60033, 27.14005], [94.60415, 27.14476], [94.61141, 27.15387], [94.61148, 27.1542], [94.61269, 27.15528], [94.62578, 27.17124], [94.62851, 27.17457], [94.65855, 27.20559], [94.67484, 27.22241], [94.69262, 27.23353], [94.69307, 27.23381], [94.69471, 27.235], [94.69613, 27.23603], [94.70142, 27.23988], [94.71019, 27.24412], [94.71229, 27.24514], [94.7136, 27.24577], [94.71456, 27.24559], [94.71899, 27.24476], [94.71924, 27.24465], [94.72073, 27.24458], [94.72087, 27.24464], [94.72094, 27.24458], [94.72092, 27.24397], [94.7206, 27.24357], [94.7203, 27.2432], [94.71942, 27.24213], [94.71982, 27.24117], [94.71956, 27.23994], [94.71951, 27.23972], [94.71824, 27.23768], [94.71819, 27.2376], [94.7164, 27.23587], [94.71536, 27.23551], [94.71446, 27.23525], [94.714, 27.23477], [94.71246, 27.23332], [94.71297, 27.23282], [94.71376, 27.23128], [94.714, 27.23081], [94.71459, 27.22965], [94.71513, 27.22872], [94.71518, 27.22864], [94.71613, 27.22705], [94.71631, 27.22594], [94.71879, 27.22726], [94.72364, 27.22982], [94.72463, 27.23034], [94.72522, 27.23065], [94.7268, 27.23114], [94.72818, 27.23114], [94.72975, 27.23111], [94.73067, 27.2313], [94.7315, 27.23211], [94.73269, 27.23347], [94.73328, 27.23415], [94.7339, 27.23486], [94.73528, 27.23638], [94.73611, 27.23593], [94.73732, 27.23571], [94.73836, 27.23577], [94.73907, 27.23581], [94.74137, 27.23593], [94.74364, 27.23587], [94.74365, 27.23587], [94.74556, 27.23558], [94.74687, 27.23538], [94.74554, 27.2338], [94.74438, 27.23114], [94.74272, 27.22941], [94.74254, 27.22846], [94.74208, 27.22759], [94.74149, 27.227], [94.7411, 27.22624], [94.74112, 27.22611], [94.74113, 27.22608], [94.74136, 27.22488], [94.74016, 27.22348], [94.74008, 27.22342], [94.73935, 27.22277], [94.73947, 27.22181], [94.73978, 27.22124], [94.73967, 27.22107], [94.73911, 27.2202], [94.73709, 27.21787], [94.73524, 27.21489], [94.73361, 27.2124], [94.73357, 27.21232], [94.73243, 27.21019], [94.73523, 27.20921], [94.73613, 27.20893], [94.73777, 27.20841], [94.73858, 27.20748], [94.74052, 27.20786], [94.74222, 27.20792], [94.74292, 27.20814], [94.74342, 27.20845], [94.74397, 27.20882], [94.74454, 27.20911], [94.74512, 27.20923], [94.74607, 27.20942], [94.74652, 27.2096], [94.74837, 27.21033], [94.75129, 27.21129], [94.75179, 27.21163], [94.75224, 27.21231], [94.75245, 27.21259], [94.75285, 27.21307], [94.75347, 27.21356], [94.75514, 27.21424], [94.75586, 27.21446], [94.7565, 27.21461], [94.7604, 27.21812], [94.76105, 27.2189], [94.76201, 27.22008], [94.76221, 27.22032], [94.76364, 27.22166], [94.76109, 27.22259], [94.76009, 27.22295], [94.75785, 27.22349], [94.75479, 27.22415], [94.75168, 27.22391], [94.75064, 27.22412], [94.75243, 27.22684], [94.75347, 27.22758], [94.75431, 27.22839], [94.75483, 27.2289], [94.75497, 27.22945], [94.75513, 27.23005], [94.75541, 27.23071], [94.75567, 27.23099], [94.75635, 27.23172], [94.75852, 27.23403], [94.75974, 27.2361], [94.76174, 27.23835], [94.7623, 27.23931], [94.76234, 27.23937], [94.76286, 27.23981], [94.76414, 27.24197], [94.76568, 27.24459], [94.76611, 27.24532], [94.7672, 27.24483], [94.76898, 27.24402], [94.77045, 27.24335], [94.77385, 27.2418], [94.77794, 27.23879], [94.77797, 27.23877], [94.77784, 27.23845], [94.77726, 27.23707], [94.77666, 27.23563], [94.77138, 27.22295], [94.7709, 27.2205], [94.77011, 27.21649], [94.77014, 27.21647], [94.77273, 27.2148], [94.77305, 27.21459], [94.77361, 27.21424], [94.77428, 27.21381], [94.7753, 27.21315], [94.7762, 27.21257], [94.77641, 27.21121], [94.77659, 27.20999], [94.7766, 27.20994], [94.77681, 27.20854], [94.77708, 27.20678], [94.77726, 27.20562], [94.77756, 27.20364], [94.77773, 27.20311], [94.77886, 27.19961], [94.77894, 27.19938], [94.77922, 27.1985], [94.77953, 27.19542], [94.7797, 27.19371], [94.7797, 27.19366], [94.77978, 27.19287], [94.77994, 27.19122], [94.77997, 27.19092], [94.77564, 27.18894], [94.77343, 27.18423], [94.77462, 27.18041], [94.77459, 27.17967], [94.77436, 27.17453], [94.7797, 27.17176], [94.7789, 27.17136], [94.77794, 27.17087], [94.7764, 27.1701], [94.77538, 27.16845], [94.77429, 27.16668], [94.77424, 27.16659], [94.77375, 27.16579], [94.77367, 27.16567], [94.77243, 27.16447], [94.7712, 27.16327], [94.77124, 27.16236], [94.7713, 27.16115], [94.77134, 27.16039], [94.76645, 27.15765], [94.766, 27.1574], [94.76446, 27.15477], [94.76443, 27.15472], [94.76345, 27.15304], [94.76311, 27.15295], [94.76246, 27.15277], [94.76201, 27.15264], [94.75648, 27.15106], [94.76084, 27.14942], [94.7608, 27.14929], [94.76029, 27.14746], [94.76018, 27.14708], [94.75998, 27.14637], [94.75936, 27.14414], [94.75925, 27.14376], [94.75902, 27.14294], [94.75893, 27.1426], [94.75997, 27.14042], [94.76015, 27.13923], [94.76047, 27.13882], [94.76077, 27.13844], [94.76227, 27.13651], [94.76345, 27.13499], [94.76394, 27.13401], [94.76413, 27.13362], [94.76451, 27.13286], [94.76571, 27.13045], [94.76609, 27.12968], [94.76626, 27.12933], [94.77199, 27.12563], [94.77222, 27.12557], [94.77602, 27.12454], [94.77606, 27.12453], [94.7786, 27.12385], [94.78062, 27.1233], [94.78178, 27.12299], [94.78185, 27.12297], [94.78306, 27.12264], [94.78754, 27.12143], [94.78845, 27.12119], [94.79004, 27.12076], [94.79097, 27.12051], [94.79102, 27.1205], [94.79298, 27.11997], [94.79493, 27.11945], [94.79631, 27.11908], [94.79876, 27.11954], [94.79964, 27.1197], [94.80078, 27.11991], [94.80156, 27.12005], [94.80291, 27.11958], [94.8042, 27.11913], [94.80706, 27.11814], [94.80742, 27.11802], [94.80817, 27.11776], [94.80826, 27.11768], [94.80902, 27.11703], [94.81, 27.1162], [94.81074, 27.11557], [94.81268, 27.11528], [94.81327, 27.11519], [94.81641, 27.11471], [94.81677, 27.11466], [94.81761, 27.11453], [94.81895, 27.11433], [94.81913, 27.1143], [94.81896, 27.11379], [94.81727, 27.10869], [94.81628, 27.108], [94.81526, 27.10728], [94.81328, 27.1059], [94.81311, 27.10398], [94.81305, 27.10329], [94.81283, 27.10084], [94.81266, 27.09899], [94.81862, 27.10008], [94.81659, 27.09655], [94.81671, 27.09452], [94.81657, 27.09353], [94.81618, 27.09084], [94.81596, 27.08928], [94.81569, 27.08743], [94.81542, 27.08679], [94.81905, 27.08698], [94.82324, 27.08772], [94.8318, 27.09122], [94.82932, 27.09352], [94.82645, 27.0941], [94.82344, 27.09563], [94.82271, 27.09725], [94.82516, 27.09986], [94.82544, 27.10016], [94.82623, 27.09926], [94.82797, 27.09725], [94.82941, 27.09558], [94.83234065600004, 27.094826134000073], [94.83496833600003, 27.094150203000027], [94.83552733600004, 27.09400640900003], [94.83563, 27.09398], [94.83751, 27.09423], [94.83783, 27.09427], [94.83868120800008, 27.094387647000076], [94.84152, 27.09478], [94.84161846400008, 27.095001007000064], [94.84336, 27.09891], [94.84404, 27.10045], [94.84439, 27.10124], [94.84471, 27.10196], [94.84543, 27.10356], [94.84594, 27.10471], [94.84617, 27.10523], [94.84647, 27.10591], [94.84696, 27.107], [94.84749510600005, 27.108211030000064], [94.84753, 27.10829], [94.84801, 27.10887], [94.84843, 27.10938], [94.84939, 27.11054], [94.84984, 27.11108], [94.85036, 27.11172], [94.85071, 27.11215], [94.85079, 27.11224], [94.85091, 27.11238], [94.85096, 27.11244], [94.85129, 27.11284], [94.85229, 27.11405], [94.85517, 27.11752], [94.85529, 27.1177], [94.8554, 27.11785], [94.85652, 27.11943], [94.85656, 27.11949], [94.85674, 27.11974], [94.85687, 27.11992], [94.85695, 27.12004], [94.85883, 27.12269], [94.85901, 27.12294], [94.86217, 27.1274], [94.86231, 27.1276], [94.86414, 27.13018], [94.86444333400004, 27.130608068000072], [94.86521, 27.13169], [94.86635, 27.13332], [94.86671, 27.13375], [94.8669, 27.13398], [94.86801, 27.13529], [94.87168, 27.13965], [94.87268, 27.14083], [94.87397, 27.14236], [94.87434, 27.1428], [94.87618, 27.14498], [94.8769, 27.14586], [94.87799, 27.14718], [94.87833, 27.14759], [94.87869, 27.14803], [94.87958, 27.14911], [94.88098, 27.1508], [94.88168, 27.15165], [94.88316, 27.15344], [94.88460324300007, 27.155188027000065], [94.88477, 27.15539], [94.88538, 27.15613], [94.8857, 27.15652], [94.88595, 27.15682], [94.88735998100003, 27.15799071200007], [94.8876, 27.15819], [94.88986, 27.16007], [94.8901, 27.16027], [94.89035, 27.16049], [94.89086, 27.16092], [94.89239, 27.16219], [94.89383, 27.16339], [94.89443, 27.16389], [94.8951, 27.16445], [94.89645, 27.16557], [94.89839, 27.16719], [94.89866, 27.16741], [94.89879, 27.16752], [94.89947, 27.16809], [94.90072, 27.16913], [94.90223, 27.17039], [94.90266, 27.17075], [94.9029, 27.17095], [94.90301, 27.17104], [94.90533, 27.17297], [94.90591, 27.17346], [94.90603, 27.17356], [94.90662, 27.17405], [94.90717, 27.17451], [94.90752, 27.1748], [94.90802, 27.17521], [94.90909, 27.17611], [94.90979, 27.17669], [94.91095, 27.17765], [94.91139, 27.17802], [94.91154, 27.17815], [94.91182, 27.17838], [94.91248, 27.17893], [94.91261, 27.17904], [94.91318, 27.17951], [94.91367, 27.17992], [94.91412, 27.18029], [94.91448, 27.18059], [94.91476, 27.18082], [94.91511, 27.18112], [94.91516, 27.18116], [94.91564, 27.18156], [94.91624, 27.18206], [94.91766, 27.18325], [94.91831, 27.18379], [94.91847, 27.18392], [94.919, 27.18436], [94.92004, 27.18523], [94.92132, 27.18629], [94.92342, 27.18804], [94.92554, 27.1898], [94.92579095700006, 27.19008999400006], [94.92644, 27.19084], [94.92651, 27.19084], [94.92656, 27.19081], [94.92735325300004, 27.191591715000072], [94.92931, 27.19352], [94.93018, 27.19438], [94.93029, 27.19449], [94.93068, 27.19488], [94.93124, 27.19544], [94.93286, 27.19704], [94.93374, 27.19791], [94.93564, 27.19978], [94.93752, 27.20011], [94.93895, 27.20036], [94.94674, 27.2017], [94.95263, 27.20272], [94.95719023200007, 27.20234132300004], [94.95829, 27.20225], [94.95831170700006, 27.202239960000043], [94.95834726500004, 27.202223659000026], [94.95984167300008, 27.20153890200004], [94.95990608500006, 27.201502495000057], [94.96136, 27.20083], [94.96325, 27.1987], [94.96324798100005, 27.198679808000065], [94.96324, 27.1986], [94.96325, 27.19563], [94.96328, 27.19363], [94.96326, 27.19127], [94.96325, 27.19017], [94.96325, 27.18997], [94.96358, 27.18883], [94.96388, 27.1878], [94.964, 27.18738], [94.96442, 27.18594], [94.96504, 27.18379], [94.96554, 27.18208], [94.96589917800009, 27.180850273000033], [94.96613, 27.18006], [94.96708, 27.17678], [94.96755, 27.17516], [94.96804, 27.17346], [94.96822, 27.17284], [94.96868, 27.17109], [94.96913, 27.16936], [94.96931, 27.16868], [94.96985343500006, 27.16661494500005], [94.97091, 27.1626], [94.97158, 27.16004], [94.97177496800003, 27.159697428000072], [94.97335, 27.15693], [94.9742, 27.15544], [94.97562, 27.15296], [94.97707, 27.15042], [94.97968, 27.14584], [94.98018, 27.14522], [94.98127, 27.14387], [94.98282, 27.14197], [94.98421459000008, 27.14024547100007], [94.98692, 27.1369], [94.99319, 27.13316], [94.99333, 27.13308], [94.99591, 27.1335], [95.00101, 27.13432], [95.00178667100005, 27.13444811100004], [95.00198, 27.13448], [95.0029, 27.13478], [95.00571813200008, 27.135699601000056], [95.01093569600005, 27.13759096800004], [95.01527470300005, 27.140173711000045], [95.01566044300006, 27.14047808400005], [95.01655, 27.14118], [95.01691, 27.14146], [95.02015294900008, 27.142542744000025], [95.02305, 27.14351], [95.02353834600007, 27.14351], [95.0241, 27.14351], [95.02507, 27.14351], [95.02577653100008, 27.14351], [95.03260782700005, 27.14334926400005], [95.03845676300006, 27.138962562000074], [95.04206, 27.13611], [95.04332, 27.13583], [95.04808, 27.13477], [95.04933, 27.13409], [95.05546, 27.13078], [95.05963, 27.12852], [95.06373, 27.12603], [95.06459, 27.12572], [95.06735, 27.12415], [95.06766, 27.12312], [95.07375, 27.12322], [95.07505, 27.12324], [95.08262, 27.12336], [95.08944, 27.12347], [95.09337, 27.12353], [95.09554, 27.12356], [95.09603, 27.12362], [95.09707489900006, 27.12375256200005], [95.09737, 27.12379], [95.09953, 27.12406], [95.10046, 27.12418], [95.10275, 27.12447], [95.10741, 27.12506], [95.10835, 27.12518], [95.11136, 27.12556], [95.11149, 27.12561], [95.11207, 27.12585], [95.11437, 27.12678], [95.11510008500005, 27.12707692500004], [95.11646, 27.12763], [95.1213, 27.12959], [95.12302, 27.13029], [95.12305, 27.13024], [95.12513342000005, 27.13070298200006], [95.12557, 27.1308], [95.12634, 27.13097], [95.12636942700004, 27.131202146000078], [95.12643, 27.13168], [95.12748, 27.13211], [95.12931, 27.13285], [95.13063604700005, 27.133384377000027], [95.13065, 27.13339], [95.13104, 27.13355], [95.13282, 27.13427], [95.13383, 27.13468], [95.13598089000004, 27.135431338000046], [95.13675, 27.1357], [95.13957, 27.13668], [95.14014, 27.13688], [95.14055, 27.13711], [95.14093766500008, 27.137329677000025], [95.14145, 27.13762], [95.14506911900008, 27.139689347000058], [95.14549, 27.13993], [95.14566, 27.14003], [95.15191, 27.14359], [95.16048, 27.14847], [95.16265968400006, 27.14984841300003], [95.16437, 27.15093], [95.16536, 27.15155], [95.16718, 27.15269], [95.17698, 27.15887], [95.17866, 27.15993], [95.17872, 27.15997], [95.18144, 27.16168], [95.18216, 27.16213], [95.184, 27.16329], [95.18651, 27.16487], [95.19118, 27.16782], [95.19629, 27.17104], [95.20047, 27.17367], [95.20133, 27.17421], [95.20206, 27.17467], [95.20313, 27.17534], [95.2039, 27.17583], [95.20643, 27.17742], [95.2154, 27.18307], [95.22261, 27.18761], [95.23509, 27.19546], [95.23932, 27.19644], [95.24000453000008, 27.19659744300003], [95.24632, 27.19805], [95.25044, 27.199], [95.25135, 27.199], [95.25491, 27.199], [95.25936, 27.199], [95.26219745100008, 27.199], [95.26238, 27.199], [95.26343, 27.199], [95.26407588100005, 27.19890448700005], [95.27452, 27.19736], [95.27759, 27.19691], [95.28141, 27.19634], [95.28209, 27.19624], [95.28225733800008, 27.196262018000027], [95.28369478800005, 27.196451156000023], [95.28437, 27.19654], [95.28623, 27.19678], [95.28712, 27.1969], [95.28781, 27.19699], [95.28986, 27.19635], [95.29308, 27.19535], [95.29362837400004, 27.19517863300007], [95.29388, 27.1951], [95.29406, 27.19508], [95.29784, 27.19465], [95.29858, 27.19457], [95.29852, 27.194], [95.29936, 27.19357], [95.29984715200004, 27.193326424000077], [95.30036, 27.19307], [95.30036990300005, 27.19306853300003], [95.3009, 27.19299], [95.30188, 27.19285], [95.30340158100006, 27.192633251000075], [95.30539, 27.19235], [95.30874, 27.19281], [95.31074, 27.19309], [95.3112, 27.19315], [95.31163, 27.19321], [95.31164141000005, 27.193211572000052], [95.31301637100006, 27.193388352000056], [95.31411926100009, 27.19425490800006], [95.31455331900008, 27.19459595400008], [95.31458, 27.19461], [95.31564265400004, 27.192321942000035], [95.31569, 27.19222], [95.31712, 27.19046], [95.31969, 27.18729], [95.31971508900006, 27.187278596000056], [95.31991, 27.18719], [95.31998, 27.18718], [95.32015, 27.18717], [95.32091, 27.18682], [95.32145, 27.18684], [95.32173, 27.18685], [95.32415355600006, 27.18694295800003], [95.32538, 27.18699], [95.32574, 27.187], [95.32689, 27.18704], [95.32897, 27.18712], [95.3291, 27.18709], [95.32978, 27.18693], [95.33017, 27.18684], [95.33264, 27.18627], [95.33377, 27.18601], [95.33385374700003, 27.185916401000043], [95.33394, 27.18582], [95.33408198100005, 27.185767691000024], [95.33413, 27.18575], [95.33418764000004, 27.185755012000072], [95.33436, 27.18577], [95.33441180900007, 27.18572811100006], [95.3353, 27.18501], [95.33651818700008, 27.184015405000025], [95.33685954900005, 27.183736698000075], [95.34254515500004, 27.181567745000052], [95.34312, 27.18135], [95.3442, 27.18094], [95.34422190700008, 27.180928094000024], [95.34556673700007, 27.17763463400007], [95.34558812700004, 27.177609148000045], [95.34556966100007, 27.17757083400005], [95.34542083900004, 27.17726205500003], [95.34495, 27.17629], [95.34392, 27.17416], [95.34445, 27.17232], [95.34603, 27.17149], [95.34655, 27.17123], [95.34684, 27.17108], [95.35198, 27.17027], [95.35317306100006, 27.170057284000052], [95.35327, 27.17004], [95.35354, 27.17], [95.35677, 27.16826], [95.35734161600004, 27.167954482000027], [95.35774, 27.16774], [95.35775254000004, 27.167726807000065], [95.35843275100007, 27.16486779400003], [95.35857, 27.1643], [95.35884, 27.16318], [95.35932, 27.16121], [95.35953, 27.16033], [95.35903564900008, 27.159205238000027], [95.35844, 27.15785], [95.35908, 27.15642], [95.35978, 27.15486], [95.35986, 27.15469], [95.36003, 27.15429], [95.36007707500005, 27.154185050000024], [95.36112, 27.15186], [95.36158, 27.15137], [95.36242, 27.15034], [95.36276186500004, 27.149770226000044], [95.36293, 27.14949], [95.36357, 27.14872], [95.36447, 27.14765], [95.36546, 27.14647], [95.36573540600006, 27.14510246900005], [95.36575, 27.14503], [95.36591363000008, 27.14477243400006], [95.36630353000004, 27.14420258000007], [95.36633997200005, 27.143975350000062], [95.3665, 27.14332], [95.36667, 27.14219], [95.36677, 27.14141], [95.36685029300008, 27.14079335400004], [95.36702, 27.13949], [95.36735382700004, 27.13842536100003], [95.36739559300008, 27.138265261000072], [95.3674, 27.13823], [95.36756802700006, 27.13668238100007], [95.36757625300004, 27.136287543000037], [95.36756, 27.13606], [95.36755, 27.13575], [95.36753, 27.13532], [95.36748, 27.13521], [95.36727, 27.13365], [95.36461, 27.12746], [95.36371, 27.12621], [95.36302, 27.12525], [95.36288916100006, 27.125066826000023], [95.36215885900003, 27.124044404000074], [95.36212, 27.12399], [95.36314, 27.12086], [95.36421713000004, 27.117638060000047], [95.36428390700007, 27.117340597000066], [95.36429, 27.11717], [95.36448, 27.11601], [95.36497720000006, 27.115512800000033], [95.36499, 27.1155], [95.36559, 27.1152], [95.36635, 27.11497], [95.36658, 27.11497], [95.36961908200004, 27.113380326000026], [95.37048, 27.11293], [95.37112, 27.11259], [95.37158, 27.11235], [95.37181, 27.11152], [95.37190941600005, 27.111160045000076], [95.37192772000009, 27.11107799800004], [95.37206043400005, 27.110602442000072], [95.37215602600008, 27.110259902000053], [95.37218, 27.11017], [95.37165020600008, 27.109057122000024], [95.37110334700009, 27.10790839200007], [95.37049, 27.10662], [95.37022, 27.10605], [95.36996578800006, 27.10552129000007], [95.36938, 27.10427], [95.36935979800006, 27.10426349100004], [95.36821860200007, 27.104092862000073], [95.36716, 27.10393], [95.36649, 27.10383], [95.36658, 27.1034], [95.36664700600005, 27.103104389000066], [95.36672385100007, 27.102765369000053], [95.36699936900004, 27.10147310800005], [95.36887919900005, 27.101697022000053], [95.37009192800008, 27.10184147600006], [95.37017722500008, 27.101851531000023], [95.37156857800005, 27.10201775200005], [95.37165584100006, 27.102025493000042], [95.37235, 27.10211], [95.37234637700004, 27.10208675100006], [95.37199, 27.0998], [95.37196177100003, 27.09868025700007], [95.37196, 27.09861], [95.37194, 27.09836], [95.37172, 27.09806], [95.37149243300007, 27.096612425000046], [95.37136, 27.09577]]]}}]}