{"type": "FeatureCollection", "features": [{"type": "Feature", "properties": {"Name": "Dima Hasao"}, "geometry": {"type": "Polygon", "coordinates": [[[93.14384, 25.71317], [93.14385797900007, 25.713266141000076], [93.14388567172594, 25.71341422354502], [93.14401542441996, 25.714108059003582], [93.14479, 25.71825], [93.14497, 25.71922], [93.14517, 25.71952], [93.14751, 25.723], [93.14758, 25.7231], [93.1492, 25.72979], [93.14945, 25.73327], [93.14966, 25.7362], [93.1498, 25.73778], [93.14757, 25.73768], [93.1473410667793, 25.737670258160822], [93.14663, 25.73764], [93.14491, 25.73878], [93.14351, 25.73971], [93.14171, 25.7409], [93.13953, 25.74235], [93.1394, 25.74245], [93.13199, 25.74735], [93.13167, 25.74768], [93.13006, 25.74932], [93.12905, 25.75035], [93.13102, 25.75612], [93.13106, 25.75623], [93.13079845369842, 25.757986096596316], [93.13063, 25.75919], [93.13029, 25.76145], [93.12769, 25.76283], [93.12593682600004, 25.762784815000032], [93.12575, 25.76278], [93.12371, 25.76272], [93.12364, 25.76276], [93.12218, 25.76359], [93.12187, 25.76377], [93.11915644300007, 25.765337738000028], [93.10919739200006, 25.771134955000036], [93.10894452800005, 25.771662481000078], [93.10783, 25.77416], [93.1077, 25.77446], [93.10315, 25.77344], [93.10196, 25.77317], [93.10172, 25.77312], [93.10166812502074, 25.77314251178345], [93.10066, 25.77358], [93.09954, 25.77406], [93.09879, 25.77439], [93.09634, 25.77387], [93.08682, 25.77185], [93.08597, 25.77076], [93.08393, 25.76815], [93.08023, 25.76342], [93.07431, 25.76696], [93.07129158875311, 25.767075830679904], [93.06990107900003, 25.767129192000027], [93.06865709100003, 25.77068594600007], [93.06988294101421, 25.773106215258753], [93.07002717000006, 25.77339097500004], [93.0700657341761, 25.77346017889592], [93.07036, 25.77403], [93.07132871900006, 25.774830464000047], [93.0662, 25.77672], [93.06196, 25.77828], [93.05447, 25.77971], [93.05412, 25.77978], [93.05384, 25.77983], [93.05282, 25.78003], [93.05234, 25.78026], [93.05152, 25.78065], [93.0508, 25.781], [93.03614, 25.788], [93.03591, 25.78811], [93.03451, 25.7888], [93.0322, 25.78994], [93.02943, 25.79131], [93.02726, 25.79395], [93.02648, 25.7949], [93.02562, 25.79594], [93.02444733162052, 25.7959551312049], [93.02407, 25.79596], [93.02274, 25.79598], [93.01993, 25.79603], [93.01906, 25.79604], [93.01903891500007, 25.796000580000054], [93.01623985300006, 25.790103525000063], [93.01584822700005, 25.790200064000032], [93.01100265600007, 25.79145156900006], [93.00972116700007, 25.79178254900006], [93.00616182900006, 25.80679180800007], [92.99865719900004, 25.81999995700005], [92.99526973000008, 25.82162353600006], [92.99448, 25.82201], [92.99422, 25.82214], [92.99194, 25.82325], [92.9914, 25.82352], [92.99076552200006, 25.82299439700006], [92.98971, 25.82212], [92.98968, 25.82208], [92.98807, 25.81988], [92.98801, 25.8198], [92.98683, 25.81668], [92.98564, 25.81354], [92.98522490452963, 25.81243884396055], [92.98492, 25.81163], [92.98403389200007, 25.80930023289905], [92.98403, 25.80929], [92.98403389200007, 25.809173239998014], [92.9841187522089, 25.806627433732945], [92.98412, 25.80659], [92.98672151736194, 25.804216450654305], [92.988, 25.80305], [92.98961617889964, 25.796370984436855], [92.98981, 25.79557], [92.98980569200006, 25.79554660100007], [92.98937, 25.79318], [92.98901, 25.79123], [92.98823, 25.78698], [92.98725190700009, 25.78600190700007], [92.98696, 25.78571], [92.98587, 25.78461], [92.98476, 25.7835], [92.98386, 25.78431], [92.98374805600008, 25.784411010000042], [92.98158952700004, 25.78650786700007], [92.98304860500008, 25.790593305000073], [92.98307967800008, 25.79068028900008], [92.98293344955557, 25.790811390285796], [92.9825, 25.7912], [92.98198, 25.79095], [92.98189, 25.79091], [92.98111, 25.79054], [92.97967, 25.78986], [92.97866983616709, 25.789385503669966], [92.97752, 25.78884], [92.97532, 25.7878], [92.97489708591942, 25.787475119911146], [92.97161, 25.78495], [92.97042560031147, 25.78451133344869], [92.97016269400007, 25.784425487000078], [92.96971077000006, 25.78427792000008], [92.96908613699766, 25.784578669704914], [92.96864, 25.78481], [92.96851363182988, 25.785404983467664], [92.96846714600008, 25.786079031000043], [92.96921712210766, 25.787469895490485], [92.97088, 25.79035], [92.97081462900007, 25.790432544000055], [92.96852, 25.79333], [92.96749, 25.79403], [92.96478394615731, 25.795865949121158], [92.95752937000003, 25.800803475000066], [92.95748, 25.80186], [92.95734429400005, 25.804917386000056], [92.95731741100008, 25.805676835000043], [92.95791327200004, 25.806883454000058], [92.95848, 25.80801], [92.95894, 25.80892], [92.963122616279, 25.812751542843124], [92.96585, 25.81525], [92.96606525538478, 25.815849640000454], [92.96641, 25.81681], [92.96477, 25.81752], [92.96444, 25.81766], [92.96441666100009, 25.817656013000033], [92.96245, 25.81732], [92.96206, 25.81725], [92.96192, 25.81723], [92.95618, 25.81289], [92.9555, 25.81237], [92.9546, 25.81169], [92.95354, 25.81089], [92.95286095300008, 25.810929944000065], [92.95184, 25.81099], [92.95024, 25.80983], [92.94872, 25.80872], [92.94656, 25.80715], [92.94438, 25.80556], [92.9436, 25.805], [92.94100582579782, 25.805379991714123], [92.94005, 25.80552], [92.93954, 25.80559], [92.93708, 25.80595], [92.93543, 25.80619], [92.93052, 25.80771], [92.93017, 25.80782], [92.93019, 25.80774], [92.93039, 25.80695], [92.9304, 25.80692], [92.93067, 25.80585], [92.93134, 25.80322], [92.93119, 25.80245], [92.93059, 25.79939], [92.9278, 25.78512], [92.92859, 25.78103], [92.9264, 25.77669], [92.92088, 25.771], [92.91624, 25.77029], [92.91571, 25.77021], [92.91412, 25.76997], [92.91317, 25.76925], [92.91004, 25.76688], [92.90594, 25.76495], [92.89800829859672, 25.762690798845327], [92.89137, 25.7608], [92.89102030100008, 25.76061829300005], [92.88627, 25.75815], [92.88473565888714, 25.75788396504898], [92.88131, 25.75729], [92.86887757389472, 25.75513478006522], [92.86885, 25.75513], [92.86608, 25.7543], [92.85726, 25.75166], [92.85636, 25.75139], [92.85491, 25.75139], [92.85277149700005, 25.75139], [92.84974, 25.75139], [92.84772064600008, 25.75078419400006], [92.84754, 25.75073], [92.84658, 25.75054], [92.84636, 25.75049], [92.84599, 25.75043], [92.8454, 25.75025], [92.84463, 25.74998], [92.84346, 25.74956], [92.84286, 25.74926], [92.83916, 25.74954], [92.83742, 25.74967], [92.83453, 25.74757], [92.83404, 25.74676], [92.83285, 25.74479], [92.83158, 25.7441], [92.82936, 25.74397], [92.82792, 25.74389], [92.82591, 25.74295], [92.82225, 25.74124], [92.82107, 25.74019], [92.8209874803176, 25.736963480418105], [92.82097334700006, 25.736410885000055], [92.82097, 25.73628], [92.82311, 25.72829], [92.82288, 25.72547], [92.82076, 25.71989], [92.81905, 25.7154], [92.81813207700009, 25.71298801300003], [92.81811, 25.71293], [92.81573, 25.71095], [92.8137, 25.7067], [92.81156851800006, 25.702237833000027], [92.81156, 25.70222], [92.80697, 25.70114], [92.80543497300005, 25.700772296000025], [92.8036, 25.69796], [92.80181, 25.69521], [92.80115, 25.69419], [92.79914, 25.6911], [92.79760062600008, 25.688879749000023], [92.79758, 25.68885], [92.79474, 25.68847], [92.79241, 25.68816], [92.78933, 25.68578], [92.78154, 25.68183], [92.78053, 25.68132], [92.77822, 25.67945], [92.77693, 25.6784], [92.77664, 25.67817], [92.77686530190465, 25.677674623085306], [92.77789, 25.67538], [92.77824, 25.67461], [92.78385, 25.66856], [92.7857, 25.66505], [92.78713, 25.66235], [92.78769, 25.66129], [92.7873, 25.65576], [92.78055, 25.6474], [92.77943, 25.64644], [92.77617, 25.64365], [92.77333, 25.64122], [92.77164, 25.63977], [92.77093, 25.63822], [92.76909, 25.63422], [92.76805, 25.63337], [92.76487, 25.63078], [92.76250580200008, 25.628857468000035], [92.7624900977922, 25.626266136566542], [92.76249, 25.62625], [92.76664, 25.62222], [92.76674454000005, 25.622115460000032], [92.76693, 25.62193], [92.76709, 25.6199], [92.76714, 25.61929], [92.76620566900004, 25.618114863000073], [92.7652, 25.61685], [92.76401703056835, 25.617284039143982], [92.76242, 25.61787], [92.75966, 25.61662], [92.7561, 25.61501], [92.75474, 25.6144], [92.75198, 25.61315], [92.75039, 25.60849], [92.74989, 25.60704], [92.74975, 25.60662], [92.74983, 25.60644], [92.75043, 25.60519], [92.75104, 25.60393], [92.74955, 25.60041], [92.74608444600005, 25.597754063000025], [92.74076883800006, 25.59547972400003], [92.71884, 25.59026], [92.71789, 25.59025], [92.71536192900004, 25.596954565000033], [92.71447, 25.59932], [92.71068, 25.60009], [92.71003, 25.59994], [92.70828, 25.59954], [92.70527, 25.59973], [92.70213, 25.59993], [92.70197, 25.59994], [92.69819623000006, 25.598787177000077], [92.69814, 25.59877], [92.69712, 25.59846], [92.69468, 25.59677], [92.69085, 25.59413], [92.69056, 25.59384], [92.68141, 25.58476], [92.68067, 25.58153], [92.68423, 25.57932], [92.68357, 25.57838], [92.68261, 25.57701], [92.68221, 25.57691], [92.67252, 25.57451], [92.66882, 25.57359], [92.66629, 25.57322], [92.66593, 25.57344], [92.66497, 25.57401], [92.66434, 25.57302], [92.66376, 25.57211], [92.6636, 25.57186], [92.66354, 25.57213], [92.66336, 25.57294], [92.66274, 25.57572], [92.66037, 25.57972], [92.66032, 25.57233], [92.66031, 25.57158], [92.66028, 25.56821], [92.65813, 25.56366], [92.657, 25.56126], [92.64953, 25.5579], [92.6492, 25.55701], [92.6446, 25.54449], [92.64431, 25.53533], [92.64369, 25.53455], [92.6429, 25.53355], [92.63858, 25.52811], [92.63726, 25.52645], [92.63417, 25.5245], [92.62723, 25.52012], [92.62535, 25.5181], [92.62153, 25.51399], [92.62124, 25.51367], [92.61239, 25.51137], [92.60922, 25.51055], [92.60523, 25.50607], [92.59323, 25.50105], [92.59107, 25.49916], [92.58916, 25.49749], [92.58579, 25.49576], [92.58069, 25.49314], [92.57525, 25.48842], [92.56746, 25.47877], [92.56619, 25.47312], [92.56702, 25.46547], [92.56787, 25.46415], [92.56824, 25.46357], [92.56875, 25.46278], [92.57109, 25.46206], [92.58184, 25.47079], [92.58192, 25.47086], [92.58263, 25.46966], [92.58453, 25.46643], [92.58487, 25.46586], [92.58505, 25.46555], [92.59329, 25.46897], [92.59677, 25.46946], [92.59767, 25.46959], [92.59776, 25.4696], [92.59788, 25.46932], [92.60024, 25.46379], [92.60097, 25.46208], [92.59935, 25.45499], [92.59976, 25.45182], [92.60071, 25.45033], [92.60098, 25.45015], [92.60259, 25.4491], [92.604, 25.44818], [92.60407, 25.44813], [92.60465, 25.4471], [92.6051, 25.4463], [92.60485, 25.43985], [92.60729, 25.42829], [92.60703, 25.42724], [92.6065, 25.42511], [92.6065, 25.42425], [92.60653, 25.41648], [92.60827, 25.41482], [92.60862, 25.41448], [92.60958, 25.41433], [92.61047, 25.41419], [92.61134, 25.41405], [92.61429, 25.41535], [92.6174, 25.41994], [92.61877, 25.42078], [92.61923, 25.42107], [92.62015, 25.42163], [92.62039, 25.42167], [92.62174, 25.42189], [92.62695, 25.42274], [92.628, 25.42291], [92.62814, 25.42293], [92.62881, 25.42489], [92.62803, 25.42851], [92.62829, 25.42985], [92.62875, 25.43221], [92.62881, 25.43254], [92.62966, 25.43216], [92.63104, 25.43154], [92.63132, 25.43141], [92.63216, 25.43103], [92.63354, 25.4299], [92.63479, 25.42887], [92.63743, 25.42671], [92.63742, 25.42054], [92.63871, 25.41825], [92.63896, 25.41776], [92.63909, 25.4175], [92.64034, 25.41744], [92.64112, 25.41741], [92.65002, 25.42953], [92.65348, 25.43293], [92.65376, 25.43321], [92.65367, 25.43156], [92.65311, 25.4218], [92.65633, 25.41354], [92.65906, 25.40901], [92.65954, 25.40821], [92.66026, 25.40801], [92.66313, 25.40721], [92.66336, 25.40753], [92.66452, 25.40916], [92.66649, 25.41192], [92.67023, 25.41445], [92.67038, 25.41455], [92.67254, 25.41488], [92.67321, 25.41498], [92.6753, 25.41212], [92.67634, 25.41069], [92.67911, 25.40689], [92.67947, 25.4064], [92.68421, 25.40395], [92.6871, 25.40246], [92.68756, 25.40222], [92.68834, 25.40157], [92.69064, 25.39966], [92.6929, 25.39778], [92.69531, 25.39348], [92.69939, 25.38621], [92.69974, 25.38558], [92.70006, 25.38543], [92.70019, 25.38537], [92.70187, 25.38459], [92.70228, 25.3844], [92.70908, 25.38389], [92.71031, 25.38328], [92.71067, 25.3831], [92.71098, 25.38294], [92.71102, 25.38292], [92.71225, 25.3823], [92.7157, 25.3771], [92.71733, 25.37302], [92.71744, 25.37274], [92.71898, 25.37268], [92.7199, 25.37265], [92.72071, 25.37324], [92.72273, 25.3757], [92.72476, 25.37817], [92.73202, 25.37976], [92.73312, 25.38], [92.73319, 25.38008], [92.7334, 25.38006], [92.73394, 25.38002], [92.73457, 25.37997], [92.73511, 25.37966], [92.73635, 25.37897], [92.73609, 25.37697], [92.7359, 25.37547], [92.7354, 25.37154], [92.73753, 25.36818], [92.73758, 25.36819], [92.73777, 25.36792], [92.7377, 25.36792], [92.73914, 25.36565], [92.73987, 25.3645], [92.73938, 25.36236], [92.73989, 25.36144], [92.74301, 25.35984], [92.74496, 25.35884], [92.74591, 25.35771], [92.74693, 25.35649], [92.7475, 25.35581], [92.74796, 25.35488], [92.74818, 25.35445], [92.74843, 25.35395], [92.74936, 25.35209], [92.7495, 25.3513], [92.74951, 25.35129], [92.74999, 25.35012], [92.74992, 25.34899], [92.75042, 25.34617], [92.75325, 25.34294], [92.75387, 25.34224], [92.75396, 25.3422], [92.75802, 25.33767], [92.75799, 25.33754], [92.75979, 25.33296], [92.76249, 25.33327], [92.76252, 25.33329], [92.7633, 25.33378], [92.76869, 25.33718], [92.76943, 25.3372], [92.77049, 25.33723], [92.77166, 25.33727], [92.78165, 25.33195], [92.78296, 25.33059], [92.78341, 25.33012], [92.78362, 25.3299], [92.78468, 25.32557], [92.78694, 25.31632], [92.7872, 25.31525], [92.78475, 25.31072], [92.78391, 25.30917], [92.783, 25.30564], [92.78536, 25.3], [92.78607, 25.2983], [92.78709, 25.29338], [92.78771, 25.29041], [92.78797, 25.28917], [92.78951, 25.28701], [92.79135, 25.28442], [92.79136, 25.28307], [92.79136, 25.28281], [92.78827, 25.27615], [92.78787, 25.276], [92.78439, 25.27472], [92.78124, 25.27356], [92.77966, 25.27226], [92.77861, 25.2714], [92.76894, 25.26661], [92.76889, 25.26659], [92.7714, 25.26424], [92.7753, 25.26059], [92.77582, 25.25819], [92.77426, 25.25675], [92.76854, 25.25144], [92.76613, 25.24921], [92.76377, 25.24702], [92.76626, 25.24296], [92.76938, 25.23786], [92.77133, 25.23091], [92.77432, 25.23051], [92.77539, 25.23021], [92.77662, 25.2302], [92.78455, 25.22913], [92.7851, 25.22906], [92.78537, 25.22902], [92.79174, 25.22473], [92.7934, 25.22362], [92.80213, 25.2191], [92.80218, 25.21902], [92.80346, 25.21692], [92.8026, 25.21484], [92.79747, 25.21106], [92.79194, 25.20996], [92.78681, 25.20716], [92.77862, 25.20074], [92.76672, 25.20242], [92.76461, 25.20196], [92.76251, 25.20151], [92.76024, 25.2016], [92.75797, 25.2017], [92.75362, 25.20304], [92.75077, 25.20503], [92.74624, 25.20545], [92.74368, 25.20312], [92.74112, 25.20079], [92.73244, 25.20093], [92.7233, 25.19693], [92.71535, 25.1919], [92.70374, 25.18827], [92.69306, 25.17913], [92.68677, 25.1801], [92.68198, 25.17983], [92.67858, 25.18088], [92.6762, 25.18], [92.6738, 25.17798], [92.6714, 25.17597], [92.66606, 25.17488], [92.6635, 25.17318], [92.66213, 25.17081], [92.65997, 25.16008], [92.65906, 25.15787], [92.65868, 25.15696], [92.65678, 25.15446], [92.65488, 25.15196], [92.65037, 25.15025], [92.64742, 25.1505], [92.64709, 25.15038], [92.64322, 25.14902], [92.63718, 25.14309], [92.63158, 25.13543], [92.62994, 25.12971], [92.62954, 25.12641], [92.62912, 25.12291], [92.62384, 25.11658], [92.62254, 25.11616], [92.62078, 25.11559], [92.61499, 25.1188], [92.61095, 25.12104], [92.6092, 25.12201], [92.60292, 25.12283], [92.60292, 25.12287], [92.60232, 25.12296], [92.60037, 25.12283], [92.59815, 25.12282], [92.59742, 25.12283], [92.59363, 25.12622], [92.59064, 25.12707], [92.58895, 25.12755], [92.58727, 25.12802], [92.58547, 25.12853], [92.5809, 25.12983], [92.57887, 25.12994], [92.57826, 25.12997], [92.56976, 25.12849], [92.56727, 25.12806], [92.56474, 25.12925], [92.56457, 25.12922], [92.55709, 25.12796], [92.55688, 25.12799], [92.55243, 25.12871], [92.54239, 25.13303], [92.53922, 25.1353], [92.53758, 25.13421], [92.53651, 25.1335], [92.53491, 25.13244], [92.5338, 25.13293], [92.53297, 25.1333], [92.53217, 25.13366], [92.52948, 25.13485], [92.52943, 25.13491], [92.52675, 25.13798], [92.52519, 25.13803], [92.52425, 25.13806], [92.52398, 25.13807], [92.5245, 25.12363], [92.52951, 25.11988], [92.53059, 25.11793], [92.53231, 25.11018], [92.54006, 25.10215], [92.54218, 25.09762], [92.54382, 25.09735], [92.54797, 25.10396], [92.55739, 25.10377], [92.55939, 25.10437], [92.56356, 25.10212], [92.56483, 25.10143], [92.57363, 25.10182], [92.57884, 25.10263], [92.58661, 25.10524], [92.59514, 25.10636], [92.60208, 25.11053], [92.60416, 25.11066], [92.61269, 25.10477], [92.61995, 25.10225], [92.62208, 25.10222], [92.62563, 25.10686], [92.62939, 25.10816], [92.63365, 25.10816], [92.63397, 25.10834], [92.6356, 25.10927], [92.63775, 25.11401], [92.64231, 25.11712], [92.64702, 25.11814], [92.65143, 25.11737], [92.65428, 25.11567], [92.65503, 25.11522], [92.65624, 25.11328], [92.65945, 25.11395], [92.66127, 25.11356], [92.66519, 25.11084], [92.6715, 25.10843], [92.67634, 25.10899], [92.68383, 25.11408], [92.68621, 25.11468], [92.69156, 25.11416], [92.6953, 25.11108], [92.69713, 25.10977], [92.70078, 25.109], [92.70661, 25.1112], [92.71153, 25.11631], [92.71561, 25.11779], [92.7192, 25.11575], [92.72187, 25.11318], [92.7249, 25.11241], [92.72717, 25.11733], [92.73623, 25.12438], [92.73698, 25.12589], [92.73626, 25.12841], [92.734, 25.13235], [92.73077, 25.13798], [92.7316, 25.14092], [92.73224, 25.14318], [92.73539, 25.14125], [92.73629, 25.13982], [92.73737, 25.13948], [92.7388, 25.14087], [92.74551, 25.13559], [92.7494, 25.13603], [92.75535, 25.1389], [92.75858, 25.12823], [92.76448, 25.12155], [92.76622, 25.11724], [92.76727, 25.11097], [92.76657, 25.10377], [92.77464, 25.09601], [92.7757, 25.09499], [92.78243, 25.08687], [92.78268, 25.08673], [92.78302, 25.08658], [92.78489, 25.08557], [92.78703, 25.08536], [92.79635, 25.08605], [92.79728, 25.08612], [92.79729, 25.08612], [92.79771, 25.08615], [92.80039, 25.08581], [92.80153, 25.08567], [92.80202, 25.08548], [92.80741, 25.08342], [92.81102, 25.08137], [92.8224, 25.07489], [92.82792, 25.07175], [92.82977, 25.06871], [92.82937, 25.06213], [92.83007, 25.06059], [92.83141, 25.05906], [92.83477, 25.05522], [92.84006, 25.05343], [92.85146, 25.05899], [92.855, 25.06248], [92.85744, 25.06354], [92.86479, 25.06389], [92.86806, 25.06583], [92.86874, 25.06623], [92.87195, 25.06576], [92.8744, 25.06541], [92.88167, 25.06714], [92.88456, 25.0685], [92.88489, 25.06897], [92.88854, 25.07406], [92.8907, 25.07508], [92.9005, 25.07975], [92.91294, 25.08043], [92.92256, 25.07988], [92.9268, 25.07899], [92.93452, 25.07738], [92.94075, 25.07473], [92.94481, 25.07068], [92.95071, 25.07066], [92.95342, 25.07268], [92.9536, 25.07281], [92.95471, 25.07363], [92.95478, 25.07672], [92.95481, 25.07797], [92.95491, 25.08172], [92.95496, 25.08389], [92.95557, 25.08529], [92.95584, 25.0859], [92.95607, 25.08643], [92.95669, 25.08668], [92.95786, 25.08716], [92.95978, 25.08795], [92.9599, 25.088], [92.96122, 25.08854], [92.96687, 25.08876], [92.97239, 25.08685], [92.97726, 25.08516], [92.98171, 25.08767], [92.98726, 25.09387], [92.99234, 25.09535], [92.99653, 25.09545], [92.99869, 25.09551], [93.00222, 25.09592], [93.00705, 25.09648], [93.01793, 25.0956], [93.02077, 25.0999], [93.03214, 25.1037], [93.04276, 25.10324], [93.04834, 25.09919], [93.04666, 25.09388], [93.04079, 25.08611], [93.04011, 25.08521], [93.03953, 25.0847], [93.03279, 25.07872], [93.02907, 25.07542], [93.02243, 25.07383], [93.01638, 25.06146], [93.02068, 25.05696], [93.02497, 25.05246], [93.02806, 25.0471], [93.03726, 25.03992], [93.03906, 25.03654], [93.04859, 25.03296], [93.05358, 25.02871], [93.05549, 25.02708], [93.05591, 25.02422], [93.05826, 25.02342], [93.05962, 25.02295], [93.0626, 25.0156], [93.06017, 25.01453], [93.058, 25.01203], [93.05769, 25.00938], [93.05757, 25.00825], [93.06103, 25.00651], [93.06195, 25.00229], [93.06255, 25.00236], [93.06682, 25.00283], [93.06735, 25.00289], [93.07061, 25.0005], [93.07069, 25.00044], [93.07066, 24.99756], [93.07739, 24.99751], [93.0825, 24.99749], [93.10393, 24.99735], [93.16015, 24.99698], [93.16232, 24.99697], [93.16504, 24.99695], [93.167, 24.99694], [93.16935, 24.99692], [93.16958, 24.9969], [93.16991, 24.99686], [93.17072, 24.99674], [93.17287, 24.99645], [93.17808, 24.99575], [93.17859, 24.99568], [93.17947, 24.99556], [93.18123, 24.99555], [93.1826, 24.99555], [93.18269, 24.99546], [93.18283, 24.99534], [93.18312, 24.99509], [93.18381, 24.99507], [93.18401, 24.99507], [93.18428, 24.99506], [93.18446, 24.99505], [93.18469, 24.99547], [93.18528, 24.99649], [93.18546, 24.9968], [93.18648, 24.9968], [93.18787, 24.99679], [93.1883, 24.99679], [93.1883, 24.99553], [93.1883, 24.99313], [93.1883, 24.99223], [93.1883, 24.99051], [93.19258, 24.99175], [93.19313, 24.99159], [93.19683, 24.99048], [93.19703, 24.99013], [93.19742, 24.98944], [93.19819, 24.98806], [93.19824, 24.98797], [93.19821, 24.98792], [93.19743, 24.98654], [93.19682, 24.98546], [93.19965, 24.98294], [93.20101, 24.98233], [93.20418, 24.9809], [93.20527, 24.98041], [93.20917, 24.98177], [93.21047, 24.98223], [93.21163, 24.98264], [93.21229, 24.98287], [93.21332, 24.98423], [93.21387, 24.98496], [93.21512, 24.98661], [93.21696, 24.9866], [93.21792, 24.98659], [93.22014, 24.9859], [93.22208, 24.9853], [93.22345, 24.98404], [93.2241, 24.98423], [93.22587, 24.98475], [93.22765, 24.98527], [93.22837, 24.98494], [93.2304, 24.984], [93.23125, 24.98322], [93.23154, 24.98295], [93.23176, 24.98274], [93.22747, 24.97651], [93.23294, 24.97399], [93.23432, 24.97399], [93.23464, 24.97456], [93.23573, 24.97649], [93.2358, 24.97649], [93.23712, 24.97649], [93.23761, 24.97511], [93.23825, 24.97331], [93.23845, 24.97274], [93.23904, 24.97274], [93.241, 24.97274], [93.24121, 24.97274], [93.24174, 24.97179], [93.24261, 24.97023], [93.24264, 24.96771], [93.24545, 24.96772], [93.25106, 24.9719], [93.25119, 24.97223], [93.25145, 24.97292], [93.25251, 24.97566], [93.25207, 24.97605], [93.25149, 24.97657], [93.25038, 24.97756], [93.2498, 24.97808], [93.2497, 24.97817], [93.2512, 24.97941], [93.25127, 24.98048], [93.25132, 24.98126], [93.25132, 24.9813], [93.25145, 24.98311], [93.2502, 24.98556], [93.25062, 24.98602], [93.25123, 24.98669], [93.25311, 24.98878], [93.25345, 24.98915], [93.25409, 24.99051], [93.25514, 24.99276], [93.25524, 24.99521], [93.25382, 24.99646], [93.25385, 24.99753], [93.25387, 24.99857], [93.25388, 24.99895], [93.25503, 24.99792], [93.2553, 24.99768], [93.25549, 24.99768], [93.25961, 24.99765], [93.2615, 25.00098], [93.26065, 25.00277], [93.2594, 25.00297], [93.25809, 25.00318], [93.25799, 25.00307], [93.25714, 25.00206], [93.25618, 25.00094], [93.25608, 25.00072], [93.25587, 25.00024], [93.2553, 24.99993], [93.25474, 24.99986], [93.25466, 24.99985], [93.25422, 24.99996], [93.25402, 25.00001], [93.25352, 25.00039], [93.25341, 25.00096], [93.25167, 25.00312], [93.25002, 25.00093], [93.2494, 25.00022], [93.24912, 25.00007], [93.24902, 25.00001], [93.24884, 24.99991], [93.24863, 24.99985], [93.24821, 24.99971], [93.24817, 24.99971], [93.24756, 24.99963], [93.24723, 24.99964], [93.2469, 24.99965], [93.24627, 24.9998], [93.24567, 25.00004], [93.24515, 25.00039], [93.24491, 25.0009], [93.2449, 25.00093], [93.24554, 25.00324], [93.24738, 25.00992], [93.24992, 25.01277], [93.24822, 25.01443], [93.24706, 25.01556], [93.24747, 25.01577], [93.25205, 25.0181], [93.256, 25.01848], [93.25659, 25.02195], [93.25522, 25.02369], [93.25506, 25.02389], [93.25384, 25.02543], [93.25423, 25.02574], [93.25807, 25.02881], [93.26204, 25.03266], [93.26213, 25.03565], [93.26115, 25.03858], [93.26659, 25.04082], [93.26769, 25.04331], [93.26686, 25.04442], [93.26604, 25.04554], [93.26622, 25.04597], [93.2664, 25.0464], [93.27882, 25.04781], [93.27974, 25.04791], [93.28271, 25.04824], [93.2839, 25.04587], [93.28422, 25.04522], [93.28508, 25.04349], [93.2901, 25.04377], [93.29518, 25.04434], [93.29754, 25.04713], [93.29808, 25.04872], [93.29827, 25.04927], [93.30061, 25.0486], [93.30064, 25.04485], [93.30278, 25.04465], [93.30243, 25.0527], [93.30713, 25.05516], [93.30429, 25.06107], [93.307, 25.06725], [93.30898, 25.06929], [93.31093, 25.0746], [93.32055, 25.08501], [93.32183, 25.0883], [93.32771, 25.09112], [93.33398, 25.09245], [93.33621, 25.0994], [93.33738, 25.10302], [93.3385, 25.10991], [93.33868, 25.11103], [93.34062, 25.11189], [93.34256, 25.11274], [93.34257, 25.11792], [93.34466, 25.12168], [93.34743, 25.122], [93.34732, 25.1221], [93.34527, 25.12405], [93.3443, 25.12645], [93.34713, 25.13138], [93.3451, 25.13429], [93.34923, 25.14113], [93.34681, 25.15009], [93.34709, 25.15377], [93.34563, 25.16049], [93.34742, 25.16333], [93.35135, 25.17839], [93.35909, 25.18854], [93.3598, 25.19037], [93.3605, 25.19219], [93.36681, 25.19662], [93.36884, 25.20015], [93.36786, 25.20463], [93.37639, 25.21265], [93.37779, 25.21734], [93.38027, 25.22041], [93.38308, 25.22227], [93.38362, 25.22439], [93.3838, 25.2251], [93.38486, 25.22684], [93.38591, 25.22858], [93.38566, 25.23376], [93.38542, 25.23894], [93.38702, 25.24247], [93.3929, 25.24684], [93.40188, 25.25959], [93.40464, 25.26059], [93.40751, 25.26027], [93.41037, 25.25995], [93.41469, 25.26135], [93.41902, 25.26274], [93.42161, 25.26864], [93.42161, 25.2744], [93.42317, 25.27597], [93.42473, 25.27754], [93.43694, 25.28301], [93.44311, 25.28876], [93.45025, 25.29118], [93.45258, 25.29117], [93.45825, 25.29115], [93.46387, 25.29546], [93.4723, 25.30567], [93.46628, 25.31022], [93.46143, 25.31628], [93.45502, 25.32169], [93.45629, 25.32648], [93.46026, 25.33302], [93.45625, 25.33736], [93.45024, 25.34064], [93.45121, 25.34271], [93.45209, 25.34457], [93.45591, 25.34934], [93.46068, 25.3553], [93.46353, 25.35737], [93.46461, 25.35816], [93.46664, 25.36123], [93.47658, 25.37629], [93.4758, 25.3815], [93.47566, 25.38243], [93.47231, 25.38954], [93.46918, 25.39418], [93.4656, 25.3995], [93.46168, 25.40741], [93.46383, 25.41232], [93.46357, 25.41985], [93.46032, 25.43117], [93.45534, 25.43843], [93.44208, 25.44711], [93.43347, 25.4513], [93.42603, 25.4518], [93.42056, 25.45135], [93.41566, 25.44934], [93.40147, 25.45577], [93.39936, 25.45726], [93.39798, 25.45824], [93.39732, 25.45871], [93.39449, 25.46072], [93.38902, 25.46578], [93.38995, 25.46896], [93.39049, 25.47081], [93.3902, 25.47209], [93.38991, 25.47337], [93.38968, 25.4744], [93.38962, 25.47466], [93.3899, 25.47805], [93.38945, 25.48045], [93.38911, 25.48225], [93.38863, 25.48291], [93.38619, 25.48628], [93.38571, 25.48694], [93.38558, 25.48749], [93.38545, 25.48804], [93.38499, 25.48998], [93.38175, 25.49411], [93.38167, 25.49421], [93.37714, 25.49566], [93.37579, 25.49609], [93.37047, 25.49779], [93.37043, 25.49801], [93.36981, 25.50181], [93.36893, 25.50237], [93.36782, 25.50308], [93.36706, 25.50357], [93.36555, 25.50453], [93.3637, 25.50682], [93.36421, 25.50759], [93.3655, 25.50954], [93.36338, 25.51285], [93.35874, 25.51702], [93.35627, 25.52436], [93.35289, 25.52789], [93.35034, 25.52948], [93.34888, 25.53039], [93.3499, 25.53221], [93.35105, 25.53426], [93.34795, 25.53504], [93.34579, 25.534], [93.34331, 25.5328], [93.34024, 25.5337], [93.33914, 25.53402], [93.33451, 25.54216], [93.33052, 25.54356], [93.33008, 25.54279], [93.32433, 25.5329], [93.32127, 25.53], [93.31057, 25.52879], [93.30565, 25.52885], [93.30208, 25.53193], [93.29658, 25.545], [93.28868, 25.54031], [93.27638, 25.52913], [93.26981, 25.53079], [93.26679, 25.5368], [93.26686, 25.54164], [93.26397, 25.54546], [93.26051, 25.54508], [93.25129, 25.54613], [93.24184, 25.54552], [93.23541, 25.54424], [93.23075, 25.54448], [93.22212, 25.5487], [93.21689, 25.54882], [93.21549, 25.54501], [93.21361, 25.54332], [93.21145, 25.54428], [93.20755, 25.5539], [93.20444, 25.55588], [93.2013, 25.55562], [93.19944, 25.55732], [93.2013, 25.56017], [93.20133, 25.56362], [93.1993, 25.56371], [93.19613, 25.56523], [93.19191, 25.56979], [93.18817, 25.58247], [93.18349, 25.58363], [93.18051, 25.58895], [93.17609, 25.59231], [93.17469, 25.59338], [93.17179, 25.59558], [93.17158, 25.59818], [93.17423, 25.59962], [93.17947, 25.60247], [93.17975, 25.60523], [93.17888, 25.60977], [93.17952, 25.61444], [93.18075, 25.61665], [93.19068, 25.62556], [93.19, 25.62918], [93.18313, 25.63917], [93.17899, 25.64293], [93.17526, 25.64796], [93.17278, 25.64972], [93.17377, 25.65179], [93.16995, 25.65894], [93.16406, 25.66073], [93.14517, 25.66132], [93.14173, 25.66416], [93.13782, 25.66912], [93.13609, 25.6767], [93.13208, 25.68402], [93.13673, 25.69047], [93.13783, 25.69422], [93.13721, 25.70228], [93.13805, 25.70642], [93.14053, 25.71043], [93.14214, 25.71176], [93.14384, 25.71317]]]}}]}