{"type": "FeatureCollection", "features": [{"type": "Feature", "properties": {"Name": "Goalpara"}, "geometry": {"type": "Polygon", "coordinates": [[[90.65502, 26.24158], [90.6546, 26.24148], [90.64659, 26.23961], [90.64175, 26.23848], [90.63892, 26.23782], [90.62804, 26.23528], [90.6275, 26.23515], [90.62172, 26.2338], [90.61858, 26.23306], [90.61678, 26.23264], [90.61496, 26.23221], [90.61183, 26.23148], [90.61175, 26.23146], [90.60791, 26.23056], [90.60529, 26.22981], [90.60363, 26.22933], [90.60328, 26.22924], [90.59916, 26.22806], [90.59673, 26.22736], [90.59316, 26.22634], [90.59298, 26.22629], [90.5879, 26.22483], [90.58775, 26.22479], [90.57822, 26.22206], [90.57602, 26.22143], [90.5713, 26.22008], [90.56979, 26.21965], [90.56933, 26.21952], [90.56277, 26.21763], [90.56007, 26.217], [90.53509, 26.21119], [90.53432, 26.21101], [90.53033, 26.21008], [90.52883, 26.20973], [90.52203, 26.20814], [90.52196, 26.2081], [90.52034, 26.20717], [90.51771, 26.20565], [90.51117, 26.20188], [90.51095, 26.20175], [90.51055, 26.20152], [90.50777, 26.19991], [90.50098, 26.20074], [90.50083, 26.20076], [90.49749, 26.20117], [90.49483, 26.2015], [90.49442, 26.20155], [90.49486, 26.20217], [90.49489, 26.20221], [90.49632, 26.20368], [90.49597, 26.20648], [90.49488, 26.20685], [90.49361, 26.20731], [90.49219, 26.20805], [90.49098, 26.20753], [90.49096, 26.20595], [90.49021, 26.20563], [90.48688, 26.20571], [90.48438, 26.20652], [90.48314, 26.20766], [90.4817, 26.20947], [90.48079, 26.20988], [90.47989, 26.21001], [90.4819, 26.2073], [90.48179, 26.20472], [90.482, 26.20379], [90.4826, 26.2032], [90.48276, 26.20297], [90.46485, 26.20516], [90.45566, 26.2038], [90.45552, 26.20378], [90.45433, 26.20361], [90.45357, 26.2035], [90.45137, 26.20317], [90.44832, 26.20272], [90.44477, 26.2022], [90.44154, 26.20173], [90.44133, 26.20169], [90.44097, 26.20164], [90.44077, 26.20161], [90.43492, 26.20075], [90.43478, 26.20088], [90.43426, 26.20138], [90.43172, 26.20151], [90.42976, 26.20196], [90.4294, 26.20239], [90.43128, 26.20349], [90.43121, 26.20348], [90.42808, 26.20337], [90.42613, 26.20335], [90.42514, 26.20338], [90.42205, 26.20355], [90.41736, 26.20491], [90.41648, 26.20459], [90.41025, 26.20331], [90.40789, 26.20258], [90.41091, 26.19984], [90.41644, 26.19874], [90.41921, 26.19751], [90.41916, 26.19745], [90.41818, 26.19706], [90.41702, 26.1966], [90.4105, 26.19401], [90.40906, 26.19344], [90.40123, 26.19034], [90.39371, 26.18777], [90.3892, 26.18598], [90.38095, 26.18269], [90.37836, 26.18166], [90.37793, 26.18119], [90.37618, 26.17926], [90.37418, 26.17893], [90.37389, 26.17888], [90.37295, 26.17872], [90.37215, 26.17859], [90.37025, 26.17827], [90.36733, 26.17778], [90.3659, 26.17754], [90.36526, 26.17743], [90.36068, 26.17701], [90.35559, 26.17654], [90.34664, 26.17572], [90.3432, 26.1754], [90.33669, 26.17314], [90.33078, 26.17387], [90.328, 26.17824], [90.32105, 26.17702], [90.32078, 26.17673], [90.31963, 26.17543], [90.31135, 26.16716], [90.30834, 26.16495], [90.30641, 26.16351], [90.30126, 26.16141], [90.29817, 26.15986], [90.29966, 26.16399], [90.30034, 26.16629], [90.29997, 26.16728], [90.298, 26.16745], [90.2955, 26.16597], [90.29101, 26.16487], [90.28852, 26.16527], [90.28728, 26.16548], [90.28409, 26.16586], [90.28122, 26.16594], [90.27843, 26.16602], [90.26873, 26.16611], [90.26656, 26.1662], [90.26324, 26.16663], [90.26009, 26.16704], [90.26012, 26.16525], [90.26131, 26.16124], [90.26201, 26.15889], [90.26211, 26.15847], [90.2632, 26.15186], [90.26326, 26.15145], [90.26345, 26.14866], [90.26315, 26.14876], [90.26034, 26.14912], [90.25733, 26.15094], [90.25562, 26.15243], [90.25477, 26.15245], [90.25408, 26.15247], [90.25074, 26.15132], [90.24799, 26.15099], [90.24754, 26.1482], [90.24191, 26.13971], [90.23968, 26.13863], [90.2316, 26.13913], [90.22771, 26.13801], [90.22235, 26.13775], [90.22007, 26.1327], [90.21783, 26.13122], [90.21426, 26.1312], [90.21312, 26.13119], [90.2103, 26.12913], [90.20944, 26.12619], [90.20931, 26.12574], [90.20847, 26.12475], [90.2077, 26.12384], [90.2092, 26.11983], [90.20539, 26.11928], [90.19676, 26.11981], [90.1894, 26.12026], [90.18886, 26.11853], [90.1883, 26.11675], [90.18819, 26.11643], [90.18813, 26.11624], [90.188, 26.1158], [90.18784, 26.11528], [90.18748, 26.11416], [90.18704, 26.11274], [90.18406, 26.10718], [90.18388, 26.10695], [90.18261, 26.10534], [90.18252, 26.10514], [90.18236, 26.10369], [90.18242, 26.10293], [90.18267, 26.10088], [90.18274, 26.09839], [90.18231, 26.09605], [90.18159, 26.09502], [90.17578, 26.08899], [90.17492, 26.08705], [90.17444, 26.08453], [90.17449, 26.08265], [90.17539, 26.08099], [90.1771, 26.07931], [90.17812, 26.07747], [90.17844, 26.07496], [90.17858480295993, 26.0745751289749], [90.1792, 26.07294], [90.17949, 26.07216], [90.18194, 26.06889], [90.18229, 26.06802], [90.18239, 26.06776], [90.18184, 26.06642], [90.18017, 26.06546], [90.17865, 26.05988], [90.17614, 26.05696], [90.17284, 26.05093], [90.17195, 26.04855], [90.17172, 26.04794], [90.17137, 26.04351], [90.17203, 26.04269], [90.17395, 26.04033], [90.17427, 26.04015], [90.1756, 26.03942], [90.17711, 26.03859], [90.17849, 26.03837], [90.17891, 26.03831], [90.18004, 26.03813], [90.18771, 26.03692], [90.18986, 26.03423], [90.191, 26.03279], [90.19118, 26.03258], [90.19143, 26.03226], [90.19168, 26.03195], [90.19188, 26.03139], [90.19215, 26.03062], [90.1922, 26.03049], [90.19263, 26.02927], [90.19291, 26.02848], [90.19165, 26.02591], [90.19135, 26.0253], [90.18873, 26.02293], [90.18841, 26.0227], [90.1831, 26.02025], [90.18286, 26.02019], [90.17871, 26.01913], [90.17807, 26.01896], [90.1749, 26.01707], [90.17482, 26.01703], [90.17443, 26.01679], [90.17476, 26.01651], [90.17532, 26.01603], [90.17544, 26.01593], [90.17662, 26.01493], [90.17725, 26.01439], [90.17816, 26.01362], [90.17754, 26.00974], [90.18053, 26.01161], [90.18077, 26.01176], [90.1824, 26.01277], [90.1818, 26.0099], [90.18176, 26.00985], [90.1795, 26.00703], [90.17762, 26.00468], [90.177, 26.00223], [90.1767, 26.00104], [90.17919, 25.99599], [90.17932, 25.99572], [90.17939, 25.99373], [90.17942, 25.99284], [90.17948, 25.9912], [90.17738, 25.99084], [90.1769, 25.99076], [90.17535, 25.99049], [90.17428, 25.99031], [90.17388, 25.99024], [90.17332, 25.98986], [90.17248, 25.98929], [90.17196, 25.98894], [90.16821, 25.98834], [90.16733, 25.98822], [90.16694, 25.98816], [90.16371, 25.98762], [90.16349, 25.98758], [90.16299, 25.9875], [90.16273, 25.98746], [90.16194, 25.98734], [90.16033, 25.98707], [90.15839, 25.9855], [90.15688, 25.98427], [90.15598, 25.98355], [90.15478, 25.98258], [90.15289, 25.98127], [90.1527, 25.98123], [90.15231, 25.98109], [90.15126, 25.98073], [90.14963, 25.98044], [90.14917, 25.98036], [90.14837, 25.98022], [90.14791, 25.98014], [90.14777, 25.97966], [90.14744, 25.97851], [90.14709, 25.9773], [90.14697, 25.9769], [90.14656, 25.97548], [90.14191, 25.97575], [90.1414, 25.97579], [90.14047, 25.97583], [90.13953, 25.97368], [90.1393, 25.97314], [90.1375, 25.97256], [90.13748, 25.97253], [90.13405, 25.96822], [90.13076, 25.96797], [90.13045, 25.9681], [90.13031, 25.96816], [90.12972, 25.96847], [90.12621, 25.96985], [90.12616, 25.96987], [90.1217, 25.96628], [90.1217, 25.96484], [90.1217, 25.9641], [90.12188, 25.96142], [90.12198, 25.96116], [90.12217, 25.96065], [90.12323, 25.95788], [90.12476, 25.95759], [90.12506, 25.95754], [90.12646, 25.95732], [90.12947, 25.95825], [90.13168, 25.95893], [90.13262, 25.95877], [90.13496, 25.95837], [90.13729, 25.95797], [90.13934, 25.95808], [90.1414, 25.95819], [90.14323, 25.9583], [90.14938, 25.96359], [90.1506, 25.96464], [90.15565, 25.96482], [90.15613, 25.96483], [90.15659, 25.96485], [90.15713, 25.9626], [90.15728, 25.962], [90.15747, 25.9612], [90.15768, 25.96036], [90.16157, 25.9584], [90.16668, 25.9575], [90.16767, 25.9575], [90.17094, 25.95752], [90.17165, 25.95752], [90.1718, 25.95757], [90.17226, 25.95772], [90.17582, 25.95889], [90.17927, 25.95721], [90.17942, 25.95687], [90.18049, 25.95442], [90.18208, 25.95079], [90.18368, 25.94714], [90.18565, 25.94459], [90.18881, 25.94571], [90.18972, 25.94755], [90.19062, 25.94939], [90.19219, 25.95258], [90.19258, 25.95337], [90.19393, 25.95449], [90.19712, 25.95713], [90.19996, 25.95803], [90.20447, 25.95946], [90.20736, 25.96037], [90.20922, 25.96096], [90.20988, 25.96117], [90.21141, 25.96165], [90.2116, 25.96164], [90.21181, 25.96114], [90.21215, 25.96038], [90.2123, 25.96004], [90.21261, 25.95936], [90.21358, 25.9572], [90.21423, 25.95576], [90.21545, 25.95447], [90.21556, 25.95435], [90.21586, 25.95402], [90.21637, 25.95406], [90.21687, 25.9541], [90.22503, 25.9548], [90.22982, 25.9552], [90.23047, 25.95526], [90.23123, 25.95538], [90.23135, 25.9554], [90.23482, 25.95595], [90.23863, 25.95656], [90.24208, 25.95711], [90.24641, 25.95779], [90.24893, 25.95819], [90.25243, 25.95875], [90.25524, 25.9592], [90.25532, 25.95921], [90.26307, 25.96044], [90.26561, 25.96084], [90.27238, 25.96192], [90.27636, 25.96255], [90.28087, 25.96326], [90.28963, 25.964], [90.29169, 25.96457], [90.29263, 25.96483], [90.29427, 25.96529], [90.29905, 25.96662], [90.30064, 25.96706], [90.30105, 25.96717], [90.30734, 25.96892], [90.30821, 25.96962], [90.30963, 25.97038], [90.30981, 25.97048], [90.3153, 25.97113], [90.31539, 25.97115], [90.31604, 25.97133], [90.31847, 25.972], [90.32137, 25.97281], [90.32734, 25.97446], [90.32741, 25.97458], [90.33128, 25.98138], [90.33207, 25.98277], [90.33229, 25.9842], [90.3328, 25.9875], [90.33282, 25.98762], [90.33296, 25.98856], [90.33375, 25.98875], [90.33918, 25.99005], [90.33993, 25.99023], [90.34025, 25.99112], [90.34129, 25.99398], [90.34229, 25.99673], [90.34235, 25.99691], [90.34788, 26.00129], [90.34807, 26.00148], [90.34967, 26.003], [90.35192, 26.0039], [90.35419, 26.00481], [90.35436, 26.00488], [90.35495, 26.00512], [90.35538, 26.00529], [90.35745, 26.00612], [90.36035, 26.00729], [90.36552, 26.00936], [90.36628, 26.00967], [90.368, 26.01036], [90.36952, 26.01049], [90.37671, 26.01109], [90.37904, 26.01128], [90.38046, 26.0114], [90.38141, 26.01148], [90.38379, 26.01168], [90.38969, 26.01133], [90.39024, 26.0113], [90.39034, 26.01129], [90.39106, 26.0116], [90.39692, 26.01413], [90.39911, 26.01416], [90.39919, 26.01416], [90.39934, 26.01416], [90.3994, 26.01416], [90.39946, 26.01416], [90.39952, 26.01403], [90.39958, 26.01389], [90.39972, 26.01356], [90.40027, 26.01226], [90.40199, 26.00983], [90.40257, 26.00967], [90.40309, 26.00953], [90.40364, 26.00949], [90.40391, 26.00942], [90.40732, 26.00848], [90.41052, 26.00759], [90.41399, 26.00589], [90.41414, 26.00566], [90.4142, 26.00557], [90.41469, 26.00479], [90.41517, 26.00404], [90.41688, 26.00134], [90.41943, 25.99687], [90.41951, 25.99647], [90.41976, 25.99525], [90.42036, 25.99235], [90.42172, 25.99195], [90.42271, 25.99166], [90.42356, 25.99141], [90.42428, 25.9912], [90.42729, 25.99031], [90.42876, 25.98988], [90.43152, 25.98906], [90.43277, 25.98957], [90.43955, 25.99231], [90.44222, 25.99339], [90.44512, 25.99456], [90.44683, 25.99525], [90.44999, 25.99653], [90.45423, 25.99778], [90.45481, 25.99795], [90.4552, 25.99806], [90.46041, 25.99958], [90.46061, 26.00046], [90.46081, 26.00134], [90.46197, 26.00323], [90.46354, 26.00424], [90.46526, 26.00534], [90.46649, 26.00613], [90.46703, 26.00648], [90.46819, 26.00722], [90.4709, 26.00982], [90.47379, 26.01259], [90.47744, 26.0139], [90.48018, 26.01525], [90.4841, 26.014], [90.49245, 26.00962], [90.49521, 26.00649], [90.50077, 26.00363], [90.50297, 26.00134], [90.50573, 25.9987], [90.50839, 25.99634], [90.50861, 25.99595], [90.51426, 25.98599], [90.51516, 25.98463], [90.5154, 25.98427], [90.51635, 25.98234], [90.51664, 25.982], [90.51847, 25.97981], [90.5206, 25.97728], [90.52099, 25.97681], [90.52217, 25.97541], [90.52332, 25.97404], [90.52462, 25.97249], [90.52516, 25.97185], [90.52683, 25.96987], [90.53087, 25.96423], [90.53259, 25.96183], [90.53417, 25.96052], [90.53468, 25.9601], [90.53676, 25.95836], [90.53721, 25.95799], [90.53727, 25.95575], [90.53734, 25.95276], [90.53739, 25.95064], [90.53744, 25.94885], [90.53745, 25.94854], [90.53752, 25.94561], [90.53648, 25.93627], [90.53644, 25.93617], [90.5362, 25.93559], [90.53549, 25.93388], [90.53507, 25.93287], [90.53493, 25.93253], [90.53425, 25.93205], [90.53316, 25.93128], [90.53006, 25.92909], [90.52889, 25.92826], [90.52848, 25.92724], [90.5262, 25.92163], [90.52603, 25.92121], [90.52549, 25.91988], [90.52535, 25.91953], [90.5247, 25.91793], [90.52452, 25.91749], [90.52416, 25.9166], [90.52392, 25.91601], [90.52363, 25.91529], [90.52319, 25.91421], [90.52301, 25.91377], [90.52176, 25.91071], [90.52123, 25.90939], [90.51431, 25.90077], [90.51405, 25.90046], [90.5138, 25.90014], [90.51524, 25.89624], [90.51675, 25.89631], [90.51798, 25.89636], [90.51821, 25.89637], [90.52071, 25.89648], [90.52816, 25.901], [90.52896, 25.90177], [90.53311, 25.90574], [90.53359, 25.9062], [90.53629, 25.90878], [90.5388, 25.91178], [90.54098, 25.91439], [90.54122, 25.91467], [90.54187, 25.91544], [90.54429, 25.91684], [90.54519, 25.91736], [90.54734, 25.9186], [90.5495, 25.91985], [90.55072, 25.92157], [90.55156, 25.92276], [90.55164, 25.92287], [90.55398, 25.92618], [90.55553, 25.92837], [90.55589, 25.92889], [90.55603, 25.92908], [90.56134, 25.93254], [90.56554, 25.93528], [90.56592, 25.93553], [90.57403, 25.93899], [90.57468, 25.94128], [90.57507, 25.94268], [90.57543, 25.94395], [90.57547, 25.9481], [90.57873, 25.95344], [90.58036, 25.95612], [90.58149, 25.95797], [90.58514, 25.95973], [90.58621, 25.95843], [90.58702, 25.95743], [90.58881, 25.95523], [90.58993, 25.95385], [90.59223, 25.95295], [90.59453, 25.95205], [90.59613, 25.952], [90.59956, 25.95188], [90.60459, 25.95172], [90.60803, 25.94688], [90.60915, 25.94643], [90.61483, 25.94413], [90.6188, 25.94253], [90.6203, 25.94193], [90.6217, 25.94136], [90.62806, 25.93879], [90.62894, 25.93843], [90.63087, 25.93765], [90.63162, 25.93735], [90.63136, 25.93714], [90.63107, 25.9369], [90.62881, 25.93502], [90.62808, 25.93442], [90.62696, 25.93349], [90.622, 25.92936], [90.62021, 25.92787], [90.61606, 25.92442], [90.6148, 25.92337], [90.61302, 25.92189], [90.61101, 25.92022], [90.61017, 25.91952], [90.60928, 25.91345], [90.6091, 25.91222], [90.60949, 25.91118], [90.60989, 25.91009], [90.61023, 25.90917], [90.61068, 25.90796], [90.61122, 25.90784], [90.61187, 25.9077], [90.61333, 25.90739], [90.61592, 25.90143], [90.61678, 25.89945], [90.61826, 25.89937], [90.61889, 25.89933], [90.61938, 25.8993], [90.61951, 25.89929], [90.62135, 25.89918], [90.62436, 25.89901], [90.62509, 25.89897], [90.62575, 25.89893], [90.62737, 25.89883], [90.62929, 25.90129], [90.63151, 25.90648], [90.6294, 25.91116], [90.62929, 25.91148], [90.62923, 25.91184], [90.62935, 25.9125], [90.62977, 25.91521], [90.62992, 25.91692], [90.63278, 25.91865], [90.63541, 25.92024], [90.6404, 25.92325], [90.64752, 25.92604], [90.65479, 25.92888], [90.65655, 25.92957], [90.66996, 25.93361], [90.67139, 25.93404], [90.67252, 25.93464], [90.6782, 25.93637], [90.67807, 25.93763], [90.68206, 25.94257], [90.68733, 25.94911], [90.6886, 25.95069], [90.69192, 25.95086], [90.69453, 25.95099], [90.69703, 25.95112], [90.70157, 25.95135], [90.70285, 25.95141], [90.70384, 25.95146], [90.7054, 25.95154], [90.71562, 25.95206], [90.71745, 25.95305], [90.71921, 25.95401], [90.72026, 25.95457], [90.72208, 25.95113], [90.72297, 25.94944], [90.72319, 25.94903], [90.72411, 25.94895], [90.72545, 25.94884], [90.72554, 25.94883], [90.7279, 25.94862], [90.72894, 25.9492], [90.72916, 25.94932], [90.73183, 25.95079], [90.73324, 25.95157], [90.73478, 25.95242], [90.73599, 25.95278], [90.73691, 25.95307], [90.73719, 25.95313], [90.74123, 25.95431], [90.74237, 25.95464], [90.74278, 25.95476], [90.7433, 25.95505], [90.74606, 25.95652], [90.74993, 25.95717], [90.74897, 25.95399], [90.74852, 25.95249], [90.74711, 25.95047], [90.74628, 25.94928], [90.747, 25.94695], [90.74702, 25.94688], [90.74706, 25.94675], [90.74718, 25.94636], [90.74318, 25.94169], [90.74276, 25.94075], [90.74484, 25.93685], [90.74538, 25.93705], [90.74687, 25.93708], [90.74887, 25.93718], [90.75021, 25.93731], [90.75189, 25.93731], [90.75477, 25.93658], [90.75492, 25.93654], [90.75498, 25.93561], [90.75507, 25.93419], [90.75509, 25.93381], [90.75404, 25.93182], [90.75332, 25.93051], [90.75297, 25.92974], [90.75077, 25.92577], [90.75028, 25.92487], [90.74863, 25.92179], [90.74663, 25.91942], [90.74574, 25.91836], [90.74365, 25.91579], [90.74479, 25.91279], [90.74562, 25.91262], [90.74646, 25.91245], [90.74684, 25.91237], [90.74788, 25.91215], [90.74806, 25.91242], [90.75061, 25.91626], [90.7525, 25.9191], [90.7551, 25.9198], [90.75825, 25.92065], [90.76054, 25.92121], [90.76139, 25.92149], [90.76125, 25.92095], [90.76006, 25.91642], [90.75998, 25.91392], [90.76001, 25.91365], [90.76011, 25.91332], [90.76011, 25.91325], [90.76014, 25.91092], [90.76454, 25.90987], [90.76478, 25.90987], [90.76581, 25.90964], [90.77098, 25.90846], [90.77143, 25.90836], [90.77515, 25.90826], [90.77595, 25.90824], [90.77736, 25.9082], [90.77864, 25.90817], [90.77997, 25.90813], [90.78046, 25.90812], [90.78052, 25.90897], [90.78067, 25.91113], [90.78075, 25.9123], [90.78084, 25.91364], [90.78088, 25.91414], [90.78127, 25.91497], [90.78129, 25.91503], [90.78131, 25.91507], [90.78324, 25.91925], [90.78409, 25.92109], [90.78442, 25.92156], [90.78464, 25.92188], [90.78738, 25.92585], [90.78826, 25.9271], [90.78872, 25.92775], [90.79028, 25.93004], [90.7909, 25.93094], [90.79186, 25.93232], [90.7941, 25.93557], [90.79416, 25.93563], [90.79546, 25.937], [90.79704, 25.93868], [90.79902, 25.94077], [90.79914, 25.9409], [90.79926, 25.94103], [90.79951, 25.94129], [90.79979, 25.94143], [90.79984, 25.94146], [90.80375, 25.94339], [90.80752, 25.94524], [90.8104, 25.94666], [90.8111, 25.94701], [90.8123, 25.95197], [90.81424, 25.95128], [90.81701, 25.9503], [90.82029, 25.94914], [90.82284, 25.94823], [90.82563, 25.94551], [90.82626, 25.9449], [90.83039, 25.94723], [90.83263, 25.94609], [90.83464, 25.94507], [90.83483, 25.94517], [90.83812, 25.94682], [90.83857, 25.94705], [90.8386, 25.94652], [90.83865, 25.94573], [90.83872, 25.94449], [90.83877, 25.94363], [90.83882, 25.94312], [90.83891, 25.9413], [90.83906, 25.93891], [90.83911, 25.93805], [90.83911, 25.938], [90.84065, 25.93811], [90.8422, 25.93823], [90.84332, 25.94259], [90.84341, 25.94296], [90.84428, 25.94361], [90.84451, 25.94378], [90.84561, 25.9446], [90.85177, 25.94438], [90.85483, 25.94427], [90.85551, 25.94424], [90.85915, 25.94411], [90.86235, 25.94362], [90.86321, 25.94349], [90.86476, 25.94324], [90.86609, 25.94305], [90.86662, 25.94297], [90.87059, 25.94237], [90.87192, 25.94217], [90.87317, 25.94237], [90.87396, 25.9425], [90.87423, 25.94254], [90.87468, 25.94261], [90.87521, 25.9427], [90.87517, 25.94307], [90.87475, 25.94649], [90.87635, 25.94785], [90.87757, 25.94889], [90.87917, 25.94797], [90.87945, 25.94781], [90.88254, 25.94602], [90.88288, 25.94723], [90.88363, 25.94995], [90.88376, 25.95041], [90.88531, 25.95152], [90.88916, 25.94661], [90.89164, 25.94599], [90.89201, 25.946], [90.89367, 25.94603], [90.89589, 25.94617], [90.89815, 25.94592], [90.89864, 25.94575], [90.89914, 25.94555], [90.89959, 25.94543], [90.90012, 25.94521], [90.90104, 25.94486], [90.90276, 25.94403], [90.90346, 25.94381], [90.90445, 25.94354], [90.90519, 25.94334], [90.90628, 25.94288], [90.90743, 25.94231], [90.90783, 25.94211], [90.90828, 25.94179], [90.91185, 25.94149], [90.91613, 25.94091], [90.91702, 25.94135], [90.91835, 25.94233], [90.91938, 25.9429], [90.92059, 25.9429], [90.92497, 25.94178], [90.92965, 25.94067], [90.93026, 25.94051], [90.93433, 25.9394], [90.93496, 25.93976], [90.9356, 25.94013], [90.93691, 25.94087], [90.9381, 25.94239], [90.93974, 25.94449], [90.94056, 25.94492], [90.94137, 25.94535], [90.94168, 25.94552], [90.94393, 25.94672], [90.94502, 25.9473], [90.94524, 25.94663], [90.94548, 25.9459], [90.9457, 25.94524], [90.94579, 25.94496], [90.94631, 25.94339], [90.9468, 25.94189], [90.94781, 25.93884], [90.95245, 25.93748], [90.95584, 25.93649], [90.95606, 25.93643], [90.95612, 25.93639], [90.95988, 25.93383], [90.96013, 25.93366], [90.96029, 25.93328], [90.96087, 25.93195], [90.96103, 25.93158], [90.96161, 25.93025], [90.96177, 25.92989], [90.96196, 25.92945], [90.96228, 25.9287], [90.96253, 25.92813], [90.96284, 25.92742], [90.96335, 25.92557], [90.96383, 25.92384], [90.96397, 25.92337], [90.96398, 25.9233], [90.964, 25.92324], [90.9643, 25.92219], [90.96439, 25.92186], [90.96477, 25.92048], [90.9655, 25.91787], [90.96573, 25.91702], [90.9663, 25.91499], [90.96715, 25.91191], [90.96802, 25.90879], [90.96854, 25.90692], [90.96906, 25.90505], [90.96915, 25.90305], [90.96925, 25.90098], [90.96927, 25.90044], [90.96933, 25.89907], [90.96945, 25.89647], [90.96946, 25.89635], [90.96911, 25.89358], [90.96875, 25.89071], [90.9696, 25.88689], [90.9707, 25.88703], [90.9728, 25.8873], [90.97346, 25.88738], [90.97434, 25.88777], [90.97448, 25.88783], [90.97689, 25.88889], [90.97752, 25.88916], [90.97792, 25.88918], [90.98599, 25.8896], [90.98604, 25.8896], [90.98692, 25.88965], [90.98907, 25.88942], [90.99093, 25.88922], [90.99403, 25.8889], [90.99899, 25.88838], [91.00188, 25.88696], [91.00343, 25.88619], [91.00439, 25.88602], [91.00586, 25.88576], [91.00642, 25.88566], [91.01562, 25.88403], [91.01581, 25.884], [91.01787, 25.88488], [91.02068, 25.88609], [91.02269, 25.88696], [91.0267, 25.88783], [91.02775, 25.88806], [91.02962, 25.88819], [91.03036, 25.88824], [91.03083, 25.88798], [91.03115, 25.88779], [91.03129, 25.88771], [91.03163, 25.89082], [91.03164, 25.89092], [91.03199, 25.89413], [91.03346, 25.89807], [91.03395, 25.89938], [91.03506, 25.90235], [91.03554, 25.90321], [91.03672, 25.90532], [91.03884, 25.90913], [91.04073, 25.91508], [91.04274, 25.92143], [91.04327, 25.92227], [91.04408, 25.92355], [91.0469, 25.92804], [91.04824, 25.92926], [91.05291, 25.93352], [91.05367, 25.9375], [91.05179, 25.93943], [91.05006, 25.9412], [91.05048, 25.94171], [91.05156, 25.94301], [91.05577, 25.94811], [91.05717, 25.94979], [91.05767, 25.9504], [91.05816, 25.95099], [91.05832, 25.95119], [91.0609, 25.9543], [91.06346, 25.95735], [91.06719, 25.96191], [91.0677, 25.96254], [91.06987, 25.96424], [91.07256, 25.96736], [91.07494, 25.97012], [91.07613, 25.9713], [91.07684, 25.97158], [91.07739, 25.9718], [91.08098, 25.97323], [91.08251, 25.97384], [91.083, 25.97926], [91.08302, 25.97928], [91.08314, 25.97938], [91.0855, 25.98129], [91.08612, 25.9818], [91.08621, 25.98188], [91.08669, 25.98226], [91.08686, 25.9824], [91.08786, 25.98688], [91.08799, 25.98745], [91.08811, 25.98798], [91.08855, 25.98995], [91.08894, 25.99167], [91.0901, 25.99684], [91.09021, 25.99733], [91.09086, 26.00023], [91.09091, 26.00045], [91.09126, 26.00064], [91.09419, 26.00219], [91.09429, 26.00224], [91.09452, 26.00236], [91.09655, 26.00343], [91.09957, 26.00502], [91.09964, 26.00945], [91.09885, 26.01009], [91.09875, 26.01017], [91.09673, 26.01182], [91.09637, 26.01212], [91.09586, 26.01313], [91.09583, 26.01319], [91.09411, 26.01658], [91.09238, 26.01998], [91.09112, 26.02293], [91.09071, 26.02391], [91.09072, 26.0245], [91.09072, 26.02498], [91.09072, 26.02515], [91.09068, 26.02515], [91.08804, 26.02546], [91.08774, 26.02551], [91.0867, 26.02565], [91.08404, 26.02601], [91.0823, 26.02625], [91.08104, 26.02642], [91.08051, 26.0265], [91.07863, 26.02679], [91.0768, 26.02666], [91.0766, 26.02665], [91.07623, 26.02662], [91.0755, 26.02646], [91.07468, 26.02628], [91.0743, 26.02614], [91.07412, 26.02607], [91.07307, 26.02602], [91.07276, 26.02587], [91.07001, 26.02533], [91.07017, 26.02617], [91.07019, 26.02677], [91.07024, 26.02836], [91.07035, 26.03191], [91.0707, 26.03481], [91.07077, 26.03508], [91.07112, 26.03656], [91.07166, 26.03668], [91.07097, 26.03815], [91.07076, 26.03859], [91.07071, 26.0387], [91.07033, 26.03951], [91.06954, 26.0412], [91.06926, 26.0418], [91.06816, 26.04413], [91.06467, 26.04434], [91.06448, 26.04435], [91.06401, 26.04438], [91.06201, 26.0445], [91.06023, 26.04461], [91.0573, 26.04479], [91.0558, 26.04363], [91.05435, 26.04251], [91.0542, 26.0424], [91.05285, 26.04136], [91.0517, 26.04047], [91.05008, 26.04086], [91.04941, 26.04102], [91.04903, 26.04111], [91.04841, 26.04126], [91.04681, 26.04164], [91.04449, 26.0422], [91.04315, 26.04287], [91.04111, 26.04389], [91.0391, 26.0449], [91.03881, 26.04505], [91.03581, 26.04324], [91.03386, 26.04207], [91.03345, 26.04182], [91.03319, 26.04171], [91.02874, 26.03996], [91.0284, 26.0402], [91.02601, 26.04189], [91.02245, 26.04442], [91.02223, 26.04457], [91.02128, 26.04524], [91.02019, 26.04602], [91.01718, 26.04815], [91.01192, 26.05285], [91.01023, 26.05289], [91.00495, 26.05302], [91.00213, 26.05397], [90.999, 26.05502], [90.99824, 26.05531], [90.99806, 26.05538], [90.99478, 26.05663], [90.99401, 26.05692], [90.99355, 26.05709], [90.98824, 26.05763], [90.98597, 26.06022], [90.98495, 26.06043], [90.98321, 26.06079], [90.98033, 26.06138], [90.97803, 26.06328], [90.97374, 26.0668], [90.97178, 26.06842], [90.97145, 26.06869], [90.9711, 26.06899], [90.96763, 26.07185], [90.96681, 26.07252], [90.96337, 26.07536], [90.96176, 26.07792], [90.96022, 26.08036], [90.96018, 26.08207], [90.95242, 26.08119], [90.95102, 26.08376], [90.95007, 26.0855], [90.95, 26.08564], [90.9478, 26.08966], [90.94656, 26.08937], [90.94642, 26.08934], [90.9463, 26.08931], [90.94513, 26.08905], [90.94256, 26.08846], [90.93979, 26.09084], [90.93871, 26.09177], [90.93824, 26.09217], [90.93818, 26.09271], [90.93818, 26.09274], [90.93806, 26.09399], [90.93512, 26.09783], [90.932, 26.09701], [90.93033, 26.09232], [90.93024, 26.09207], [90.92956, 26.09133], [90.92883, 26.0905], [90.92864, 26.09028], [90.92849, 26.09011], [90.92805, 26.08735], [90.92796, 26.08679], [90.92634, 26.08406], [90.92563, 26.08324], [90.92381, 26.08107], [90.92016, 26.0793], [90.9201, 26.07926], [90.9193, 26.07871], [90.9177, 26.07761], [90.91763, 26.07757], [90.91743, 26.07743], [90.91732, 26.07736], [90.9161, 26.07652], [90.91538, 26.07616], [90.9145, 26.07573], [90.91013, 26.07357], [90.90725, 26.07291], [90.90529, 26.07246], [90.90028, 26.0722], [90.89797, 26.07258], [90.89569, 26.07296], [90.89356, 26.07301], [90.89381, 26.06985], [90.89388, 26.06902], [90.89613, 26.06605], [90.90105, 26.06254], [90.90329, 26.06032], [90.9042, 26.05678], [90.90314, 26.05595], [90.90156, 26.05472], [90.90063, 26.05399], [90.8976, 26.0534], [90.89624, 26.05314], [90.89549, 26.05309], [90.89373, 26.05296], [90.89372, 26.05296], [90.8905, 26.05423], [90.89041, 26.05427], [90.8899, 26.05447], [90.88765, 26.05508], [90.8869, 26.05527], [90.88495, 26.05561], [90.88492, 26.05605], [90.88472, 26.05962], [90.8845, 26.06483], [90.88244, 26.07088], [90.88231, 26.07085], [90.87375, 26.07037], [90.87139, 26.07251], [90.87092, 26.07294], [90.86967, 26.07522], [90.86932, 26.07611], [90.86899, 26.07697], [90.86834, 26.07867], [90.86816, 26.07914], [90.86797, 26.07962], [90.86644, 26.08179], [90.86895, 26.0815], [90.8693, 26.0815], [90.87061, 26.08148], [90.87234, 26.08146], [90.87438, 26.08203], [90.87562, 26.08238], [90.87603, 26.08249], [90.87895, 26.08489], [90.88056, 26.08621], [90.8845, 26.08777], [90.88491, 26.08793], [90.88706, 26.08878], [90.8885, 26.09039], [90.88879, 26.09072], [90.88897, 26.09379], [90.8889, 26.09492], [90.88715, 26.09495], [90.88403, 26.09501], [90.88017, 26.09509], [90.88001, 26.0951], [90.87974, 26.09517], [90.87858, 26.0955], [90.87845, 26.0957], [90.87834, 26.0957], [90.8781, 26.09573], [90.87783, 26.09578], [90.87653, 26.09613], [90.87641, 26.09613], [90.87076, 26.09775], [90.87045, 26.09826], [90.87036, 26.09839], [90.86702, 26.10368], [90.86577, 26.10566], [90.8653, 26.1064], [90.86245, 26.11266], [90.86132, 26.11325], [90.86046, 26.11351], [90.85936, 26.11384], [90.85558, 26.11498], [90.84953, 26.11681], [90.84573, 26.11447], [90.84464, 26.1138], [90.84322, 26.11293], [90.84223, 26.11233], [90.84048, 26.11125], [90.83638, 26.11366], [90.83366, 26.11526], [90.8249, 26.1172], [90.82452, 26.11729], [90.82274, 26.11811], [90.8168, 26.12085], [90.80881, 26.12285], [90.80609, 26.12353], [90.80087, 26.1259], [90.78774, 26.13184], [90.78181, 26.13367], [90.7804, 26.13411], [90.77712, 26.13454], [90.77588, 26.1347], [90.77487, 26.13488], [90.77249, 26.1353], [90.76892, 26.13593], [90.76727, 26.13629], [90.76532, 26.13629], [90.76508, 26.13629], [90.7649, 26.13633], [90.76331, 26.13672], [90.76129, 26.13672], [90.76086, 26.13672], [90.75752, 26.13716], [90.74065, 26.1373], [90.73368, 26.13542], [90.73337, 26.1354], [90.73281, 26.13536], [90.73226, 26.13533], [90.72425, 26.13484], [90.72209, 26.13286], [90.72115, 26.132], [90.72008, 26.13271], [90.71672, 26.13493], [90.71629, 26.13521], [90.71464, 26.13546], [90.71455, 26.13676], [90.71448, 26.13766], [90.71473, 26.1381], [90.7152, 26.13897], [90.71414, 26.13903], [90.71183, 26.13918], [90.70889, 26.14739], [90.69975, 26.14967], [90.69734, 26.15062], [90.69413, 26.15319], [90.69251, 26.15805], [90.69242, 26.15833], [90.6895, 26.1637], [90.68775, 26.16693], [90.68772, 26.16698], [90.68565, 26.17079], [90.68204, 26.17745], [90.6777, 26.18544], [90.67439, 26.1971], [90.67345, 26.20043], [90.67241, 26.20409], [90.67172, 26.20514], [90.67165, 26.20524], [90.67142, 26.2056], [90.66948, 26.20855], [90.66909, 26.2123], [90.6677, 26.21358], [90.66559, 26.21787], [90.66506, 26.2208], [90.66324, 26.22301], [90.66302, 26.22349], [90.6629, 26.22376], [90.66272, 26.22415], [90.6607, 26.22851], [90.65856, 26.23138], [90.65798, 26.23215], [90.65463, 26.23663], [90.65486, 26.23963], [90.65502, 26.24158]]]}}]}