{"type": "FeatureCollection", "features": [{"type": "Feature", "properties": {"Name": "Golaghat"}, "geometry": {"type": "Polygon", "coordinates": [[[93.77179, 25.96216], [93.77395, 25.96112], [93.77468, 25.96077], [93.77653, 25.95988], [93.77727, 25.95952], [93.77757, 25.95938], [93.77818, 25.95829], [93.77845, 25.95779], [93.77857, 25.95758], [93.77904, 25.95674], [93.77984, 25.95636], [93.78393, 25.95442], [93.78437, 25.95316], [93.7848, 25.95191], [93.78511, 25.95104], [93.78535, 25.95034], [93.78639, 25.94972], [93.78663, 25.94958], [93.78815, 25.94869], [93.78792, 25.94512], [93.78562, 25.94376], [93.78562, 25.94359], [93.78612, 25.94322], [93.78644, 25.94298], [93.78812, 25.94212], [93.78903, 25.94083], [93.7894, 25.94029], [93.78977, 25.93822], [93.79013, 25.93614], [93.79035, 25.93575], [93.79057, 25.93535], [93.79198, 25.93283], [93.79096, 25.93199], [93.79075, 25.93182], [93.78875, 25.93022], [93.78847, 25.93001], [93.78847, 25.92981], [93.78833, 25.92948], [93.78816, 25.92924], [93.78791, 25.929], [93.78785, 25.92874], [93.78781, 25.92854], [93.78784, 25.92832], [93.78804, 25.92809], [93.7884, 25.92789], [93.78901, 25.92761], [93.78965, 25.92763], [93.79052, 25.92767], [93.7911, 25.92742], [93.7919, 25.92707], [93.79226, 25.9227], [93.79229, 25.92241], [93.79229, 25.92215], [93.79213, 25.92163], [93.79203, 25.92137], [93.79178, 25.92074], [93.79157, 25.9202], [93.79094, 25.9186], [93.79237, 25.91705], [93.79496, 25.91425], [93.79559, 25.91159], [93.79577, 25.91084], [93.79691, 25.90603], [93.79693, 25.90597], [93.79698, 25.90575], [93.79694, 25.90514], [93.79687, 25.90405], [93.79679, 25.90284], [93.79676, 25.90235], [93.79613, 25.901], [93.7955, 25.89965], [93.79494, 25.89846], [93.79476, 25.89813], [93.7947, 25.898], [93.79438, 25.89727], [93.79434, 25.89705], [93.7943, 25.89683], [93.79408, 25.89568], [93.79377, 25.8941], [93.79354, 25.89399], [93.79331, 25.89387], [93.7905, 25.89097], [93.79038, 25.88962], [93.79036, 25.88935], [93.7901, 25.88612], [93.78937, 25.8841], [93.78662, 25.87651], [93.78668, 25.87631], [93.78667, 25.87605], [93.78638, 25.87523], [93.78626, 25.87487], [93.78639, 25.87474], [93.7865, 25.87462], [93.7868, 25.87454], [93.7868, 25.87414], [93.78638, 25.87364], [93.78661, 25.87284], [93.78683, 25.87209], [93.78686, 25.87197], [93.78691, 25.87178], [93.78904, 25.87002], [93.78927, 25.86983], [93.78972, 25.86824], [93.79007, 25.867], [93.79021, 25.86653], [93.79043, 25.86575], [93.78726, 25.86428], [93.78719, 25.86425], [93.78588, 25.86364], [93.78438, 25.86295], [93.78432, 25.8626], [93.78428, 25.86235], [93.78379, 25.85925], [93.78311, 25.8585], [93.78307, 25.85837], [93.7826, 25.85805], [93.7826, 25.85797], [93.78207, 25.85741], [93.78075, 25.85614], [93.78068, 25.85608], [93.78079, 25.85595], [93.78089, 25.85568], [93.78091, 25.85554], [93.78087, 25.85531], [93.78072, 25.85482], [93.78041, 25.85447], [93.78046, 25.85435], [93.78109, 25.85275], [93.78216, 25.85006], [93.78219, 25.84998], [93.78177, 25.84824], [93.78177, 25.84743], [93.7824, 25.84601], [93.78046, 25.84424], [93.7784, 25.84236], [93.77967, 25.8407], [93.77971, 25.84051], [93.77984, 25.83998], [93.78012, 25.83956], [93.78025, 25.83891], [93.78005, 25.83861], [93.78025, 25.83822], [93.78117, 25.83427], [93.78308, 25.8318], [93.78588, 25.82413], [93.78592, 25.82399], [93.78606, 25.8238], [93.78732, 25.82204], [93.78883, 25.81796], [93.78925, 25.81682], [93.78986, 25.81204], [93.79429, 25.81035], [93.79931, 25.81119], [93.80478, 25.81211], [93.8061, 25.81233], [93.80717, 25.81364], [93.81011, 25.81725], [93.81735, 25.82219], [93.81989, 25.82836], [93.82092, 25.83354], [93.82181, 25.83797], [93.82196, 25.83872], [93.82282, 25.84306], [93.8313, 25.85221], [93.83246, 25.85298], [93.84087, 25.85855], [93.84473, 25.85869], [93.84894, 25.85884], [93.85023, 25.85889], [93.85927, 25.85484], [93.86457, 25.85247], [93.86722, 25.85129], [93.87151, 25.84733], [93.87211, 25.84678], [93.88118, 25.84177], [93.88702, 25.84831], [93.89009, 25.85448], [93.89188, 25.86065], [93.89708, 25.85959], [93.90032, 25.86686], [93.90966, 25.87521], [93.91232, 25.87759], [93.91438, 25.88347], [93.9161, 25.88393], [93.91714, 25.88421], [93.92137, 25.88533], [93.92233, 25.88558], [93.926, 25.88614], [93.9278, 25.88641], [93.92979, 25.88671], [93.93308, 25.8872], [93.93587, 25.89197], [93.93721, 25.89427], [93.93865, 25.89673], [93.94402, 25.89688], [93.94627, 25.89694], [93.94681, 25.89696], [93.95121, 25.8985], [93.95378, 25.8994], [93.9579, 25.90085], [93.9583, 25.90099], [93.96143, 25.90306], [93.96239, 25.9037], [93.96641, 25.90635], [93.96762, 25.90715], [93.97018, 25.91271], [93.97044, 25.91326], [93.97508, 25.91459], [93.97783, 25.91538], [93.97811, 25.91594], [93.9797, 25.91913], [93.98112, 25.92199], [93.97536, 25.93129], [93.97348, 25.93432], [93.96959, 25.9406], [93.96936, 25.94901], [93.96773, 25.95659], [93.96572, 25.95864], [93.96367, 25.96072], [93.95456, 25.96999], [93.95473, 25.97059], [93.95644, 25.97673], [93.95661, 25.97736], [93.95722, 25.981], [93.9577, 25.98387], [93.95778, 25.98438], [93.95795, 25.9854], [93.95877, 25.99034], [93.95918, 25.99281], [93.95868, 25.9945], [93.95854, 25.995], [93.95786, 25.99729], [93.95757, 25.99827], [93.9566, 25.99896], [93.95608, 25.99933], [93.95458, 26.00038], [93.95404, 26.00177], [93.95349, 26.00315], [93.9545, 26.00447], [93.95586, 26.00624], [93.95698, 26.0077], [93.95786, 26.0098], [93.95942, 26.01353], [93.96128, 26.01797], [93.9617, 26.02798], [93.96175, 26.02917], [93.96254, 26.03176], [93.96314, 26.0337], [93.96327, 26.03413], [93.96452, 26.03822], [93.96685, 26.0391], [93.96732, 26.03928], [93.97126, 26.04077], [93.97151, 26.04171], [93.97263, 26.04603], [93.97272, 26.04636], [93.97314, 26.04797], [93.97347, 26.04831], [93.97652, 26.05143], [93.97946, 26.05443], [93.98107, 26.05662], [93.98676, 26.06435], [93.98758, 26.06547], [93.98791, 26.06592], [93.98831, 26.06646], [93.98977, 26.06843], [93.98805, 26.06992], [93.98653, 26.07419], [93.98469, 26.07939], [93.9851, 26.08411], [93.98832, 26.08495], [93.98905, 26.08514], [93.98966, 26.0853], [93.99032, 26.08674], [93.99117, 26.08859], [93.99115, 26.08889], [93.99087, 26.09364], [93.99251, 26.10058], [93.99282, 26.1019], [93.99454, 26.10265], [93.9958, 26.1032], [93.99827, 26.10428], [94.00086, 26.10719], [94.00084, 26.11067], [93.99977, 26.11116], [93.99855, 26.11172], [93.9954, 26.11159], [93.99368, 26.11152], [93.99296, 26.11199], [93.99111, 26.1132], [93.9904, 26.11367], [93.99, 26.11393], [93.98997, 26.11395], [93.99143, 26.11596], [93.99153, 26.1161], [93.9952, 26.1182], [93.9952, 26.11833], [93.99533, 26.12397], [93.99705, 26.12519], [93.99705, 26.12681], [93.99486, 26.1276], [93.99198, 26.12865], [93.98949, 26.12972], [93.99072, 26.13147], [93.99195, 26.13323], [93.99499, 26.13324], [93.99532, 26.13316], [93.99561, 26.13308], [93.99651, 26.13283], [93.99841, 26.13232], [94.00183, 26.13485], [94.00396, 26.13769], [94.00511, 26.14306], [94.00167, 26.14718], [94.00044, 26.14981], [93.99997, 26.1508], [93.99951, 26.15178], [93.99843, 26.15408], [93.99916, 26.15499], [94.00216, 26.15873], [94.00312, 26.15992], [94.00268, 26.16522], [94.00333, 26.16799], [94.00338, 26.16822], [94.00359, 26.16912], [94.00756, 26.17638], [94.00763, 26.17647], [94.0118, 26.18213], [94.01286, 26.18274], [94.01555, 26.1843], [94.01977, 26.18674], [94.02073, 26.1873], [94.02312, 26.1902], [94.02488, 26.19234], [94.02494, 26.19241], [94.02541, 26.19298], [94.02988, 26.19521], [94.03452, 26.199], [94.03465, 26.19976], [94.03543, 26.20443], [94.03562, 26.20554], [94.03548, 26.21019], [94.03547, 26.21056], [94.03543, 26.21187], [94.03581, 26.21264], [94.038, 26.21711], [94.03928, 26.21933], [94.03756, 26.22387], [94.03701, 26.22534], [94.03756, 26.22601], [94.04062, 26.22972], [94.04099, 26.23065], [94.04104, 26.23077], [94.04184, 26.23276], [94.04306, 26.23579], [94.04552, 26.24091], [94.04798, 26.24603], [94.04984, 26.24882], [94.05094, 26.25047], [94.0517, 26.25161], [94.06348, 26.25758], [94.06405, 26.25741], [94.06552, 26.25696], [94.06674, 26.25659], [94.06929, 26.25582], [94.07486, 26.26503], [94.07667, 26.27114], [94.07568, 26.281], [94.0784, 26.28402], [94.07893, 26.28461], [94.08112, 26.2845], [94.08332, 26.28439], [94.08499, 26.28549], [94.08529, 26.28569], [94.08608, 26.28621], [94.08665, 26.28745], [94.08762, 26.28958], [94.08915, 26.29291], [94.09488, 26.29718], [94.09694, 26.29872], [94.09772, 26.29969], [94.10155, 26.30446], [94.10256, 26.31185], [94.10268, 26.31273], [94.10281, 26.31369], [94.10337, 26.31781], [94.10577, 26.32075], [94.10693, 26.32217], [94.1094, 26.3219], [94.11017, 26.32182], [94.11373, 26.32015], [94.11728, 26.31848], [94.11895, 26.31856], [94.12081, 26.31865], [94.12758, 26.31898], [94.11824, 26.32625], [94.11825, 26.32765], [94.11825, 26.32849], [94.11825, 26.32946], [94.12286, 26.33166], [94.12904, 26.33288], [94.13277, 26.33361], [94.13453, 26.33396], [94.13725, 26.33685], [94.13751, 26.33712], [94.13765, 26.33728], [94.13834, 26.33738], [94.13993, 26.33762], [94.14152, 26.33786], [94.14195, 26.33715], [94.14239, 26.33642], [94.1427, 26.33592], [94.14113, 26.33184], [94.1411, 26.33176], [94.14131, 26.33173], [94.14556, 26.33113], [94.14681, 26.33288], [94.14817, 26.33479], [94.15106, 26.33528], [94.15338, 26.33567], [94.154, 26.33563], [94.15552, 26.33553], [94.16337, 26.33502], [94.16348, 26.33509], [94.16811, 26.33816], [94.17099, 26.34007], [94.17224, 26.34], [94.17435, 26.33988], [94.17446, 26.34007], [94.17813, 26.34649], [94.17836, 26.34753], [94.17885, 26.34978], [94.17483, 26.35066], [94.17419, 26.3508], [94.17146, 26.35032], [94.17069, 26.35018], [94.16823, 26.34974], [94.16791, 26.3496], [94.16738, 26.34937], [94.16652, 26.349], [94.16485, 26.35021], [94.16213, 26.34936], [94.1602, 26.34998], [94.15806, 26.35062], [94.15785, 26.35068], [94.15565, 26.35062], [94.14838, 26.35043], [94.14215, 26.35027], [94.14184, 26.35026], [94.14158, 26.35025], [94.14075, 26.35023], [94.13688, 26.35013], [94.13623, 26.35193], [94.13611, 26.35227], [94.13512, 26.35504], [94.13421, 26.35758], [94.13384, 26.35862], [94.13366, 26.35911], [94.13292, 26.36117], [94.13187, 26.3641], [94.13137, 26.36551], [94.13023, 26.36747], [94.12846, 26.37051], [94.12724, 26.37262], [94.1257, 26.37743], [94.12519, 26.37904], [94.12423, 26.38203], [94.12318, 26.38531], [94.12204, 26.38888], [94.12136, 26.391], [94.12096, 26.39226], [94.12075, 26.39293], [94.1201, 26.3942], [94.11927, 26.39581], [94.11782, 26.39862], [94.11773, 26.39881], [94.11715, 26.39994], [94.11718, 26.40063], [94.11721, 26.40116], [94.11777, 26.41325], [94.11843, 26.42747], [94.1186, 26.42773], [94.11993, 26.42975], [94.12202, 26.43292], [94.1247, 26.43699], [94.12521, 26.43752], [94.12784, 26.44026], [94.12821, 26.44111], [94.12879, 26.44243], [94.12929, 26.44355], [94.12998, 26.44512], [94.12943, 26.44679], [94.12938, 26.44695], [94.12827, 26.45036], [94.12819, 26.45061], [94.1277, 26.45138], [94.1272, 26.45217], [94.12645, 26.45336], [94.12603, 26.45403], [94.12349, 26.45566], [94.12267, 26.45618], [94.12169, 26.45681], [94.11724, 26.45967], [94.1165, 26.46014], [94.11575, 26.46062], [94.11215, 26.46294], [94.11179, 26.46317], [94.11077, 26.46382], [94.10767, 26.46582], [94.10693, 26.46629], [94.10629, 26.4667], [94.10423, 26.46968], [94.10415, 26.4698], [94.10323, 26.47114], [94.10321, 26.47198], [94.10304, 26.47769], [94.10297, 26.48009], [94.10094, 26.48422], [94.09921, 26.48773], [94.09817, 26.49158], [94.09813, 26.49173], [94.09878, 26.49266], [94.09945, 26.49362], [94.09996, 26.49437], [94.10212, 26.49747], [94.10308, 26.4998], [94.10321, 26.50011], [94.1034, 26.50057], [94.10379, 26.50154], [94.10457, 26.50342], [94.10489, 26.5042], [94.10536, 26.50534], [94.10563, 26.50631], [94.10587, 26.50717], [94.10589, 26.50723], [94.10618, 26.50827], [94.10698, 26.51116], [94.10664, 26.51364], [94.10653, 26.51441], [94.1065, 26.51461], [94.10637, 26.51556], [94.10583, 26.51943], [94.10577, 26.51982], [94.1058, 26.51986], [94.10748, 26.52209], [94.11107, 26.52685], [94.1114, 26.52779], [94.11182, 26.52898], [94.11236, 26.53049], [94.11225, 26.532], [94.11216, 26.53326], [94.11197, 26.53587], [94.1117, 26.53978], [94.11409, 26.54226], [94.11466, 26.54286], [94.11546, 26.5437], [94.11466, 26.54569], [94.11436, 26.54588], [94.11416, 26.54601], [94.11183, 26.54754], [94.11157, 26.54803], [94.11109, 26.54892], [94.11013, 26.55073], [94.11367, 26.5521], [94.11568, 26.55376], [94.11643, 26.55439], [94.1161, 26.55611], [94.11551, 26.55659], [94.11386, 26.55792], [94.11356, 26.55816], [94.11319, 26.55846], [94.11193, 26.56048], [94.11178, 26.56073], [94.11103, 26.56193], [94.11101, 26.56198], [94.11048, 26.56358], [94.11006, 26.56483], [94.11004, 26.56489], [94.10976, 26.56571], [94.1096, 26.56619], [94.10945, 26.56665], [94.10942, 26.56673], [94.10803, 26.56855], [94.10747, 26.56928], [94.10709, 26.5693], [94.10251, 26.5696], [94.10044, 26.57128], [94.10067, 26.57286], [94.10101, 26.57513], [94.10118, 26.57624], [94.09642, 26.578], [94.09404, 26.57888], [94.0939, 26.57893], [94.09298, 26.57927], [94.0917, 26.57975], [94.09104, 26.57931], [94.08949, 26.57828], [94.08907, 26.57771], [94.08774, 26.5759], [94.08741, 26.57589], [94.0831, 26.57576], [94.08081, 26.57517], [94.07954, 26.57485], [94.07853, 26.57631], [94.07766, 26.57757], [94.07861, 26.58154], [94.07896, 26.58226], [94.07916, 26.58268], [94.08074, 26.5859], [94.08132, 26.58709], [94.08055, 26.5882], [94.08032, 26.58853], [94.07961, 26.58954], [94.0793, 26.58999], [94.07869, 26.59002], [94.07823, 26.59005], [94.07741, 26.5901], [94.07337, 26.59035], [94.07336, 26.59041], [94.07259, 26.59578], [94.07243, 26.59692], [94.07379, 26.59839], [94.07647, 26.60128], [94.07671, 26.60154], [94.07872, 26.60371], [94.07913, 26.60415], [94.08027, 26.60538], [94.08154, 26.60603], [94.0828, 26.60667], [94.08317, 26.60686], [94.08356, 26.60726], [94.08517, 26.60891], [94.08561, 26.60936], [94.08489, 26.61061], [94.08478, 26.61065], [94.08375, 26.61108], [94.08211, 26.61167], [94.08123, 26.61199], [94.08102, 26.61247], [94.08048, 26.61371], [94.08034, 26.61403], [94.08013, 26.61451], [94.07991, 26.615], [94.0803, 26.61524], [94.08129, 26.61584], [94.08332, 26.61706], [94.08469, 26.61956], [94.08511, 26.61973], [94.08619, 26.62017], [94.08687, 26.62045], [94.08734, 26.62064], [94.08735, 26.62065], [94.08841, 26.62192], [94.08823, 26.62223], [94.08776, 26.62309], [94.08771, 26.62318], [94.08684, 26.62476], [94.08683, 26.62541], [94.08681, 26.62681], [94.08638, 26.62704], [94.08624, 26.62697], [94.08621, 26.62693], [94.08596, 26.62649], [94.08577, 26.62638], [94.08496, 26.62593], [94.08491, 26.62626], [94.08471, 26.62653], [94.08438, 26.62644], [94.08406, 26.62638], [94.08378, 26.62618], [94.08371, 26.62642], [94.08357, 26.62687], [94.08331, 26.6276], [94.08333, 26.62792], [94.08333, 26.62795], [94.08346, 26.62829], [94.08356, 26.62851], [94.08405, 26.6288], [94.08426, 26.62923], [94.08451, 26.62974], [94.08474, 26.63022], [94.08483, 26.63066], [94.08491, 26.63111], [94.08489, 26.63202], [94.08491, 26.63246], [94.08491, 26.6325], [94.08492, 26.63252], [94.08819, 26.6368], [94.08851, 26.63722], [94.08866, 26.63742], [94.0892, 26.63822], [94.0893, 26.63837], [94.08991, 26.63927], [94.09023, 26.63953], [94.09225, 26.64117], [94.09286, 26.64203], [94.09308, 26.64218], [94.09391, 26.64277], [94.09451, 26.64337], [94.09532, 26.64414], [94.09571, 26.64458], [94.09587, 26.64544], [94.09228, 26.64715], [94.08844, 26.64771], [94.08806, 26.64815], [94.08658, 26.64984], [94.08656, 26.64986], [94.08678, 26.65415], [94.08685, 26.65543], [94.08651, 26.65572], [94.08413, 26.65773], [94.08236, 26.65887], [94.08169, 26.6593], [94.08125, 26.65959], [94.07909, 26.66097], [94.0784, 26.66141], [94.07833, 26.66138], [94.07803, 26.66164], [94.07677, 26.66242], [94.07641, 26.6628], [94.07482, 26.66446], [94.07372, 26.66498], [94.07241, 26.66624], [94.072, 26.66636], [94.07176, 26.6673], [94.07105, 26.66736], [94.0708, 26.66731], [94.0708, 26.66657], [94.07005, 26.66687], [94.0699, 26.66691], [94.06957, 26.667], [94.06851, 26.66831], [94.06753, 26.66996], [94.06735, 26.67027], [94.06734, 26.67028], [94.06668, 26.6716], [94.06663, 26.6711], [94.06476, 26.67177], [94.0654, 26.67058], [94.06635, 26.66882], [94.06695, 26.66692], [94.067, 26.66676], [94.06714, 26.66639], [94.06652, 26.66619], [94.06486, 26.66296], [94.06393, 26.66413], [94.06387, 26.66421], [94.06343, 26.66476], [94.0623, 26.66522], [94.06151, 26.66554], [94.05851, 26.6613], [94.05594, 26.66671], [94.05688, 26.66749], [94.0577, 26.66817], [94.05767, 26.67035], [94.05604, 26.67193], [94.05592, 26.67248], [94.05563, 26.67375], [94.05488, 26.67708], [94.05435, 26.67697], [94.05335, 26.67676], [94.05041, 26.67309], [94.04969, 26.67427], [94.049, 26.6754], [94.04885, 26.67565], [94.04748, 26.68018], [94.04729, 26.6808], [94.04847, 26.68152], [94.04892, 26.6816], [94.0493, 26.68203], [94.04977, 26.68232], [94.05133, 26.68329], [94.05085, 26.68598], [94.04898, 26.68613], [94.04848, 26.68617], [94.0484, 26.68622], [94.04712, 26.687], [94.04683, 26.68718], [94.0456, 26.68794], [94.04549, 26.68815], [94.04517, 26.6882], [94.04462, 26.68854], [94.04488, 26.69098], [94.04517, 26.69371], [94.04531, 26.69505], [94.04539, 26.69582], [94.04494, 26.69663], [94.0439, 26.69852], [94.04177, 26.70236], [94.0405, 26.70465], [94.0383, 26.70861], [94.03892, 26.70906], [94.03925, 26.7093], [94.04104, 26.7106], [94.04253, 26.71169], [94.04334, 26.71228], [94.04397, 26.71274], [94.04372, 26.71376], [94.04361, 26.71421], [94.04324, 26.71568], [94.04272, 26.71778], [94.04186, 26.72126], [94.0438, 26.72364], [94.04402, 26.72391], [94.0449, 26.72499], [94.0454, 26.72561], [94.04629, 26.72671], [94.04786, 26.72864], [94.04603, 26.72881], [94.04332, 26.72906], [94.0425, 26.72913], [94.04482, 26.73131], [94.04759, 26.7339], [94.04821, 26.73932], [94.04666, 26.73852], [94.04612, 26.73824], [94.04442, 26.73737], [94.04374, 26.73702], [94.04358, 26.73694], [94.0422, 26.73624], [94.04138, 26.73942], [94.04051, 26.74282], [94.03959, 26.74192], [94.03589, 26.73829], [94.0359, 26.73825], [94.03589, 26.73795], [94.03564, 26.73769], [94.03541, 26.73754], [94.03511, 26.73753], [94.03488, 26.73752], [94.03292, 26.73956], [94.03098, 26.74157], [94.02919, 26.74158], [94.024, 26.74159], [94.02288, 26.74159], [94.02206, 26.7416], [94.02265, 26.7432], [94.02327, 26.74488], [94.0234, 26.74523], [94.02352, 26.74555], [94.02382, 26.74637], [94.024, 26.74684], [94.02415, 26.74725], [94.02364, 26.7473], [94.02166, 26.7475], [94.01863, 26.7478], [94.01814, 26.74785], [94.01159, 26.7485], [94.0086, 26.74786], [94.00282, 26.74662], [94.00268, 26.74886], [94.00264, 26.74946], [94.00256, 26.75085], [94.00251, 26.75165], [94.0025, 26.75179], [94.00242, 26.75306], [94.00226, 26.75566], [94.00224, 26.75606], [94.0021, 26.75832], [94.00184, 26.76256], [93.99853, 26.76677], [93.99846486600006, 26.76676669400007], [93.99123994000007, 26.766400218000058], [93.98985, 26.76543], [93.98083, 26.7591], [93.97710772400006, 26.756490960000065], [93.97017043400007, 26.751628434000054], [93.97003, 26.75153], [93.96795, 26.75059], [93.96335, 26.74851], [93.96035, 26.74716], [93.95618, 26.74527], [93.95569, 26.74505], [93.95283, 26.74376], [93.94648, 26.74089], [93.94631455800004, 26.74085530600007], [93.93246, 26.73795], [93.93205, 26.73786], [93.9264, 26.73649], [93.92391, 26.73588], [93.92188359800008, 26.735390605000077], [93.92126, 26.73524], [93.91773, 26.73438], [93.9177, 26.73434], [93.91735752900007, 26.733817282000075], [93.91734982300005, 26.733805519000043], [93.91732, 26.73376], [93.91449, 26.73264], [93.90534, 26.72904], [93.90489, 26.72886], [93.89767, 26.72599], [93.89622, 26.72541], [93.89598, 26.72532], [93.89548, 26.72526], [93.88581, 26.72411], [93.88074, 26.7235], [93.87699, 26.72305], [93.87682760400008, 26.72312454200005], [93.87638, 26.72333], [93.87319, 26.72477], [93.87274, 26.72497], [93.87272936200009, 26.724974812000028], [93.86213, 26.72977], [93.85984, 26.73081], [93.8569, 26.73215], [93.84496, 26.73757], [93.84433, 26.73786], [93.83534, 26.74216], [93.82110975100005, 26.74899021600004], [93.81661, 26.75115], [93.81640028300006, 26.75118123900006], [93.81261958300007, 26.751744406000057], [93.80701, 26.75258], [93.80636, 26.75267], [93.80377027200007, 26.752930228000025], [93.80251059800008, 26.753056807000064], [93.79200708300004, 26.754112254000063], [93.79193, 26.75412], [93.7839, 26.76138], [93.78116, 26.76386], [93.77478402400004, 26.769623943000056], [93.77293, 26.7713], [93.77235554500004, 26.77177646000007], [93.76443, 26.77835], [93.76433753000003, 26.778883336000035], [93.76403712600006, 26.780615969000053], [93.76393745900003, 26.78119081500006], [93.76355561100007, 26.783393190000027], [93.76344409900008, 26.784036357000048], [93.76261573000005, 26.783560486000056], [93.76146465900007, 26.782899233000023], [93.75665, 26.78007], [93.75644251500006, 26.78001417100006], [93.75517693500007, 26.779673633000073], [93.75416, 26.7794], [93.75081221500005, 26.779673633000073], [93.74425, 26.78021], [93.74339, 26.78012], [93.74314286700007, 26.78009386100007], [93.74096494900004, 26.779863504000048], [93.74027, 26.77979], [93.73958634400003, 26.77950071300006], [93.73763419800008, 26.778674670000044], [93.73474, 26.77745], [93.72903551600007, 26.775542778000045], [93.7281, 26.77523], [93.72569, 26.77481], [93.71821271100004, 26.773660303000042], [93.71778222000006, 26.773594111000023], [93.71691, 26.77346], [93.71004, 26.77199], [93.70907, 26.77171], [93.70519827600003, 26.770667613000057], [93.70361, 26.77024], [93.69929534000005, 26.770575792000045], [93.68742, 26.7715], [93.68346, 26.77241], [93.67413, 26.7747], [93.66873436400004, 26.777294435000044], [93.66317, 26.77997], [93.66043857800008, 26.781182967000063], [93.65646721600007, 26.782946566000078], [93.65101, 26.78537], [93.65001311500004, 26.785617228000035], [93.64976, 26.78568], [93.64924622200004, 26.785839026000076], [93.64892, 26.78594], [93.64880229000005, 26.78562912500007], [93.64853, 26.78491], [93.64848982600006, 26.78480382600003], [93.64825, 26.78417], [93.64829194000004, 26.78394632100003], [93.64836458200006, 26.783558896000045], [93.6484, 26.78337], [93.64847, 26.78297], [93.65039490800007, 26.780710474000045], [93.65690668400003, 26.773066723000056], [93.65863370700004, 26.77103948200005], [93.65928684100004, 26.77027281100004], [93.65963, 26.76987], [93.66326784700004, 26.76635035000004], [93.66494698900004, 26.764725765000037], [93.66517, 26.76451], [93.66561, 26.76395], [93.67051, 26.75765], [93.67062915300005, 26.757491044000062], [93.67991, 26.74511], [93.69383, 26.73174], [93.69379856400008, 26.731719172000055], [93.68654, 26.72691], [93.68051, 26.72292], [93.68021410100005, 26.721833141000047], [93.68003964500008, 26.72119235100007], [93.67999, 26.72101], [93.68027232300005, 26.72050044200006], [93.6804, 26.72027], [93.68187121400007, 26.715745844000025], [93.68253, 26.71372], [93.68257018100007, 26.712371321000035], [93.68276, 26.706], [93.68251001600004, 26.706202817000076], [93.68223, 26.70643], [93.68214583000008, 26.706445608000024], [93.68107308600008, 26.706644527000037], [93.68072, 26.70671], [93.67641912900007, 26.70713710700005], [93.67639, 26.70714], [93.67474, 26.70815], [93.67453583000008, 26.708329863000074], [93.67392793300007, 26.708865392000064], [93.6739, 26.70889], [93.67355835600006, 26.710024066000074], [93.67318, 26.71128], [93.67274135700006, 26.71284031400006], [93.67248, 26.71377], [93.67199, 26.71367], [93.67199555300004, 26.71365125600005], [93.67220434300003, 26.712946591000048], [93.67223, 26.71286], [93.66877610200004, 26.713546587000053], [93.66692460600007, 26.713914639000052], [93.66564, 26.71417], [93.66548218700007, 26.714077864000046], [93.6623, 26.71222], [93.65853, 26.71002], [93.65696, 26.7091], [93.65199909200004, 26.706206137000038], [93.65012, 26.70511], [93.65000067700004, 26.705123780000065], [93.64631, 26.70555], [93.63956883400004, 26.70631495500004], [93.63904463200004, 26.706374439000058], [93.63785, 26.70651], [93.63146, 26.70856], [93.6229, 26.7113], [93.61889, 26.71258], [93.60125, 26.71592], [93.58662, 26.71929], [93.58321, 26.72007], [93.58187, 26.72038], [93.57012000500004, 26.723088094000047], [93.56612, 26.72401], [93.56278919800008, 26.726363923000065], [93.56046, 26.72801], [93.56146376300006, 26.731518953000034], [93.56283965300008, 26.736328787000048], [93.56272320100004, 26.736346800000035], [93.56108117600007, 26.736582982000073], [93.55891498300008, 26.736894557000028], [93.55408, 26.73759], [93.54567, 26.74213], [93.54386, 26.74431], [93.54049, 26.74838], [93.53451107800004, 26.75390130100004], [93.53448, 26.75393], [93.52388737300004, 26.75526632900005], [93.52262239500004, 26.755425914000057], [93.52259, 26.75543], [93.52090176900003, 26.756101874000024], [93.51052517800008, 26.760231499000042], [93.50975, 26.76054], [93.50633, 26.75985], [93.50232954400008, 26.759042733000058], [93.49295, 26.75715], [93.49284108600006, 26.757160102000057], [93.48605, 26.75779], [93.47153, 26.75915], [93.46122, 26.75711], [93.46008003100007, 26.756551327000068], [93.44963, 26.75143], [93.44957765500004, 26.75138214900005], [93.44567, 26.74781], [93.44398765900007, 26.74626863800006], [93.44388, 26.74617], [93.43900435300009, 26.74554641900005], [93.432405, 26.74470238200007], [93.43223, 26.74468], [93.42967, 26.74515], [93.42158, 26.74662], [93.41443, 26.74072], [93.41441594400004, 26.740717694000068], [93.40675, 26.73946], [93.40346883400008, 26.739642867000043], [93.40047, 26.73981], [93.37677, 26.74243], [93.37672812400007, 26.74246807000003], [93.37609857100006, 26.743040390000033], [93.37567, 26.74343], [93.37527830100004, 26.743344017000027], [93.37403, 26.74307], [93.37264, 26.74278], [93.35803, 26.73767], [93.34911467900008, 26.732411111000033], [93.34796, 26.73173], [93.34292, 26.72372], [93.34277814500007, 26.723496305000026], [93.34266, 26.72331], [93.34074159100004, 26.715507140000057], [93.34073, 26.71546], [93.33819380200003, 26.710911132000035], [93.33639690900009, 26.70768826400007], [93.33637, 26.70764], [93.33564, 26.7075], [93.33026, 26.70645], [93.32501631400004, 26.706330281000078], [93.32369, 26.7063], [93.32366563100004, 26.706278332000068], [93.31954, 26.70261], [93.30792, 26.6983], [93.30844, 26.69617], [93.30955, 26.69166], [93.31401, 26.68826], [93.31572, 26.68696], [93.31755, 26.68557], [93.31767, 26.68109], [93.31906, 26.68002], [93.32038, 26.67901], [93.31958, 26.67779], [93.31808, 26.67552], [93.31703, 26.67463], [93.31032, 26.66896], [93.31168, 26.66335], [93.3123, 26.66294], [93.32107, 26.65717], [93.32017, 26.64929], [93.31604, 26.64173], [93.31526, 26.6403], [93.31241, 26.63838], [93.31002, 26.63677], [93.30487, 26.63689], [93.29133, 26.63718], [93.29094, 26.63699], [93.28709, 26.6351], [93.29073, 26.62644], [93.29095, 26.62592], [93.29475, 26.61688], [93.2973, 26.61207], [93.30104, 26.60503], [93.30008, 26.60216], [93.29677, 26.59226], [93.29465, 26.58861], [93.29512, 26.58631], [93.29513, 26.58626], [93.2952, 26.58622], [93.29532, 26.58615], [93.29746, 26.58498], [93.29789, 26.58474], [93.29925, 26.58399], [93.30219, 26.58235], [93.30287, 26.58199], [93.30292, 26.58196], [93.30473, 26.58097], [93.30509, 26.58077], [93.30338, 26.57869], [93.30317, 26.57844], [93.30153, 26.57742], [93.29892, 26.57484], [93.29965, 26.57402], [93.3035, 26.5758], [93.30791, 26.5778], [93.31006, 26.57877], [93.31008, 26.57878], [93.31434, 26.58082], [93.32042, 26.58246], [93.32861, 26.58268], [93.33406, 26.58282], [93.33472, 26.58284], [93.33532, 26.58283], [93.33545, 26.58283], [93.33843, 26.58277], [93.33949, 26.58273], [93.3421, 26.58262], [93.34327, 26.58258], [93.34342, 26.58257], [93.34904, 26.58234], [93.35414, 26.58214], [93.36162, 26.58184], [93.36823, 26.58157], [93.37071, 26.58079], [93.37586, 26.57916], [93.37814, 26.57844], [93.37899, 26.57817], [93.3868, 26.57807], [93.38736, 26.57806], [93.3888, 26.57804], [93.39046, 26.57802], [93.3913, 26.57801], [93.40173, 26.55034], [93.4109, 26.55712], [93.47453, 26.56881], [93.5032, 26.57407], [93.52209, 26.58117], [93.52425, 26.58198], [93.52574, 26.58254], [93.52718, 26.58308], [93.52813, 26.58302], [93.52968, 26.58292], [93.53377, 26.58266], [93.53431, 26.58263], [93.53644, 26.5825], [93.53731, 26.58244], [93.54292, 26.58209], [93.54299, 26.58209], [93.54785, 26.58178], [93.55154, 26.58155], [93.56737, 26.58056], [93.56888, 26.5795], [93.57016, 26.5786], [93.57383, 26.57602], [93.5793, 26.57217], [93.58361, 26.56914], [93.58378, 26.56902], [93.58394, 26.56894], [93.58747, 26.56704], [93.58894, 26.56724], [93.59503, 26.56808], [93.59793, 26.56848], [93.60433, 26.56947], [93.61073, 26.5683], [93.61424, 26.56677], [93.61605, 26.56622], [93.61839, 26.5646], [93.62082, 26.56424], [93.62254, 26.56424], [93.6238, 26.56668], [93.6283, 26.57758], [93.62893, 26.58227], [93.63191, 26.58434], [93.6353, 26.58543], [93.64723, 26.58925], [93.65805, 26.59272], [93.66976, 26.59489], [93.68062, 26.59538], [93.68166, 26.59543], [93.69554, 26.59272], [93.70664, 26.5921], [93.70798, 26.59203], [93.71187, 26.59181], [93.71808, 26.59146], [93.72029, 26.59178], [93.73364, 26.59371], [93.73568, 26.59128], [93.73643, 26.59038], [93.73726, 26.58939], [93.73783, 26.58766], [93.73851, 26.58561], [93.73883, 26.58543], [93.74055, 26.58448], [93.74105, 26.5842], [93.74176, 26.58381], [93.74268, 26.5833], [93.74727, 26.58348], [93.74819, 26.58311], [93.75021, 26.5823], [93.75083, 26.58132], [93.75114, 26.58083], [93.75222, 26.57912], [93.7516, 26.5772], [93.74863, 26.57522], [93.74743, 26.57442], [93.74641, 26.57374], [93.74262, 26.57122], [93.74053, 26.56983], [93.74068, 26.56924], [93.74094, 26.56823], [93.74142, 26.56635], [93.74221, 26.56326], [93.74232, 26.56283], [93.74212, 26.56253], [93.74168, 26.56188], [93.74093, 26.56075], [93.73987, 26.55914], [93.73982, 26.55907], [93.7393, 26.56011], [93.73916, 26.56039], [93.73877, 26.56118], [93.73726, 26.55996], [93.73734, 26.55955], [93.73744, 26.55905], [93.73759, 26.55828], [93.73793, 26.55652], [93.73661, 26.55338], [93.73601, 26.55195], [93.73597, 26.55116], [93.73591, 26.54983], [93.73768, 26.54842], [93.73968, 26.54683], [93.73976, 26.54677], [93.74107, 26.54351], [93.74021, 26.54056], [93.73915, 26.54062], [93.73499, 26.54084], [93.73495, 26.54059], [93.73451, 26.53773], [93.73674, 26.53544], [93.73715, 26.53502], [93.7376, 26.53456], [93.7388, 26.53535], [93.74064, 26.53656], [93.74267, 26.5379], [93.74568, 26.53151], [93.74595, 26.53095], [93.7471, 26.52851], [93.75091, 26.53099], [93.75108, 26.5311], [93.75122, 26.53103], [93.75178, 26.53076], [93.75532, 26.52907], [93.75883, 26.52739], [93.75878, 26.52697], [93.75846, 26.52447], [93.75824, 26.52279], [93.75515, 26.52028], [93.75543, 26.51776], [93.75555, 26.51669], [93.75557, 26.51649], [93.75707, 26.51563], [93.75833, 26.51491], [93.75632, 26.51184], [93.75658, 26.51121], [93.75767, 26.50857], [93.75821, 26.50727], [93.76216, 26.50703], [93.766, 26.50679], [93.76688, 26.50259], [93.767, 26.50203], [93.76748, 26.50125], [93.76815, 26.50018], [93.76827, 26.49998], [93.76957, 26.49788], [93.77022, 26.49684], [93.77061, 26.4962], [93.77165, 26.49453], [93.77206, 26.49387], [93.7738, 26.49105], [93.77392, 26.49086], [93.77588, 26.4877], [93.77666, 26.4857], [93.7785, 26.48103], [93.77879, 26.48029], [93.77909, 26.47953], [93.77904, 26.47688], [93.7769, 26.4749], [93.77491, 26.47689], [93.77247, 26.47789], [93.77244, 26.47502], [93.77544, 26.47148], [93.77673, 26.46996], [93.77686, 26.46981], [93.77844, 26.46795], [93.78152, 26.46645], [93.7825, 26.46597], [93.78356, 26.46545], [93.78471, 26.46489], [93.78584, 26.46434], [93.7874, 26.46358], [93.7879, 26.45841], [93.78718, 26.45415], [93.79098, 26.4504], [93.79155, 26.44805], [93.79324, 26.44112], [93.79274, 26.44104], [93.792, 26.44092], [93.78922, 26.44048], [93.78739, 26.44019], [93.78531, 26.43797], [93.78637, 26.43454], [93.79279, 26.43514], [93.79336, 26.43519], [93.794, 26.43294], [93.79483, 26.42998], [93.78858, 26.42479], [93.78504, 26.42358], [93.78331, 26.42299], [93.78229, 26.42264], [93.78279, 26.42034], [93.78323, 26.41834], [93.78379, 26.41668], [93.78406, 26.41588], [93.78411, 26.41574], [93.78437, 26.41495], [93.78494, 26.41324], [93.78504, 26.41321], [93.78643, 26.41285], [93.78665, 26.41279], [93.78799, 26.41243], [93.78938, 26.41206], [93.79379, 26.41089], [93.79638, 26.4102], [93.79713, 26.41], [93.80126, 26.41028], [93.79838, 26.40599], [93.79565, 26.40521], [93.79255, 26.40299], [93.7925, 26.40284], [93.79076, 26.398], [93.79046, 26.39716], [93.78622, 26.39446], [93.78006, 26.38668], [93.77714, 26.38717], [93.77582, 26.3841], [93.77838, 26.3831], [93.78041, 26.38434], [93.78468, 26.38696], [93.78802, 26.38948], [93.78875, 26.38897], [93.79105, 26.38742], [93.79274, 26.3859], [93.79582, 26.38313], [93.79728, 26.38181], [93.79919, 26.3801], [93.80565, 26.37898], [93.80749, 26.37866], [93.81398, 26.37866], [93.82263, 26.38118], [93.82329, 26.38225], [93.82716, 26.38849], [93.82732, 26.38875], [93.82911, 26.39001], [93.82914, 26.39003], [93.83092, 26.39128], [93.8314, 26.39187], [93.83336, 26.39428], [93.83455, 26.39574], [93.83561, 26.39705], [93.83643, 26.39728], [93.83713, 26.39748], [93.84066, 26.39849], [93.84498, 26.39488], [93.85111, 26.38803], [93.8524, 26.38657], [93.8594, 26.37866], [93.86625, 26.37614], [93.87265, 26.37506], [93.88108, 26.37363], [93.88202, 26.37347], [93.88456, 26.37304], [93.88668, 26.37237], [93.88769, 26.37205], [93.88971, 26.37221], [93.89099, 26.37231], [93.89347, 26.37251], [93.89293, 26.37134], [93.89258, 26.37059], [93.89192, 26.36916], [93.89135, 26.36849], [93.89091, 26.36798], [93.89015, 26.36709], [93.88914, 26.36591], [93.88465, 26.36327], [93.8852, 26.36293], [93.88584, 26.36253], [93.88592, 26.36248], [93.88722, 26.36167], [93.88754, 26.36147], [93.88761, 26.35962], [93.88765, 26.35838], [93.88769, 26.35738], [93.8877, 26.35704], [93.88626, 26.35654], [93.88556, 26.3563], [93.8848, 26.35602], [93.88497, 26.35499], [93.88505, 26.35455], [93.88519, 26.35374], [93.8864, 26.35218], [93.8875, 26.35076], [93.88842, 26.34957], [93.88889, 26.34682], [93.88612, 26.34679], [93.88515, 26.34678], [93.88482, 26.34678], [93.88442, 26.34394], [93.88431, 26.3432], [93.88416, 26.34211], [93.88585, 26.34216], [93.8867, 26.34218], [93.89004, 26.34228], [93.8904, 26.34229], [93.88987, 26.33966], [93.88899, 26.33526], [93.88882, 26.3344], [93.88886, 26.33347], [93.88962, 26.33315], [93.88997, 26.333], [93.89169, 26.333], [93.89177, 26.33335], [93.8929, 26.33553], [93.893, 26.33572], [93.89308, 26.33603], [93.89319, 26.33606], [93.89358, 26.33615], [93.89429, 26.33631], [93.89436, 26.33683], [93.89463, 26.33725], [93.89616, 26.33129], [93.89761, 26.32563], [93.89834, 26.32278], [93.89832, 26.32251], [93.8982, 26.32072], [93.8981, 26.31913], [93.89799, 26.31747], [93.89792, 26.31648], [93.89777, 26.31429], [93.89762, 26.31196], [93.89671, 26.30937], [93.89666, 26.30924], [93.89627, 26.30812], [93.89623, 26.30802], [93.89602, 26.30741], [93.89547, 26.30583], [93.8945, 26.30308], [93.89399, 26.30163], [93.89356, 26.30041], [93.89293, 26.29862], [93.89189, 26.29513], [93.89148, 26.29375], [93.88955, 26.28725], [93.88792, 26.28179], [93.88734, 26.27984], [93.88674, 26.27782], [93.88631, 26.27637], [93.88525, 26.27281], [93.88392, 26.26834], [93.8804, 26.26067], [93.87886, 26.25732], [93.87876, 26.25709], [93.87782, 26.25503], [93.87376, 26.24618], [93.86985, 26.23766], [93.86955, 26.23701], [93.86921, 26.23627], [93.86899, 26.23579], [93.86767, 26.23291], [93.86589, 26.22904], [93.86322, 26.22464], [93.86271, 26.2238], [93.86229, 26.2231], [93.86162, 26.222], [93.85967, 26.21877], [93.8589, 26.2175], [93.85689, 26.21418], [93.85657, 26.21365], [93.85582, 26.21241], [93.85375, 26.20899], [93.85247, 26.20688], [93.85201, 26.20613], [93.85095, 26.20437], [93.85039, 26.20344], [93.85011, 26.20212], [93.84913, 26.19753], [93.84733, 26.18909], [93.84707, 26.18788], [93.84684, 26.18682], [93.84669, 26.18611], [93.84556, 26.18081], [93.84354, 26.17135], [93.84344, 26.17074], [93.84309, 26.16848], [93.84296, 26.16763], [93.84258, 26.16519], [93.84242, 26.16414], [93.84221, 26.16281], [93.84139, 26.15757], [93.84106, 26.15525], [93.84103, 26.15508], [93.84101, 26.15496], [93.84093, 26.1545], [93.84076, 26.15355], [93.84027, 26.15037], [93.84004, 26.14889], [93.83969, 26.14663], [93.83968, 26.14659], [93.83942, 26.14489], [93.83849, 26.13891], [93.83611, 26.13195], [93.8361, 26.13193], [93.83341, 26.12406], [93.83309, 26.12314], [93.82948, 26.11259], [93.82887, 26.11139], [93.82498, 26.1037], [93.82155, 26.09691], [93.81903, 26.09193], [93.81434, 26.08266], [93.81417, 26.08218], [93.81408, 26.08192], [93.81353, 26.08039], [93.81139, 26.07441], [93.80758, 26.06378], [93.80615, 26.05979], [93.80585, 26.05895], [93.80541, 26.05772], [93.80388, 26.05346], [93.80393, 26.05043], [93.80397, 26.04792], [93.80398, 26.04696], [93.80399, 26.04639], [93.80407, 26.04096], [93.80411, 26.03843], [93.80414, 26.0366], [93.80421, 26.03177], [93.80424, 26.03003], [93.80216, 26.02795], [93.79601, 26.02179], [93.79487, 26.02065], [93.79499, 26.01984], [93.79508, 26.01922], [93.79585, 26.01385], [93.79601, 26.0127], [93.79745, 26.00268], [93.80102, 26.00323], [93.80323, 26.00078], [93.80643, 25.99498], [93.80007, 25.99805], [93.79808, 25.9933], [93.79608, 25.9926], [93.79502, 25.99223], [93.79424, 25.99196], [93.79494, 25.98947], [93.7957, 25.98677], [93.79631, 25.9846], [93.79639, 25.98163], [93.7964, 25.9811], [93.79676, 25.98096], [93.799, 25.98008], [93.79973, 25.98169], [93.79981, 25.98186], [93.80054, 25.98237], [93.8039, 25.98472], [93.80397, 25.98477], [93.80516, 25.98307], [93.8053, 25.98287], [93.80498, 25.98233], [93.80497, 25.98231], [93.80343, 25.9797], [93.80314, 25.97682], [93.80246, 25.97695], [93.80072, 25.97727], [93.79687, 25.9762], [93.79336, 25.97791], [93.79264, 25.97826], [93.79256, 25.9783], [93.79257, 25.97817], [93.79267, 25.97701], [93.79291, 25.97421], [93.79001, 25.97378], [93.78929, 25.97367], [93.78855, 25.97493], [93.78772, 25.97634], [93.78622, 25.97889], [93.78286, 25.98019], [93.78179, 25.97909], [93.78134, 25.97767], [93.78112, 25.97695], [93.78024, 25.97417], [93.77998, 25.97334], [93.77808, 25.96732], [93.77751, 25.96748], [93.77586, 25.96795], [93.77182, 25.96653], [93.77006, 25.96571], [93.76921, 25.96445], [93.76842, 25.96328], [93.77064, 25.96254], [93.77179, 25.96216]]]}}]}