{"type": "FeatureCollection", "features": [{"type": "Feature", "properties": {"Name": "Hailakandi"}, "geometry": {"type": "Polygon", "coordinates": [[[92.42089, 24.25144], [92.42095, 24.24947], [92.42102, 24.2473], [92.42103, 24.24709], [92.42105, 24.2465], [92.42076, 24.24502], [92.42048, 24.24356], [92.41995, 24.24076], [92.41923, 24.23702], [92.41904, 24.23602], [92.41884, 24.235], [92.41879, 24.23474], [92.41856, 24.23354], [92.41835, 24.23172], [92.41811, 24.22964], [92.41799, 24.22858], [92.41797, 24.22834], [92.41701, 24.22001], [92.41689, 24.21588], [92.4167, 24.20927], [92.41746, 24.20501], [92.41821, 24.20083], [92.41757, 24.19406], [92.41744, 24.19272], [92.41902, 24.1898], [92.42061, 24.18689], [92.43163, 24.1816], [92.43265, 24.17972], [92.4327, 24.17821], [92.43271, 24.17772], [92.43288, 24.17248], [92.43383, 24.17143], [92.43478, 24.17038], [92.4354, 24.16969], [92.43602, 24.169], [92.43617, 24.16883], [92.43655, 24.16746], [92.43365, 24.16093], [92.43497, 24.15077], [92.43585, 24.14969], [92.43717, 24.14958], [92.44024, 24.15118], [92.4423, 24.15142], [92.44901, 24.14201], [92.45559, 24.1418], [92.45619, 24.14107], [92.45758, 24.13937], [92.45825, 24.13855], [92.46142, 24.13467], [92.46318, 24.13492], [92.46431, 24.13304], [92.46519, 24.13333], [92.46693, 24.13629], [92.47169, 24.13824], [92.47168, 24.13927], [92.47167, 24.1403], [92.47317, 24.14118], [92.47795, 24.13917], [92.47921, 24.13958], [92.47983, 24.1412], [92.47871, 24.14357], [92.4771, 24.14697], [92.47897, 24.14837], [92.47902, 24.15056], [92.47972, 24.15069], [92.48043, 24.15082], [92.48085, 24.1509], [92.48127, 24.15098], [92.48158, 24.15159], [92.48189, 24.15219], [92.48125, 24.15306], [92.48061, 24.15392], [92.48008, 24.15463], [92.47955, 24.15533], [92.481, 24.15535], [92.48231, 24.15639], [92.48324, 24.15756], [92.48327, 24.15859], [92.4833, 24.15963], [92.48423, 24.16045], [92.48642, 24.16046], [92.49309, 24.15818], [92.49578, 24.15846], [92.49848, 24.15875], [92.50079, 24.16033], [92.50159, 24.16488], [92.50322, 24.16553], [92.5051, 24.16503], [92.5062, 24.16347], [92.50642, 24.16316], [92.50788, 24.1611], [92.50951, 24.16094], [92.51114, 24.16078], [92.51032, 24.16302], [92.50701, 24.16736], [92.50697, 24.16741], [92.50859, 24.16743], [92.509, 24.16743], [92.51071, 24.16745], [92.51205, 24.16746], [92.51311, 24.16839], [92.51233, 24.17057], [92.5119, 24.17177], [92.51268, 24.17273], [92.51317, 24.17333], [92.51332, 24.17351], [92.51346, 24.17369], [92.5149, 24.1741], [92.51548, 24.17427], [92.51591, 24.1744], [92.51819, 24.1726], [92.5194, 24.17164], [92.52007, 24.17111], [92.52371, 24.17109], [92.5249, 24.17162], [92.52501, 24.17167], [92.52608, 24.17214], [92.52796, 24.17297], [92.52808, 24.17378], [92.52814, 24.17416], [92.52817, 24.17439], [92.5282, 24.17459], [92.52833, 24.17467], [92.52846, 24.17474], [92.5296, 24.17543], [92.52983, 24.17557], [92.52991, 24.17575], [92.5303, 24.17664], [92.53112, 24.1785], [92.5312, 24.17869], [92.53148, 24.17884], [92.53176, 24.17899], [92.52979, 24.18161], [92.53083, 24.18374], [92.53126, 24.18462], [92.53162, 24.18536], [92.53194, 24.18602], [92.53384, 24.18995], [92.5339, 24.19007], [92.5347, 24.1917], [92.53494, 24.19219], [92.53605, 24.19447], [92.53609, 24.19454], [92.53613, 24.19462], [92.53598, 24.19498], [92.53533, 24.19656], [92.53499, 24.1974], [92.53489, 24.19764], [92.53486, 24.19772], [92.53478, 24.19792], [92.53473, 24.19804], [92.53516, 24.19906], [92.5356, 24.20007], [92.53581, 24.20028], [92.53699, 24.2015], [92.53837, 24.20291], [92.53919, 24.20377], [92.53947, 24.20403], [92.53954, 24.2041], [92.53978, 24.20436], [92.53983, 24.20459], [92.54076, 24.20875], [92.5407, 24.20975], [92.54068, 24.21001], [92.54055, 24.21231], [92.54248, 24.21542], [92.54409, 24.21803], [92.54427, 24.21854], [92.54489, 24.22026], [92.54571, 24.22254], [92.54573, 24.22298], [92.54578, 24.22386], [92.54583, 24.22478], [92.54588, 24.22574], [92.54589, 24.22595], [92.54593, 24.22678], [92.54592, 24.22787], [92.54607, 24.22937], [92.54611, 24.23], [92.54586, 24.23086], [92.5457, 24.23141], [92.54544, 24.2323], [92.54528, 24.23288], [92.54545, 24.23581], [92.54717, 24.24134], [92.54781, 24.24228], [92.54899, 24.24401], [92.55295, 24.24496], [92.55665, 24.24584], [92.55685, 24.24589], [92.55726, 24.24599], [92.5629, 24.24817], [92.58013, 24.2434], [92.5863, 24.24289], [92.58799, 24.24345], [92.58968, 24.24401], [92.59186, 24.24662], [92.59229, 24.24675], [92.59424, 24.24733], [92.59435, 24.24733], [92.60213, 24.24723], [92.60423, 24.2472], [92.60623, 24.24808], [92.60986, 24.25134], [92.61013, 24.2518], [92.61135, 24.25382], [92.61377, 24.26161], [92.6138, 24.26232], [92.61382, 24.26288], [92.61405, 24.26851], [92.61457, 24.2709], [92.61509, 24.27329], [92.61732, 24.27929], [92.61743, 24.28105], [92.61745, 24.28136], [92.61768, 24.28475], [92.61752, 24.2853], [92.61735, 24.28585], [92.61553, 24.28704], [92.6153, 24.28812], [92.61508, 24.28921], [92.6152, 24.2899], [92.6166, 24.29768], [92.61633, 24.30234], [92.61795, 24.30642], [92.61779, 24.30885], [92.61775, 24.30948], [92.61829, 24.31077], [92.6214, 24.31825], [92.62142, 24.31868], [92.62151, 24.32242], [92.62167, 24.32872], [92.6226, 24.33062], [92.62449, 24.33242], [92.62561, 24.33214], [92.62578, 24.3321], [92.62895, 24.33131], [92.63421, 24.33367], [92.63604, 24.33345], [92.63654, 24.33236], [92.63601, 24.3323], [92.63545, 24.33224], [92.63486, 24.33217], [92.63499, 24.33062], [92.63757, 24.32967], [92.63814, 24.32766], [92.63871, 24.32715], [92.63928, 24.32664], [92.64129, 24.32611], [92.64331, 24.32558], [92.64424, 24.32715], [92.64389, 24.32843], [92.64354, 24.32972], [92.64517, 24.3284], [92.64543, 24.32819], [92.64679, 24.32709], [92.64702, 24.32691], [92.64724, 24.32673], [92.64732, 24.32666], [92.6477, 24.32689], [92.64807, 24.32713], [92.6477, 24.32871], [92.64877, 24.32851], [92.65014, 24.32824], [92.65027, 24.33005], [92.65032, 24.33077], [92.65063, 24.33324], [92.65384, 24.33633], [92.65475, 24.33701], [92.65518, 24.33794], [92.65588, 24.33944], [92.65586, 24.33982], [92.65581, 24.3414], [92.65675, 24.34135], [92.65753, 24.34193], [92.659, 24.34304], [92.65915, 24.34288], [92.65929, 24.34271], [92.6599, 24.34202], [92.66052, 24.34141], [92.66102, 24.34159], [92.66152, 24.34168], [92.66174, 24.34242], [92.66201, 24.34333], [92.66239, 24.34462], [92.6629, 24.34393], [92.66352, 24.34308], [92.66528, 24.3435], [92.66644, 24.34412], [92.67117, 24.34664], [92.67181, 24.34698], [92.67306, 24.34765], [92.67425, 24.34716], [92.67608, 24.34639], [92.6779, 24.34563], [92.6804, 24.34544], [92.68205, 24.34532], [92.68229, 24.34773], [92.68625, 24.34984], [92.68728, 24.35091], [92.68867, 24.35235], [92.68932, 24.35332], [92.68963, 24.35378], [92.68994, 24.35425], [92.68999, 24.35721], [92.69004, 24.35999], [92.69217, 24.36145], [92.69234, 24.36218], [92.69241, 24.36248], [92.69248, 24.36278], [92.692, 24.36421], [92.69152, 24.36564], [92.69328, 24.36738], [92.69515, 24.37182], [92.69653, 24.37276], [92.6994, 24.37295], [92.70067, 24.37303], [92.70237, 24.37402], [92.70218, 24.3761], [92.7017, 24.3816], [92.70246, 24.3822], [92.70321, 24.3828], [92.70326, 24.38283], [92.7042, 24.38365], [92.70519, 24.38437], [92.70558, 24.38468], [92.70572, 24.3848], [92.70572, 24.38507], [92.7057, 24.3902], [92.70836, 24.39525], [92.71037, 24.39905], [92.71187, 24.40189], [92.71218, 24.40249], [92.7125, 24.40308], [92.71247, 24.40789], [92.71247, 24.40814], [92.71641, 24.41398], [92.72206, 24.4337], [92.72444, 24.43959], [92.72542, 24.44201], [92.72884, 24.45048], [92.73024, 24.45281], [92.73929, 24.46795], [92.74192, 24.47233], [92.74367, 24.477], [92.74603, 24.48328], [92.7474, 24.48683], [92.74925, 24.49114], [92.74964, 24.49206], [92.75091, 24.49476], [92.75283, 24.49882], [92.75199, 24.50473], [92.75518, 24.50745], [92.75689, 24.50891], [92.75751, 24.50944], [92.76017, 24.51296], [92.76283, 24.51649], [92.76307, 24.51718], [92.76351, 24.51852], [92.76195, 24.51908], [92.76181, 24.51913], [92.76036, 24.51848], [92.75798, 24.51889], [92.75834, 24.52157], [92.76054, 24.52497], [92.76215, 24.53017], [92.76811, 24.53834], [92.7714, 24.54286], [92.774, 24.54647], [92.77247, 24.54818], [92.77185, 24.54888], [92.77177, 24.55204], [92.77292, 24.55345], [92.77677, 24.5582], [92.77797, 24.55968], [92.77942, 24.55992], [92.77908, 24.56958], [92.77309, 24.56976], [92.76665, 24.56796], [92.7654, 24.56761], [92.76521, 24.56756], [92.7629, 24.56691], [92.76154, 24.57086], [92.76029, 24.57448], [92.76007, 24.57512], [92.7594, 24.57706], [92.75378, 24.58305], [92.75207, 24.58246], [92.74893, 24.58266], [92.7447, 24.58435], [92.74253, 24.58404], [92.74219, 24.58399], [92.74141, 24.58388], [92.74036, 24.58374], [92.73966, 24.58455], [92.73751, 24.58705], [92.73579, 24.58663], [92.73516, 24.58648], [92.7333, 24.58603], [92.73393, 24.58287], [92.73257, 24.58094], [92.73156, 24.57951], [92.72836, 24.57497], [92.72825, 24.57481], [92.72746, 24.5737], [92.72687, 24.57286], [92.7268, 24.57277], [92.72442, 24.56939], [92.72393, 24.56908], [92.72371, 24.56894], [92.72218, 24.56797], [92.72184, 24.56775], [92.72139, 24.56747], [92.72058, 24.56695], [92.7195, 24.56626], [92.71801, 24.56531], [92.71642, 24.5688], [92.71352, 24.56866], [92.71288, 24.56839], [92.71134, 24.56772], [92.71071, 24.56745], [92.70902, 24.56673], [92.70831, 24.56642], [92.70533, 24.56507], [92.7049, 24.56488], [92.70366, 24.56432], [92.70224, 24.56645], [92.70197, 24.56685], [92.70083, 24.56853], [92.69973, 24.57015], [92.69759, 24.57188], [92.69269, 24.57584], [92.68888, 24.57892], [92.68849, 24.57921], [92.68495, 24.58082], [92.67751, 24.58187], [92.67557, 24.5816], [92.67363, 24.58403], [92.67058, 24.58784], [92.66865, 24.59142], [92.66915, 24.59453], [92.67106, 24.59708], [92.67233, 24.59878], [92.67024, 24.60312], [92.6696, 24.60444], [92.66838, 24.60697], [92.66834, 24.60706], [92.66841, 24.60764], [92.66843, 24.60778], [92.6687, 24.60977], [92.66876, 24.60976], [92.66946, 24.60976], [92.66957, 24.60988], [92.66973, 24.61004], [92.66964, 24.61069], [92.66943, 24.61149], [92.66912, 24.61196], [92.6685, 24.61251], [92.66856, 24.61282], [92.66888, 24.61326], [92.66915, 24.61376], [92.66912, 24.6144], [92.66911, 24.61458], [92.66905, 24.6156], [92.66918, 24.616], [92.66936, 24.61626], [92.67081, 24.61676], [92.67303, 24.61846], [92.67503, 24.6194], [92.67622, 24.62035], [92.678, 24.62114], [92.67862, 24.62148], [92.67944, 24.62215], [92.67951, 24.62264], [92.68017, 24.62531], [92.68035, 24.62551], [92.68225, 24.62638], [92.68375, 24.62667], [92.68345, 24.62685], [92.68341, 24.62691], [92.68221, 24.62764], [92.67978, 24.62912], [92.67705, 24.62797], [92.67591, 24.62749], [92.67412, 24.62675], [92.67154, 24.62417], [92.66932, 24.62151], [92.66433, 24.61931], [92.65884, 24.6161], [92.65802, 24.61605], [92.6562, 24.61535], [92.65282, 24.61308], [92.65085, 24.61176], [92.65021, 24.61133], [92.6494, 24.6114], [92.64929, 24.61141], [92.65161, 24.61304], [92.65271, 24.61381], [92.65273, 24.61394], [92.65328, 24.61738], [92.65467, 24.61918], [92.65522, 24.62318], [92.65564, 24.62625], [92.65427, 24.62674], [92.65389, 24.62687], [92.65263, 24.62732], [92.65084, 24.62925], [92.6506, 24.63062], [92.651, 24.63313], [92.65205, 24.63568], [92.65236, 24.63497], [92.65568, 24.63392], [92.65768, 24.63345], [92.65807, 24.63339], [92.66117, 24.63294], [92.66305, 24.63175], [92.66389, 24.63122], [92.66569, 24.63106], [92.66593, 24.63104], [92.66746, 24.63137], [92.66713, 24.6326], [92.66697, 24.6332], [92.66654, 24.63479], [92.66536, 24.63917], [92.66602, 24.64497], [92.66615, 24.64619], [92.6635, 24.64635], [92.65836, 24.64837], [92.65755, 24.65554], [92.6564, 24.66098], [92.65635, 24.66122], [92.65704, 24.66904], [92.65896, 24.66821], [92.65976, 24.66943], [92.65986, 24.66963], [92.65867, 24.66958], [92.6566, 24.67482], [92.65656, 24.67491], [92.65565, 24.68282], [92.65538, 24.68521], [92.65503, 24.68822], [92.6519, 24.68581], [92.64619, 24.68297], [92.64522, 24.68258], [92.64503, 24.68322], [92.6439, 24.68712], [92.64319, 24.68956], [92.64281, 24.69087], [92.64282, 24.69101], [92.64284, 24.6914], [92.64302, 24.69461], [92.64308, 24.6957], [92.64318, 24.69902], [92.64328, 24.70243], [92.64312, 24.70314], [92.64246, 24.70614], [92.64223, 24.70718], [92.64214, 24.70755], [92.64305, 24.7101], [92.6445, 24.71414], [92.64448, 24.71443], [92.64433, 24.71695], [92.64358, 24.71879], [92.64398, 24.7203], [92.64632, 24.71932], [92.6513, 24.71724], [92.65764, 24.71626], [92.65738, 24.71952], [92.65734, 24.72002], [92.65731, 24.72039], [92.65609, 24.72285], [92.65598, 24.72308], [92.65564, 24.72566], [92.65526, 24.72859], [92.65506, 24.73304], [92.65501, 24.73399], [92.65492, 24.73609], [92.65578, 24.74051], [92.65606, 24.74198], [92.65794, 24.74776], [92.65817, 24.74825], [92.65891, 24.74985], [92.66077, 24.75386], [92.66287, 24.75838], [92.66473, 24.76238], [92.66475, 24.76243], [92.66455, 24.76576], [92.66575, 24.7672], [92.66624, 24.76779], [92.66624, 24.76784], [92.66602, 24.77025], [92.66533, 24.7774], [92.66681, 24.78311], [92.6669, 24.78346], [92.6685, 24.78977], [92.66861, 24.7902], [92.6698, 24.79081], [92.67131, 24.79158], [92.67613, 24.79627], [92.67776, 24.79785], [92.67905, 24.79911], [92.68127, 24.80127], [92.68278, 24.80274], [92.68342, 24.80687], [92.68186, 24.80925], [92.68024, 24.81178], [92.6791, 24.81356], [92.6767, 24.81491], [92.67465, 24.81498], [92.67467, 24.81538], [92.6747, 24.81613], [92.67478, 24.81797], [92.67484, 24.81923], [92.6754, 24.82147], [92.67556, 24.82209], [92.67537, 24.82256], [92.6727, 24.82427], [92.67116, 24.82471], [92.67039, 24.82492], [92.6677, 24.82502], [92.66737, 24.82503], [92.66537, 24.82476], [92.66429, 24.82445], [92.66282, 24.82403], [92.66141, 24.82348], [92.66129, 24.82342], [92.66122, 24.8234], [92.66022, 24.82306], [92.65964, 24.82292], [92.65835, 24.82264], [92.6583, 24.82263], [92.6574, 24.82243], [92.65675, 24.82207], [92.65261, 24.82066], [92.65114, 24.82018], [92.64787, 24.8191], [92.6459, 24.81827], [92.64567, 24.81817], [92.64562, 24.81815], [92.64554, 24.81811], [92.6453, 24.8182], [92.64472, 24.81843], [92.64434, 24.81858], [92.64428, 24.8186], [92.64217, 24.81942], [92.64176, 24.81942], [92.64003, 24.81765], [92.63973, 24.81799], [92.63926, 24.81851], [92.63867, 24.81917], [92.63681, 24.82126], [92.63649, 24.82146], [92.63582, 24.82189], [92.63437, 24.82181], [92.63399, 24.82179], [92.63183, 24.82255], [92.62951, 24.82241], [92.62897, 24.82237], [92.62878, 24.82235], [92.62872, 24.82372], [92.62871, 24.82387], [92.6287, 24.82485], [92.6307, 24.8253], [92.63017, 24.82727], [92.63136, 24.83032], [92.63188, 24.8299], [92.63234, 24.83003], [92.63251, 24.83008], [92.6327, 24.83013], [92.63284, 24.83131], [92.63286, 24.83172], [92.63305, 24.83188], [92.63453, 24.83177], [92.63642, 24.83419], [92.63675, 24.83461], [92.63727, 24.83528], [92.63771, 24.83585], [92.63746, 24.83628], [92.6349, 24.84071], [92.63423, 24.84187], [92.63408, 24.84213], [92.63055, 24.84817], [92.62982, 24.85095], [92.62972, 24.85137], [92.62966, 24.8516], [92.62964, 24.85167], [92.62972, 24.85194], [92.63013, 24.85347], [92.62709, 24.85486], [92.62185, 24.85726], [92.61946, 24.85836], [92.61817, 24.85872], [92.61342, 24.86004], [92.61068, 24.86081], [92.61044, 24.86088], [92.60908, 24.86125], [92.60883, 24.8616], [92.60776, 24.86309], [92.60742, 24.86355], [92.60823, 24.86537], [92.60849, 24.86594], [92.609, 24.8671], [92.60901, 24.86713], [92.6096, 24.86854], [92.61008, 24.86971], [92.61115, 24.8715], [92.61163, 24.87205], [92.60995, 24.87224], [92.60708, 24.87428], [92.60501, 24.87578], [92.60415, 24.87636], [92.60346, 24.87682], [92.60302, 24.87712], [92.60256, 24.87743], [92.60195, 24.87779], [92.60159, 24.878], [92.60089, 24.87842], [92.59959, 24.87874], [92.59938, 24.8787], [92.59682, 24.87827], [92.59531, 24.87781], [92.59492, 24.87769], [92.59254, 24.87697], [92.5911, 24.87653], [92.59103, 24.87651], [92.59001, 24.8762], [92.58837, 24.8757], [92.58778, 24.87553], [92.58762, 24.87548], [92.58723, 24.87536], [92.58692, 24.87527], [92.58538, 24.8748], [92.58528, 24.87476], [92.58406, 24.87442], [92.5839, 24.87438], [92.58329, 24.87412], [92.58227, 24.87391], [92.58205, 24.87384], [92.58187, 24.87376], [92.58129, 24.87356], [92.58093, 24.87329], [92.58094, 24.87277], [92.58095, 24.87133], [92.58136, 24.87114], [92.5823, 24.8707], [92.583, 24.87037], [92.58315, 24.8703], [92.58328, 24.87024], [92.58503, 24.86942], [92.5869, 24.86855], [92.58795, 24.86806], [92.58917, 24.86749], [92.58918, 24.86747], [92.58925, 24.8673], [92.58971, 24.86622], [92.58989, 24.8658], [92.59018, 24.86511], [92.5903, 24.86483], [92.59055, 24.86424], [92.58915, 24.8632], [92.58867, 24.86285], [92.58817, 24.86248], [92.58787, 24.86226], [92.58782, 24.85846], [92.58722, 24.85621], [92.58675, 24.85446], [92.58672, 24.85435], [92.58573, 24.85066], [92.58541, 24.84946], [92.58427, 24.84734], [92.5836, 24.84608], [92.58316, 24.84526], [92.58215, 24.84337], [92.58047, 24.84023], [92.57997, 24.83929], [92.57712, 24.83662], [92.57273, 24.83249], [92.5635, 24.82142], [92.56324, 24.82111], [92.56215, 24.8198], [92.55944, 24.81816], [92.55341, 24.81448], [92.54977, 24.80983], [92.5487, 24.80783], [92.54767, 24.80592], [92.54683, 24.80435], [92.54665, 24.80233], [92.54499, 24.80034], [92.54384, 24.79897], [92.54364, 24.79774], [92.54292, 24.79332], [92.54355, 24.78927], [92.54358, 24.78914], [92.54506, 24.78277], [92.54665, 24.77974], [92.54635, 24.77761], [92.54206, 24.7725], [92.54181, 24.77185], [92.54226, 24.77065], [92.54288, 24.76891], [92.54318, 24.76825], [92.54338, 24.76757], [92.54434, 24.7643], [92.54373, 24.76028], [92.53963, 24.75675], [92.53359, 24.75153], [92.53193, 24.7501], [92.52603, 24.74647], [92.52346, 24.74289], [92.52342, 24.74284], [92.52183, 24.74061], [92.52223, 24.73654], [92.52202, 24.73534], [92.52147, 24.7321], [92.52144, 24.73195], [92.52121, 24.7306], [92.52111, 24.72938], [92.52118, 24.72852], [92.52155, 24.72428], [92.52144, 24.72393], [92.52074, 24.72169], [92.51677, 24.71731], [92.51609, 24.71655], [92.51454, 24.71485], [92.51434, 24.71441], [92.51329, 24.71213], [92.51273, 24.71092], [92.51025, 24.71021], [92.51002, 24.71014], [92.50934, 24.70927], [92.50633, 24.70368], [92.50617, 24.70338], [92.50643, 24.70326], [92.5075, 24.70278], [92.50884, 24.70236], [92.51114, 24.70201], [92.51143, 24.70186], [92.51557, 24.70002], [92.51802, 24.69896], [92.51911, 24.69851], [92.52016, 24.69807], [92.52119, 24.69765], [92.52162, 24.69569], [92.52173, 24.69519], [92.5224, 24.6919], [92.52337, 24.68969], [92.52353, 24.68932], [92.52389, 24.6885], [92.52384, 24.68785], [92.52382, 24.68751], [92.52376, 24.68668], [92.52359, 24.68443], [92.52338, 24.68347], [92.52455, 24.67829], [92.52378, 24.67561], [92.52312, 24.67208], [92.52352, 24.66975], [92.52351, 24.66666], [92.52352, 24.66664], [92.5242, 24.66414], [92.52497, 24.66144], [92.52475, 24.66057], [92.52464, 24.66014], [92.52461, 24.65813], [92.52468, 24.65665], [92.52471, 24.65588], [92.52487, 24.65489], [92.5252, 24.65284], [92.52598, 24.65142], [92.52582, 24.65111], [92.52361, 24.64982], [92.5226, 24.64923], [92.5204, 24.64841], [92.51911, 24.64793], [92.51576, 24.64551], [92.51568, 24.64545], [92.51528, 24.64558], [92.51347, 24.64614], [92.51031, 24.6469], [92.50833, 24.64607], [92.50729, 24.6442], [92.50578, 24.64255], [92.50561, 24.64255], [92.50421, 24.64255], [92.50458, 24.64033], [92.50496, 24.63799], [92.50548, 24.63483], [92.50541, 24.62852], [92.50539, 24.62718], [92.50616, 24.62598], [92.50875, 24.62596], [92.50906, 24.62595], [92.50921, 24.6257], [92.5097, 24.62488], [92.50901, 24.62418], [92.50822, 24.62046], [92.50747, 24.61691], [92.50764, 24.61235], [92.50767, 24.61158], [92.50771, 24.61063], [92.50783, 24.60751], [92.50799, 24.60329], [92.50408, 24.60377], [92.50419, 24.60117], [92.50424, 24.60001], [92.50431, 24.59835], [92.50432, 24.59813], [92.50445, 24.59507], [92.50454, 24.59286], [92.50459, 24.59176], [92.5076, 24.58678], [92.50903, 24.58443], [92.50917, 24.58419], [92.50981, 24.58314], [92.51026, 24.58239], [92.51047, 24.58205], [92.51184, 24.57979], [92.51248, 24.57874], [92.51286, 24.57811], [92.51563, 24.57658], [92.51571, 24.57416], [92.51597, 24.57334], [92.51599, 24.57329], [92.51652, 24.57166], [92.51758, 24.56834], [92.51776, 24.56778], [92.5179, 24.56735], [92.51695, 24.56243], [92.51582, 24.55653], [92.51508, 24.55266], [92.51473, 24.55178], [92.51202, 24.54495], [92.50936, 24.53822], [92.50919, 24.53778], [92.50848, 24.53599], [92.5072, 24.53274], [92.50934, 24.52288], [92.50746, 24.51656], [92.50732, 24.51611], [92.50717, 24.51561], [92.50659, 24.51077], [92.50633, 24.50865], [92.50742, 24.50283], [92.50762, 24.50176], [92.50764, 24.49898], [92.50766, 24.49666], [92.50767, 24.49607], [92.50668, 24.49334], [92.50632, 24.49235], [92.50512, 24.48903], [92.50638, 24.48637], [92.50737, 24.48429], [92.50745, 24.48411], [92.50796, 24.48304], [92.50813, 24.48269], [92.50933, 24.48016], [92.5093, 24.48006], [92.50903, 24.479], [92.50899, 24.47887], [92.50855, 24.47716], [92.51339, 24.47519], [92.51931, 24.4736], [92.52259, 24.47311], [92.52247, 24.47307], [92.5229, 24.47118], [92.52294, 24.471], [92.52333, 24.46928], [92.52418, 24.46659], [92.5245, 24.46557], [92.52445, 24.46495], [92.52437, 24.46395], [92.52436, 24.46381], [92.52397, 24.45914], [92.52489, 24.4562], [92.52491, 24.45612], [92.52444, 24.45588], [92.52432, 24.45582], [92.52383, 24.45557], [92.52347, 24.45392], [92.52283, 24.45103], [92.52292, 24.4508], [92.52055, 24.45242], [92.51743, 24.45104], [92.51526, 24.45008], [92.51507, 24.44999], [92.51178, 24.44825], [92.51081, 24.44689], [92.50989, 24.44369], [92.50998, 24.44252], [92.51038, 24.43709], [92.5114, 24.42546], [92.51171, 24.42199], [92.51294, 24.41392], [92.51488, 24.41416], [92.51723, 24.41423], [92.51768, 24.41424], [92.51731, 24.41377], [92.51697, 24.41334], [92.51666, 24.41038], [92.51643, 24.40811], [92.51518, 24.40647], [92.51412, 24.40037], [92.51424, 24.40002], [92.51437, 24.39964], [92.51491, 24.39807], [92.5146, 24.3973], [92.5139, 24.39553], [92.51371, 24.39434], [92.51342, 24.39248], [92.51338, 24.3924], [92.51284, 24.39139], [92.51237, 24.39018], [92.51228, 24.38998], [92.51223, 24.38987], [92.51199, 24.38937], [92.5087, 24.38977], [92.50529, 24.39117], [92.50514, 24.39124], [92.50377, 24.39048], [92.50457, 24.38509], [92.50433, 24.37897], [92.50337, 24.37888], [92.50219, 24.3774], [92.50221, 24.37651], [92.5033, 24.37584], [92.50371, 24.37509], [92.50386, 24.37481], [92.50361, 24.37381], [92.50327, 24.37065], [92.50321, 24.3703], [92.50303, 24.36926], [92.50182, 24.36905], [92.49966, 24.36976], [92.49927, 24.3694], [92.49886, 24.36902], [92.49787, 24.36525], [92.49715, 24.36186], [92.49629, 24.35776], [92.49617, 24.35635], [92.49588, 24.35275], [92.4938, 24.35254], [92.48641, 24.3526], [92.48421, 24.35244], [92.48323, 24.35272], [92.48216, 24.3507], [92.48167, 24.34933], [92.48135, 24.34846], [92.48068, 24.3466], [92.48046, 24.3424], [92.4804, 24.34125], [92.47841, 24.33396], [92.47813, 24.33295], [92.4771, 24.32918], [92.47701, 24.32886], [92.4769, 24.32846], [92.47663, 24.32746], [92.47575, 24.32424], [92.47547, 24.32321], [92.47528, 24.3228], [92.47312, 24.31822], [92.47221, 24.31629], [92.47216, 24.31618], [92.46914, 24.3098], [92.46267, 24.29909], [92.46025, 24.29601], [92.46001, 24.2957], [92.45327, 24.2871], [92.45146, 24.28436], [92.44985, 24.28194], [92.44761, 24.27854], [92.4443, 24.27354], [92.43812, 24.26853], [92.43711, 24.26636], [92.43141, 24.25412], [92.4241, 24.25045], [92.42227, 24.25151], [92.42089, 24.25144]]]}}]}