{"type": "FeatureCollection", "features": [{"type": "Feature", "properties": {"Name": "Hojai"}, "geometry": {"type": "Polygon", "coordinates": [[[92.80265457800004, 26.202534938000042], [92.803284, 26.202095], [92.79596674000004, 26.197713520000036], [92.79000572500007, 26.195123228000057], [92.78867478500007, 26.192051760000027], [92.78801275800004, 26.190882225000053], [92.78671820300008, 26.18859519700004], [92.78478818700006, 26.185905715000047], [92.77998905800007, 26.18368995900005], [92.77427652100005, 26.18327878200006], [92.76965003400005, 26.181245141000034], [92.76639932500007, 26.17783498800003], [92.76611313200004, 26.17727897800006], [92.76533682600007, 26.175770758000056], [92.76634483600009, 26.169793970000057], [92.76604895700007, 26.16879559000006], [92.76553356700003, 26.167056476000027], [92.76674111600005, 26.164939839000056], [92.76927456900006, 26.160498821000033], [92.76979393000005, 26.158350609000024], [92.76939641200005, 26.155930195000053], [92.76918497900004, 26.15464282000005], [92.76892405800004, 26.15414497100005], [92.76678010800003, 26.150054039000054], [92.76603248700007, 26.148866086000055], [92.76504597900004, 26.14729854600006], [92.76264996400005, 26.14496504400006], [92.75664599800007, 26.141056006000042], [92.75356349900005, 26.139424390000045], [92.75291664700006, 26.139720015000023], [92.75161066200008, 26.140316879000068], [92.74726631700008, 26.142351951000023], [92.74434932100007, 26.14355051800004], [92.73861955500007, 26.144032690000074], [92.73774157300005, 26.144106554000075], [92.73326401900005, 26.14435726800008], [92.73261506200004, 26.14439360600005], [92.73004530600008, 26.14636858600005], [92.72649821500005, 26.15231260300004], [92.72608716700006, 26.151200264000067], [92.72507141400007, 26.148451435000027], [92.72406675500008, 26.144526847000066], [92.72079433800008, 26.142692872000055], [92.72037197800006, 26.142605831000026], [92.71517174800005, 26.141534156000034], [92.70933249300003, 26.14165525100003], [92.70912268400008, 26.141659598000047], [92.70599471200006, 26.141714725000043], [92.70639217200005, 26.14123802900008], [92.70890568500005, 26.138223305000054], [92.70893790300005, 26.13809450100007], [92.70970602600005, 26.13502362400004], [92.71040864600008, 26.131346618000066], [92.71067085600004, 26.129974326000024], [92.71119707000008, 26.125311087000057], [92.71448878000007, 26.12134207400004], [92.71492078400007, 26.121051027000078], [92.71682628200006, 26.119767184000068], [92.72074043900005, 26.11712999100007], [92.72497511000006, 26.114336182000045], [92.72773674900009, 26.112514200000078], [92.73114821300004, 26.109468181000068], [92.73152653400007, 26.10798580200003], [92.73254630400004, 26.10398981700007], [92.72649254700008, 26.09923040800004], [92.72601154100005, 26.098852219000037], [92.73231728600007, 26.099070364000056], [92.73610199900008, 26.097009413000023], [92.73822387200005, 26.093910996000034], [92.73971799300006, 26.090600421000033], [92.73950352300005, 26.087849576000053], [92.73947936800005, 26.087539752000055], [92.73743215900004, 26.084975592000035], [92.73531912000004, 26.084232585000052], [92.73483714500009, 26.084063102000073], [92.72947401900007, 26.08494365200005], [92.72704372700008, 26.085190623000074], [92.72731519200005, 26.083639753000057], [92.72818488500008, 26.082132173000048], [92.73256956400007, 26.080214437000052], [92.73325567600006, 26.079624351000064], [92.73480831000006, 26.078289019000067], [92.73602037200004, 26.075873772000023], [92.73622768600006, 26.073536041000068], [92.73331761300005, 26.06947111100004], [92.73121358500003, 26.064876407000042], [92.73178939700006, 26.061208704000023], [92.73290826200008, 26.06101823000006], [92.73449692400004, 26.061178382000037], [92.73692362800006, 26.06262049000003], [92.74239633700006, 26.066996884000048], [92.74400498400007, 26.068063086000052], [92.74715466000004, 26.06869776800005], [92.75075627400008, 26.068188888000066], [92.75160516000005, 26.06707344700004], [92.75442909600008, 26.064915237000037], [92.752686, 26.061041], [92.75160150300007, 26.060919736000073], [92.75151902300007, 26.06122019600008], [92.75150807300008, 26.061198294000064], [92.75146005800008, 26.06136760800007], [92.72912763700003, 26.058859942000026], [92.72904, 26.05877], [92.73911, 26.0599], [92.744, 26.06045], [92.74625, 26.0607], [92.75143, 26.06128], [92.75216306400006, 26.058874047000074], [92.75271976400006, 26.056846069000073], [92.75367952900007, 26.055420131000062], [92.754, 26.05493], [92.75455, 26.05408], [92.75537126500006, 26.052815805000023], [92.75412545000006, 26.04969138000007], [92.75297706600008, 26.046811306000052], [92.75056496800005, 26.04460021700004], [92.74937484300006, 26.043509270000072], [92.74817410300005, 26.040678953000054], [92.74823964700005, 26.04062433200005], [92.74995165300004, 26.03919766100006], [92.75079, 26.03856], [92.75239, 26.03822], [92.75698, 26.03724], [92.75744, 26.03714], [92.75894, 26.03682], [92.75933, 26.03553], [92.75958427400008, 26.03468807300004], [92.75978, 26.03404], [92.75991, 26.03362], [92.75999595200005, 26.03355595800008], [92.76195, 26.0321], [92.76429, 26.03037], [92.76427998000008, 26.030314888000078], [92.76429833600008, 26.030301121000036], [92.76348354700008, 26.025669693000054], [92.76346422200004, 26.025643927000033], [92.76346, 26.02562], [92.76227179400007, 26.024054023000076], [92.75977107400007, 26.020719727000028], [92.75959, 26.0197], [92.75938, 26.01853], [92.75905, 26.01667], [92.7591, 26.01661], [92.76038706100007, 26.015111368000078], [92.76056, 26.01491], [92.76211757900006, 26.015047862000074], [92.77227468500007, 26.015978], [92.77883587600007, 26.014777259000027], [92.77888079800005, 26.014745379000033], [92.78282405000004, 26.011946941000076], [92.78320549800009, 26.01057373200007], [92.78346730400006, 26.009631228000046], [92.78213791300004, 26.008301835000054], [92.76635674900007, 26.006800910000038], [92.76369796500006, 26.00581458700003], [92.76233129500008, 26.004696402000036], [92.76184288100006, 26.00429679000007], [92.76181108700007, 26.004270777000045], [92.76169098200006, 26.003824675000033], [92.76144956400003, 26.00292797800006], [92.76138, 26.00246], [92.76097, 26.00083], [92.76183, 25.99929], [92.76194, 25.99909], [92.76434980000005, 25.998140078000063], [92.76478475400006, 25.99822401700004], [92.77411868000007, 26.00002530100005], [92.77690611400004, 25.999725116000036], [92.77726082900006, 25.99952242200004], [92.77787367100007, 25.99917222700003], [92.77840703900006, 25.99886744400004], [92.77943624600005, 25.996894799000074], [92.77576656500008, 25.99398436200005], [92.76919, 25.99354], [92.76702440800005, 25.993390649000048], [92.76687, 25.99338], [92.76272243600005, 25.990306625000073], [92.7627, 25.99029], [92.76352, 25.98822], [92.76355210200006, 25.988232460000063], [92.76356931500004, 25.988189428000055], [92.76454371500006, 25.988559028000054], [92.76730018800004, 25.98960458700003], [92.77094529300007, 25.989433053000027], [92.77099459300007, 25.98927811200008], [92.77124547900007, 25.98848961300007], [92.76983524400003, 25.98693005900003], [92.76762897100008, 25.98449018200006], [92.76731367200006, 25.98209391100005], [92.76826348400004, 25.97864744900005], [92.76880111300005, 25.976696624000056], [92.76399011000007, 25.964410473000044], [92.76400268500004, 25.96434759600004], [92.76398, 25.96429], [92.76444, 25.96205], [92.76447351500008, 25.96199344300004], [92.76476, 25.96151], [92.76981, 25.953], [92.77174, 25.95198], [92.77303, 25.9513], [92.77341, 25.9511], [92.77381, 25.95089], [92.77517, 25.95017], [92.77844, 25.9499], [92.77889, 25.94986], [92.78142, 25.95069], [92.7844, 25.95244], [92.78667, 25.95474], [92.78934, 25.95745], [92.79099, 25.95913], [92.79888, 25.96329], [92.7995, 25.96302], [92.79975188100008, 25.96290999100006], [92.79982119800007, 25.96288058300007], [92.80553359600003, 25.960457142000052], [92.80821382000005, 25.957374883000057], [92.80868286000003, 25.954761663000056], [92.80865397800005, 25.954732782000065], [92.80867, 25.95465], [92.8087, 25.95451], [92.80819, 25.95421], [92.80813977200006, 25.954218576000073], [92.80811996100005, 25.954198765000058], [92.80470425000004, 25.95478200200006], [92.80471571600003, 25.954803171000037], [92.80089447300008, 25.955455578000056], [92.80081, 25.95547], [92.79912292500006, 25.954945132000034], [92.79721, 25.95435], [92.79677, 25.94191], [92.79459, 25.94008], [92.79409711600005, 25.939667847000067], [92.79347258400009, 25.939082348000056], [92.79313755600003, 25.936603140000045], [92.79923506700004, 25.92876348200008], [92.80177227000007, 25.921532455000033], [92.80251, 25.92062], [92.80369, 25.91917], [92.80392, 25.91888], [92.80531, 25.91872], [92.80680861400003, 25.918551308000076], [92.80895088200003, 25.91837761100004], [92.81236816900008, 25.92152687500004], [92.81596818900005, 25.92247057000003], [92.81746, 25.92287], [92.81937, 25.92339], [92.82046, 25.92316], [92.82214984300003, 25.92280267600006], [92.82288805200005, 25.92266597100007], [92.82559065100008, 25.920509964000075], [92.82651, 25.92137], [92.82564014000008, 25.920470485000067], [92.82619637200008, 25.920026749000044], [92.82885155200006, 25.917908572000044], [92.83635618200003, 25.913553206000074], [92.83637890800009, 25.913565687000073], [92.83681460700006, 25.913804964000065], [92.83961360900008, 25.915342121000037], [92.84453086700006, 25.918042582000055], [92.85036035600007, 25.923135010000067], [92.85408308400008, 25.923387399000035], [92.85641132400008, 25.922596249000037], [92.85779798100003, 25.92206292000003], [92.84828318200005, 25.90504349200006], [92.84829947400004, 25.905017308000026], [92.85203549700003, 25.89901298600006], [92.85650910400005, 25.888997448000055], [92.85813, 25.88695], [92.86071, 25.88368], [92.86192, 25.88269], [92.86491, 25.88024], [92.8662, 25.87918], [92.86632, 25.87884], [92.86783195900006, 25.874670886000047], [92.86834, 25.87327], [92.86894143800004, 25.872327863000066], [92.87007, 25.87056], [92.87033, 25.87015], [92.87041, 25.87002], [92.87064, 25.8696], [92.87064311200004, 25.86953900900005], [92.87073006500003, 25.86783471700005], [92.87079, 25.86666], [92.87121, 25.86677], [92.87358, 25.86738], [92.87415583900008, 25.86728712200005], [92.87591940700008, 25.86712178700003], [92.88475, 25.86907], [92.8873, 25.86963], [92.88783, 25.86975], [92.88788318800005, 25.869664456000066], [92.88789338900006, 25.869648049000034], [92.88811218800004, 25.869283385000074], [92.88929062300008, 25.867319327000075], [92.88934953200004, 25.867297129000065], [92.88936, 25.86728], [92.88994467100008, 25.86707287400003], [92.89382, 25.8657], [92.8951, 25.86576], [92.90138234000005, 25.866040732000044], [92.90361712600009, 25.866179443000078], [92.90808, 25.86711], [92.90890645100006, 25.86727952900003], [92.91006236600003, 25.86752034400007], [92.93027030000007, 25.86914477600004], [92.93073, 25.86922], [92.93484, 25.86989], [92.93697, 25.87023], [92.93702, 25.87024], [92.94273, 25.87117], [92.94871, 25.87214], [92.95164, 25.87262], [92.95877, 25.87378], [92.96359, 25.87456], [92.96474, 25.87475], [92.96508699600008, 25.87474818100003], [92.96514098600005, 25.87475695100005], [92.96846045200004, 25.874730501000045], [92.97428, 25.8747], [92.98191, 25.87466], [92.98218, 25.87471], [92.98321, 25.8749], [92.98344996000009, 25.87494234600007], [92.98571171300006, 25.87542700800003], [92.98575855100006, 25.875355985000056], [92.98589, 25.87538], [92.98633, 25.8747], [92.98637, 25.87464], [92.98771, 25.87259], [92.98773, 25.87255], [92.99078, 25.86789], [92.99411, 25.86279], [92.99546, 25.86072], [92.99558673700005, 25.86045311500004], [92.99596357300004, 25.859881703000042], [92.99753465500004, 25.856399845000055], [92.99868, 25.85429], [93.01069, 25.84619], [93.01069542400006, 25.84615185800004], [93.01070481000005, 25.846145550000074], [93.01093935000006, 25.84443675600005], [93.01117384900004, 25.842728263000026], [93.01121524700005, 25.842697905000023], [93.01185, 25.8423], [93.01255, 25.84182], [93.01287, 25.84158], [93.01333, 25.84113], [93.01362, 25.84077], [93.01383, 25.84046], [93.01402, 25.84015], [93.01446, 25.8393], [93.01731, 25.83407], [93.01734, 25.83402], [93.01812812700007, 25.832555012000057], [93.01847746200008, 25.831940358000054], [93.01876322400005, 25.831400200000076], [93.01905, 25.83088], [93.02018, 25.82877], [93.02152, 25.82631], [93.02242, 25.82465], [93.02434, 25.82115], [93.02526, 25.81946], [93.0262, 25.81777], [93.02646469900009, 25.817259242000034], [93.02813468600004, 25.81438172600008], [93.02839, 25.8141], [93.02879, 25.81373], [93.02887, 25.81367], [93.02912, 25.81348], [93.02963, 25.81316], [93.02984315600008, 25.812912957000037], [93.02993542300004, 25.812843757000053], [93.03573676100007, 25.806498543000032], [93.04164, 25.80077], [93.04435701800008, 25.798133289000077], [93.04784804300004, 25.794779550000044], [93.0493, 25.79379], [93.04936736100007, 25.793716516000075], [93.04976908800006, 25.793479132000073], [93.05159681100008, 25.791540637000026], [93.05175, 25.79143], [93.05213, 25.79122], [93.05253, 25.79103], [93.05325, 25.79077], [93.05403, 25.79055], [93.05405393000007, 25.790533666000044], [93.05452648700003, 25.790396873000077], [93.05574732100007, 25.789377742000056], [93.05633, 25.78898], [93.05669, 25.78867], [93.06202092200004, 25.78414064800006], [93.06221, 25.78398], [93.07263, 25.78252], [93.07671, 25.78195], [93.07671290000008, 25.781870455000046], [93.07676731000004, 25.78186284000003], [93.07684872000004, 25.778145107000057], [93.07685, 25.77811], [93.0769, 25.77699], [93.07687406900004, 25.77698752300006], [93.07687443000003, 25.77697100200004], [93.07626602600004, 25.776896935000025], [93.07473738600004, 25.77678342200005], [93.07352263000007, 25.77669321700006], [93.07149689200008, 25.774999567000066], [93.07150436800003, 25.774974521000047], [93.07132871900006, 25.774830464000047], [93.07036, 25.77403], [93.0700657341761, 25.77346017889592], [93.07002717000006, 25.77339097500004], [93.06988294101421, 25.773106215258753], [93.06865709100003, 25.77068594600007], [93.06990107900003, 25.767129192000027], [93.07129158875311, 25.767075830679904], [93.07431, 25.76696], [93.08023, 25.76342], [93.08393, 25.76815], [93.08597, 25.77076], [93.08682, 25.77185], [93.09634, 25.77387], [93.09879, 25.77439], [93.09954, 25.77406], [93.10066, 25.77358], [93.10166812502074, 25.77314251178345], [93.10172, 25.77312], [93.10196, 25.77317], [93.10315, 25.77344], [93.1077, 25.77446], [93.10783, 25.77416], [93.10894452800005, 25.771662481000078], [93.10919739200006, 25.771134955000036], [93.11915644300007, 25.765337738000028], [93.12187, 25.76377], [93.12218, 25.76359], [93.12364, 25.76276], [93.12371, 25.76272], [93.12575, 25.76278], [93.12593682600004, 25.762784815000032], [93.12769, 25.76283], [93.13029, 25.76145], [93.13063, 25.75919], [93.13079845369842, 25.757986096596316], [93.13106, 25.75623], [93.13102, 25.75612], [93.12905, 25.75035], [93.13006, 25.74932], [93.13167, 25.74768], [93.13199, 25.74735], [93.1394, 25.74245], [93.13953, 25.74235], [93.14171, 25.7409], [93.14351, 25.73971], [93.14491, 25.73878], [93.14663, 25.73764], [93.1473410667793, 25.737670258160822], [93.14757, 25.73768], [93.1498, 25.73778], [93.14966, 25.7362], [93.14945, 25.73327], [93.1492, 25.72979], [93.14758, 25.7231], [93.14751, 25.723], [93.14517, 25.71952], [93.14497, 25.71922], [93.14479, 25.71825], [93.14401542441996, 25.714108059003582], [93.14942099700005, 25.71407538400007], [93.14464291900003, 25.71333439800003], [93.14385797900007, 25.713266141000076], [93.14384, 25.71317], [93.14621, 25.71355], [93.15201, 25.71448], [93.15409, 25.71481], [93.15673, 25.71523], [93.15862, 25.71553], [93.16346, 25.71631], [93.16448, 25.71647], [93.16733, 25.71692], [93.16868, 25.71714], [93.16992, 25.71843], [93.17036, 25.71889], [93.17137, 25.71995], [93.17345, 25.72213], [93.17437, 25.7231], [93.17609, 25.7249], [93.17634, 25.72516], [93.17656, 25.7253], [93.17798, 25.72617], [93.17945, 25.72708], [93.18172, 25.72848], [93.18303, 25.72929], [93.18374, 25.72973], [93.18537, 25.72964], [93.19057, 25.72937], [93.1937, 25.7292], [93.19456, 25.72915], [93.20116, 25.7288], [93.20265, 25.72872], [93.20474370000005, 25.728603389000057], [93.20863244800006, 25.728402307000067], [93.20987212700004, 25.72812769500007], [93.21284565100007, 25.727469002000078], [93.22164161700005, 25.72552052900005], [93.22685626200007, 25.731613431000028], [93.22741641300007, 25.732987668000078], [93.22978, 25.73882], [93.23086, 25.74148], [93.23122, 25.74237], [93.23203, 25.74437], [93.23337, 25.74766], [93.23371, 25.75262], [93.23374, 25.75308], [93.23349, 25.75427], [93.23311, 25.75604], [93.23254, 25.75876], [93.23258874466619, 25.758954978664736], [93.23281, 25.75984], [93.23303, 25.76074], [93.23387, 25.76418], [93.23593, 25.7649], [93.2362, 25.76499], [93.23648, 25.76509], [93.23942, 25.76611], [93.24003, 25.76632], [93.24033, 25.76986], [93.24036, 25.77024], [93.24207, 25.77227], [93.24582, 25.77671], [93.24747, 25.77866], [93.24830573900005, 25.779999030000056], [93.24924482400007, 25.78155213100007], [93.25065194200005, 25.78671156400003], [93.24873483800008, 25.78912163800004], [93.24823, 25.78966], [93.24903460000007, 25.792445738000026], [93.25024990800006, 25.79709743500007], [93.24978787100008, 25.80074752400003], [93.24954, 25.8024], [93.24978956300004, 25.805130217000055], [93.24999940800006, 25.807871309000063], [93.24703090300005, 25.809715647000075], [93.24610080800005, 25.811952903000076], [93.24515691888102, 25.814069375724927], [93.24484, 25.81478], [93.24497502000008, 25.81513215700005], [93.24650724300005, 25.819246921000058], [93.24497029400004, 25.82632786000005], [93.24571132300008, 25.831103378000023], [93.2446288691244, 25.83475665733041], [93.24396, 25.83699], [93.23739, 25.84659], [93.23738257826543, 25.846616112071402], [93.23643394000004, 25.84995373000004], [93.23548, 25.85331], [93.23096, 25.85673], [93.22879116027691, 25.858373923542445], [93.22563, 25.86077], [93.22221, 25.86335], [93.22142, 25.86428], [93.22048, 25.86539], [93.21683, 25.86969], [93.21611, 25.87107], [93.21542, 25.87239], [93.21455, 25.87406], [93.21424, 25.87466], [93.20813, 25.88153], [93.20642, 25.88345], [93.20209, 25.88786], [93.20047, 25.88951], [93.19899, 25.89102], [93.19854, 25.89135], [93.19456, 25.89423], [93.19294, 25.8954], [93.19048537500004, 25.897176451000064], [93.18864, 25.89975], [93.18751, 25.90132], [93.18665, 25.90251], [93.18654, 25.90297], [93.18635, 25.90372], [93.18515, 25.9085], [93.18366, 25.91441], [93.18331, 25.9158], [93.18322, 25.91615], [93.18284072900008, 25.91766158300004], [93.18115950000004, 25.924308305000068], [93.17705296700007, 25.940502867000077], [93.17503882000005, 25.94322789000006], [93.17348, 25.94526], [93.17348567273439, 25.945329207359503], [93.17358, 25.94648], [93.17371781319804, 25.948224049782052], [93.17387, 25.95015], [93.17348, 25.95098], [93.17281, 25.95241], [93.17204, 25.95405], [93.17059251064025, 25.95422125226228], [93.16849, 25.95447], [93.16808, 25.95476], [93.16791, 25.95488], [93.16594, 25.95629], [93.16518232449512, 25.957524505955956], [93.16219, 25.9624], [93.1607, 25.96607], [93.1615, 25.96764], [93.16065, 25.97505], [93.15956, 25.97677], [93.15715, 25.98054], [93.15783, 25.98454], [93.15822, 25.98681], [93.15888, 25.99068], [93.15864, 25.99081], [93.15620474121685, 25.992151037775855], [93.15572986800004, 25.992412539000043], [93.15568, 25.99244], [93.15424, 25.99417], [93.15409, 25.99435], [93.15374, 25.99477], [93.1535, 25.99506], [93.15348849400004, 25.995102187000043], [93.15341, 25.99539], [93.15333, 25.9957], [93.15286, 25.99746], [93.15199, 26.00067], [93.15185, 26.00082], [93.14973, 26.00309], [93.14793, 26.005], [93.14607, 26.00698], [93.14604, 26.00702], [93.14597, 26.00709], [93.14482444900005, 26.01180332200005], [93.14433988346893, 26.013797045727248], [93.14431, 26.01392], [93.1436, 26.0149], [93.14167, 26.01755], [93.13766, 26.01943], [93.1305, 26.02279], [93.13028, 26.02289], [93.12927, 26.02484], [93.12773, 26.02779], [93.12768109700005, 26.027840785000024], [93.12617, 26.02941], [93.12568, 26.02991], [93.12412123560125, 26.03153653676392], [93.12011550500006, 26.03372406400007], [93.11827, 26.03472], [93.11200862900006, 26.03487388900004], [93.10878227800004, 26.034932550000065], [93.10097509800005, 26.033390693000058], [93.09758, 26.0327], [93.09517, 26.03221], [93.09622, 26.03561], [93.09686, 26.03767], [93.09992, 26.04758], [93.10029, 26.04877], [93.10137, 26.05227], [93.1021, 26.05463], [93.10374, 26.05993], [93.10451, 26.06242], [93.10516, 26.06453], [93.10575, 26.06644], [93.10623, 26.068], [93.10696, 26.07034], [93.107, 26.07523], [93.1052, 26.0749], [93.10419682200006, 26.074723795000068], [93.10348, 26.07558], [93.10315360600003, 26.075976792000063], [93.10298074400004, 26.076184867000052], [93.10039286800009, 26.076914781000028], [93.09946, 26.07717], [93.09808473600003, 26.077115611000067], [93.09658197726081, 26.077052275968924], [93.09422, 26.07604], [93.092, 26.07509], [93.09117, 26.07473], [93.09115449900008, 26.07473469000007], [93.09033, 26.07586], [93.09257918000009, 26.078259125000045], [93.09199, 26.07933], [93.08738, 26.07764], [93.08531, 26.08019], [93.08530882600007, 26.08020938800007], [93.0854291714838, 26.081729298332245], [93.08555, 26.08329], [93.08561, 26.08404], [93.08495, 26.08403], [93.08473, 26.08402], [93.08449, 26.0838], [93.08328, 26.08269], [93.08166652300008, 26.081209897000065], [93.08221, 26.07991], [93.08240272100005, 26.079443022000078], [93.08273, 26.07865], [93.0789, 26.07961], [93.07872, 26.07998], [93.07865, 26.08013], [93.0778, 26.08189], [93.07767161700008, 26.082155441000054], [93.07706, 26.08342], [93.07504, 26.08399], [93.07311, 26.08453], [93.07269701300004, 26.082354749000046], [93.07138, 26.08252], [93.07067, 26.08261], [93.06965, 26.08274], [93.06946, 26.08127], [93.06931, 26.0801], [93.06798, 26.08083], [93.06508, 26.08242], [93.06476, 26.0823], [93.0625, 26.08144], [93.06148, 26.08248], [93.0585, 26.08553], [93.05786, 26.08619], [93.05785852591977, 26.086203758082178], [93.05783697600003, 26.08622579300004], [93.05773581900007, 26.087338516000045], [93.05772319100004, 26.08747742500003], [93.05763176000005, 26.08834332400005], [93.05444088400009, 26.086255959000027], [93.05348198600007, 26.08562868000007], [93.05173, 26.08534], [93.05172574900007, 26.08535025200007], [93.05156, 26.08575], [93.05105697400006, 26.086980752000045], [93.04941, 26.08739], [93.04903, 26.08729], [93.04468, 26.08617], [93.04466605800008, 26.086182681000025], [93.04067, 26.0889], [93.03921, 26.08989], [93.03871974300006, 26.090222976000064], [93.03851, 26.09265], [93.03864, 26.09312], [93.03905118900008, 26.094553056000052], [93.03962194400003, 26.096624345000066], [93.03649535300008, 26.100892670000064], [93.03595083400006, 26.102982919000056], [93.03788977500005, 26.10527121900003], [93.03762, 26.10673], [93.03717894100004, 26.10684632300007], [93.03710140200008, 26.106864709000035], [93.03592674300006, 26.10714323600007], [93.03255302300005, 26.105835717000048], [93.03179, 26.10554], [93.03073, 26.10513], [93.02914, 26.10451], [93.02798, 26.10513], [93.02449, 26.10701], [93.02285, 26.1079], [93.02271672211755, 26.108755199745712], [93.02261, 26.10944], [93.02253, 26.10993], [93.02222156100004, 26.111919928000077], [93.02222, 26.11193], [93.02161, 26.11174], [93.02032, 26.11209], [93.0195, 26.11222], [93.01581, 26.1128], [93.01558, 26.11287], [93.01514743600006, 26.112991623000028], [93.01485, 26.11202], [93.01189, 26.1116], [93.01044, 26.11139], [93.00615, 26.11504], [93.0027505099002, 26.11545626409385], [93.00272, 26.11546], [93.00046, 26.11759], [93.00043415800008, 26.117632231000073], [93.00032325400008, 26.117843958000037], [93.00025, 26.11798], [92.99957, 26.11923], [92.99947, 26.11942], [92.99866, 26.12092], [92.99363, 26.12234], [92.99171, 26.12321], [92.98512162757496, 26.126194634352437], [92.98458, 26.12644], [92.98297, 26.12717], [92.98214, 26.12754], [92.98208, 26.12757], [92.98053, 26.12792], [92.97985, 26.12807], [92.97912487813801, 26.128233940594885], [92.97427121100009, 26.12929568000004], [92.97306769800008, 26.129558949000057], [92.97226381100006, 26.129147939000063], [92.97153, 26.12876], [92.97072, 26.12833], [92.96978934875474, 26.128543040646505], [92.96906, 26.12871], [92.96811, 26.12967], [92.9678, 26.12999], [92.96756, 26.13024], [92.9638, 26.13405], [92.96332, 26.13454], [92.96286, 26.13501], [92.96279, 26.13508], [92.95995, 26.13796], [92.95893, 26.139], [92.95794, 26.139], [92.95765901082851, 26.139001426340972], [92.954, 26.13902], [92.95257, 26.13861], [92.94475, 26.13637], [92.94471629600008, 26.13638743300004], [92.94446, 26.13652], [92.94413, 26.1367], [92.94382774794273, 26.136860690967158], [92.94334, 26.13712], [92.94256, 26.13754], [92.93922, 26.13804], [92.9378, 26.13825], [92.93663947489998, 26.138422844163834], [92.93639, 26.13846], [92.93297, 26.14127], [92.93255, 26.1424], [92.93242, 26.14274], [92.93182, 26.14433], [92.93181627300004, 26.144339647000038], [92.93148, 26.14521], [92.93336087200004, 26.146312074000036], [92.93403905700006, 26.146709447000035], [92.93386, 26.14857], [92.9338, 26.14912], [92.93432, 26.14964], [92.93529, 26.15059], [92.93639235900008, 26.150846363000028], [92.9426, 26.15229], [92.94286, 26.15277], [92.9437, 26.15429], [92.94436, 26.15549], [92.94446, 26.15557], [92.94637, 26.15704], [92.94897, 26.15904], [92.9494, 26.16238], [92.95165, 26.16408], [92.95202, 26.16437], [92.95408, 26.16593], [92.95558, 26.16834], [92.9564, 26.16966], [92.95686, 26.17262], [92.957, 26.17359], [92.95479, 26.18178], [92.95495, 26.18547], [92.95408, 26.18788], [92.9537, 26.18825], [92.95314, 26.1888], [92.95204, 26.18986], [92.95023, 26.19162], [92.94942, 26.19241], [92.94865, 26.19315], [92.94858, 26.19322], [92.94837, 26.19342], [92.94796, 26.19435], [92.94774, 26.19484], [92.94656, 26.19753], [92.94379571449947, 26.200254795707664], [92.94306, 26.20098], [92.94192579600008, 26.201217219000057], [92.94, 26.20162], [92.93221670000008, 26.201071780000063], [92.92968578322206, 26.202437218377938], [92.92779, 26.20346], [92.9229, 26.20354], [92.90956, 26.20178], [92.90154301900009, 26.20310759800003], [92.9002, 26.20333], [92.90012057783626, 26.203357854787583], [92.88706050400003, 26.20793825800007], [92.88697, 26.20797], [92.88316, 26.20859], [92.8712, 26.20467], [92.86117, 26.20252], [92.85035, 26.20166], [92.84264, 26.20589], [92.82801, 26.20492], [92.82721, 26.20517], [92.82316, 26.20644], [92.81684, 26.20544], [92.8162, 26.20534], [92.80753, 26.20398], [92.80733, 26.20394], [92.80636, 26.20379], [92.80265457800004, 26.202534938000042]]]}}]}