{"type": "FeatureCollection", "features": [{"type": "Feature", "properties": {"Name": "Jorhat"}, "geometry": {"type": "MultiPolygon", "coordinates": [[[[94.40242059000008, 26.947745206000036], [94.40236601300006, 26.947795702000064], [94.40213476700006, 26.948474987000054], [94.40214773700006, 26.948471624000035], [94.40202616700003, 26.948794], [94.40115492600006, 26.951104348000058], [94.40088866900004, 26.951810402000035], [94.40069421000004, 26.954214071000024], [94.40067296900008, 26.954200796000066], [94.40057267300006, 26.955716379000023], [94.40052129500003, 26.956351451000046], [94.39867353200003, 26.954336269000066], [94.39026053500004, 26.943380046000073], [94.38933134600006, 26.94100032700004], [94.38150071300004, 26.940352435000023], [94.37976938400004, 26.939456963000055], [94.37840577300005, 26.93875165000003], [94.37733864800003, 26.93757772400005], [94.37520432500008, 26.933735847000037], [94.37518588100005, 26.93367587000006], [94.37517081800007, 26.933626573000026], [94.37442294300007, 26.931178981000073], [94.37403035200003, 26.929893970000023], [94.37296319000006, 26.925518513000043], [94.37272098200003, 26.924695254000028], [94.37232839700005, 26.923360462000062], [94.37207172900008, 26.922487793000073], [94.37189602900008, 26.921890140000073], [94.37129872500003, 26.92108648900006], [94.37048446300008, 26.91999079900006], [94.36927515500008, 26.918666318000078], [94.36769175500007, 26.916931987000055], [94.36489892000009, 26.91520309400005], [94.36223912200006, 26.91254329700007], [94.36074471500007, 26.90961539700004], [94.35387039200003, 26.90434134000003], [94.34361447300006, 26.900804854000057], [94.34306824900005, 26.90061650100006], [94.33861733900005, 26.89908170500007], [94.32501721200003, 26.892767681000066], [94.31444417400007, 26.889685388000032], [94.30881881300007, 26.888362829000073], [94.30385518100007, 26.88781178000005], [94.30253162800005, 26.886819898000056], [94.30217539100005, 26.886463953000032], [94.30120801900006, 26.88549745100005], [94.30100292100008, 26.885036201000048], [94.30076694500008, 26.884505510000054], [94.29856085800009, 26.88152980800004], [94.29657864700005, 26.871672034000028], [94.29370380700004, 26.874559730000044], [94.28964350100006, 26.873627844000055], [94.28616031600006, 26.872828424000033], [94.28603201100003, 26.87279897600007], [94.28585076300004, 26.87275743500004], [94.28108739900006, 26.871598740000024], [94.27097821200005, 26.871035457000062], [94.26679226500005, 26.870802153000056], [94.26366766100006, 26.870628036000028], [94.26024175200007, 26.870450834000053], [94.25684666600006, 26.87027525900004], [94.25523147600006, 26.870280911000066], [94.25333791100007, 26.87028758100007], [94.25023050000004, 26.87041795300007], [94.24802637100004, 26.87051045900006], [94.24365638000006, 26.870593668000026], [94.23976853100004, 26.870667715000025], [94.23567772000007, 26.870745661000058], [94.23198104100004, 26.871854666000047], [94.23097361200007, 26.872156894000057], [94.22415255500005, 26.872274505000064], [94.21641612600007, 26.871152645000052], [94.20696871400008, 26.86978263700007], [94.20093107200006, 26.867081642000073], [94.19457578700008, 26.86390399900006], [94.18837928800008, 26.860567451000065], [94.18043518100006, 26.857230902000026], [94.17510559400006, 26.85565818200007], [94.17074335800004, 26.854370965000044], [94.15882706500008, 26.852623237000046], [94.15008855000008, 26.85135219400007], [94.14614250500006, 26.850932632000024], [94.14609737300003, 26.85092783300007], [94.14085726300004, 26.850370689000044], [94.13998652000004, 26.85013746000004], [94.13305759500008, 26.848281502000077], [94.13282357200006, 26.848246236000023], [94.13077071000004, 26.847936894000043], [94.12289023400007, 26.84674943600004], [94.11062524200008, 26.84606804400005], [94.11035523300006, 26.846053050000023], [94.10694993000004, 26.84663267600007], [94.10398957700005, 26.847136566000074], [94.10387304500006, 26.847156402000053], [94.10380912900007, 26.84716727500006], [94.09731984100006, 26.846418262000043], [94.08722591400004, 26.846418262000043], [94.07812242400007, 26.846124546000055], [94.07331863900004, 26.845969585000034], [94.05902438400005, 26.84302665000007], [94.05043904900003, 26.841259087000026], [94.04326105100006, 26.839015965000044], [94.03428865200004, 26.83722148100003], [94.02329756900008, 26.83340824100003], [94.01836276200004, 26.832062379000035], [94.01527943900004, 26.830697634000046], [94.01319627400005, 26.819206958000052], [94.01312138300005, 26.818793864000043], [94.00760252600008, 26.808807881000064], [94.00513821900006, 26.80078171400004], [94.00428561100006, 26.79747907600006], [94.00404893200005, 26.796562282000025], [94.00328492400007, 26.793602847000045], [94.00287252100009, 26.79200537400004], [93.99642911900008, 26.786584746000074], [93.99382279300005, 26.784392128000036], [93.99036696100006, 26.777944956000056], [93.99430904700006, 26.77254852200008], [93.99659847900006, 26.770836743000075], [93.99145111300004, 26.76671099200007], [93.99124710000007, 26.766410746000076], [93.99123994000007, 26.766400218000058], [93.99846486600006, 26.76676669400007], [93.99853, 26.76677], [94.00184, 26.76256], [94.0021, 26.75832], [94.00224, 26.75606], [94.00226, 26.75566], [94.00242, 26.75306], [94.0025, 26.75179], [94.00251, 26.75165], [94.00256, 26.75085], [94.00264, 26.74946], [94.00268, 26.74886], [94.00282, 26.74662], [94.0086, 26.74786], [94.01159, 26.7485], [94.01814, 26.74785], [94.01863, 26.7478], [94.02166, 26.7475], [94.02364, 26.7473], [94.02415, 26.74725], [94.024, 26.74684], [94.02382, 26.74637], [94.02352, 26.74555], [94.0234, 26.74523], [94.02327, 26.74488], [94.02265, 26.7432], [94.02206, 26.7416], [94.02288, 26.74159], [94.024, 26.74159], [94.02919, 26.74158], [94.03098, 26.74157], [94.03292, 26.73956], [94.03488, 26.73752], [94.03511, 26.73753], [94.03541, 26.73754], [94.03564, 26.73769], [94.03589, 26.73795], [94.0359, 26.73825], [94.03589, 26.73829], [94.03959, 26.74192], [94.04051, 26.74282], [94.04138, 26.73942], [94.0422, 26.73624], [94.04358, 26.73694], [94.04374, 26.73702], [94.04442, 26.73737], [94.04612, 26.73824], [94.04666, 26.73852], [94.04821, 26.73932], [94.04759, 26.7339], [94.04482, 26.73131], [94.0425, 26.72913], [94.04332, 26.72906], [94.04603, 26.72881], [94.04786, 26.72864], [94.04629, 26.72671], [94.0454, 26.72561], [94.0449, 26.72499], [94.04402, 26.72391], [94.0438, 26.72364], [94.04186, 26.72126], [94.04272, 26.71778], [94.04324, 26.71568], [94.04361, 26.71421], [94.04372, 26.71376], [94.04397, 26.71274], [94.04334, 26.71228], [94.04253, 26.71169], [94.04104, 26.7106], [94.03925, 26.7093], [94.03892, 26.70906], [94.0383, 26.70861], [94.0405, 26.70465], [94.04177, 26.70236], [94.0439, 26.69852], [94.04494, 26.69663], [94.04539, 26.69582], [94.04531, 26.69505], [94.04517, 26.69371], [94.04488, 26.69098], [94.04462, 26.68854], [94.04517, 26.6882], [94.04549, 26.68815], [94.0456, 26.68794], [94.04683, 26.68718], [94.04712, 26.687], [94.0484, 26.68622], [94.04848, 26.68617], [94.04898, 26.68613], [94.05085, 26.68598], [94.05133, 26.68329], [94.04977, 26.68232], [94.0493, 26.68203], [94.04892, 26.6816], [94.04847, 26.68152], [94.04729, 26.6808], [94.04748, 26.68018], [94.04885, 26.67565], [94.049, 26.6754], [94.04969, 26.67427], [94.05041, 26.67309], [94.05335, 26.67676], [94.05435, 26.67697], [94.05488, 26.67708], [94.05563, 26.67375], [94.05592, 26.67248], [94.05604, 26.67193], [94.05767, 26.67035], [94.0577, 26.66817], [94.05688, 26.66749], [94.05594, 26.66671], [94.05851, 26.6613], [94.06151, 26.66554], [94.0623, 26.66522], [94.06343, 26.66476], [94.06387, 26.66421], [94.06393, 26.66413], [94.06486, 26.66296], [94.06652, 26.66619], [94.06714, 26.66639], [94.067, 26.66676], [94.06695, 26.66692], [94.06635, 26.66882], [94.0654, 26.67058], [94.06476, 26.67177], [94.06663, 26.6711], [94.06668, 26.6716], [94.06734, 26.67028], [94.06735, 26.67027], [94.06753, 26.66996], [94.06851, 26.66831], [94.06957, 26.667], [94.0699, 26.66691], [94.07005, 26.66687], [94.0708, 26.66657], [94.0708, 26.66731], [94.07105, 26.66736], [94.07176, 26.6673], [94.072, 26.66636], [94.07241, 26.66624], [94.07372, 26.66498], [94.07482, 26.66446], [94.07641, 26.6628], [94.07677, 26.66242], [94.07803, 26.66164], [94.07833, 26.66138], [94.0784, 26.66141], [94.07909, 26.66097], [94.08125, 26.65959], [94.08169, 26.6593], [94.08236, 26.65887], [94.08413, 26.65773], [94.08651, 26.65572], [94.08685, 26.65543], [94.08678, 26.65415], [94.08656, 26.64986], [94.08658, 26.64984], [94.08806, 26.64815], [94.08844, 26.64771], [94.09228, 26.64715], [94.09587, 26.64544], [94.09571, 26.64458], [94.09532, 26.64414], [94.09451, 26.64337], [94.09391, 26.64277], [94.09308, 26.64218], [94.09286, 26.64203], [94.09225, 26.64117], [94.09023, 26.63953], [94.08991, 26.63927], [94.0893, 26.63837], [94.0892, 26.63822], [94.08866, 26.63742], [94.08851, 26.63722], [94.08819, 26.6368], [94.08492, 26.63252], [94.08491, 26.6325], [94.08491, 26.63246], [94.08489, 26.63202], [94.08491, 26.63111], [94.08483, 26.63066], [94.08474, 26.63022], [94.08451, 26.62974], [94.08426, 26.62923], [94.08405, 26.6288], [94.08356, 26.62851], [94.08346, 26.62829], [94.08333, 26.62795], [94.08333, 26.62792], [94.08331, 26.6276], [94.08357, 26.62687], [94.08371, 26.62642], [94.08378, 26.62618], [94.08406, 26.62638], [94.08438, 26.62644], [94.08471, 26.62653], [94.08491, 26.62626], [94.08496, 26.62593], [94.08577, 26.62638], [94.08596, 26.62649], [94.08621, 26.62693], [94.08624, 26.62697], [94.08638, 26.62704], [94.08681, 26.62681], [94.08683, 26.62541], [94.08684, 26.62476], [94.08771, 26.62318], [94.08776, 26.62309], [94.08823, 26.62223], [94.08841, 26.62192], [94.08735, 26.62065], [94.08734, 26.62064], [94.08687, 26.62045], [94.08619, 26.62017], [94.08511, 26.61973], [94.08469, 26.61956], [94.08332, 26.61706], [94.08129, 26.61584], [94.0803, 26.61524], [94.07991, 26.615], [94.08013, 26.61451], [94.08034, 26.61403], [94.08048, 26.61371], [94.08102, 26.61247], [94.08123, 26.61199], [94.08211, 26.61167], [94.08375, 26.61108], [94.08478, 26.61065], [94.08489, 26.61061], [94.08561, 26.60936], [94.08517, 26.60891], [94.08356, 26.60726], [94.08317, 26.60686], [94.0828, 26.60667], [94.08154, 26.60603], [94.08027, 26.60538], [94.07913, 26.60415], [94.07872, 26.60371], [94.07671, 26.60154], [94.07647, 26.60128], [94.07379, 26.59839], [94.07243, 26.59692], [94.07259, 26.59578], [94.07336, 26.59041], [94.07337, 26.59035], [94.07741, 26.5901], [94.07823, 26.59005], [94.07869, 26.59002], [94.0793, 26.58999], [94.07961, 26.58954], [94.08032, 26.58853], [94.08055, 26.5882], [94.08132, 26.58709], [94.08074, 26.5859], [94.07916, 26.58268], [94.07896, 26.58226], [94.07861, 26.58154], [94.07766, 26.57757], [94.07853, 26.57631], [94.07954, 26.57485], [94.08081, 26.57517], [94.0831, 26.57576], [94.08741, 26.57589], [94.08774, 26.5759], [94.08907, 26.57771], [94.08949, 26.57828], [94.09104, 26.57931], [94.0917, 26.57975], [94.09298, 26.57927], [94.0939, 26.57893], [94.09404, 26.57888], [94.09642, 26.578], [94.10118, 26.57624], [94.10101, 26.57513], [94.10067, 26.57286], [94.10044, 26.57128], [94.10251, 26.5696], [94.10709, 26.5693], [94.10747, 26.56928], [94.10803, 26.56855], [94.10942, 26.56673], [94.10945, 26.56665], [94.1096, 26.56619], [94.10976, 26.56571], [94.11004, 26.56489], [94.11006, 26.56483], [94.11048, 26.56358], [94.11101, 26.56198], [94.11103, 26.56193], [94.11178, 26.56073], [94.11193, 26.56048], [94.11319, 26.55846], [94.11356, 26.55816], [94.11386, 26.55792], [94.11551, 26.55659], [94.1161, 26.55611], [94.11643, 26.55439], [94.11568, 26.55376], [94.11367, 26.5521], [94.11013, 26.55073], [94.11109, 26.54892], [94.11157, 26.54803], [94.11183, 26.54754], [94.11416, 26.54601], [94.11436, 26.54588], [94.11466, 26.54569], [94.11546, 26.5437], [94.11466, 26.54286], [94.11409, 26.54226], [94.1117, 26.53978], [94.11197, 26.53587], [94.11216, 26.53326], [94.11225, 26.532], [94.11236, 26.53049], [94.11182, 26.52898], [94.1114, 26.52779], [94.11107, 26.52685], [94.10748, 26.52209], [94.1058, 26.51986], [94.10577, 26.51982], [94.10583, 26.51943], [94.10637, 26.51556], [94.1065, 26.51461], [94.10653, 26.51441], [94.10664, 26.51364], [94.10698, 26.51116], [94.10618, 26.50827], [94.10589, 26.50723], [94.10587, 26.50717], [94.10563, 26.50631], [94.10536, 26.50534], [94.10489, 26.5042], [94.10457, 26.50342], [94.10379, 26.50154], [94.1034, 26.50057], [94.10321, 26.50011], [94.10308, 26.4998], [94.10212, 26.49747], [94.09996, 26.49437], [94.09945, 26.49362], [94.09878, 26.49266], [94.09813, 26.49173], [94.09817, 26.49158], [94.09921, 26.48773], [94.10094, 26.48422], [94.10297, 26.48009], [94.10304, 26.47769], [94.10321, 26.47198], [94.10323, 26.47114], [94.10415, 26.4698], [94.10423, 26.46968], [94.10629, 26.4667], [94.10693, 26.46629], [94.10767, 26.46582], [94.11077, 26.46382], [94.11179, 26.46317], [94.11215, 26.46294], [94.11575, 26.46062], [94.1165, 26.46014], [94.11724, 26.45967], [94.12169, 26.45681], [94.12267, 26.45618], [94.12349, 26.45566], [94.12603, 26.45403], [94.12645, 26.45336], [94.1272, 26.45217], [94.1277, 26.45138], [94.12819, 26.45061], [94.12827, 26.45036], [94.12938, 26.44695], [94.12943, 26.44679], [94.12998, 26.44512], [94.12929, 26.44355], [94.12879, 26.44243], [94.12821, 26.44111], [94.12784, 26.44026], [94.12521, 26.43752], [94.1247, 26.43699], [94.12202, 26.43292], [94.11993, 26.42975], [94.1186, 26.42773], [94.11843, 26.42747], [94.11777, 26.41325], [94.11721, 26.40116], [94.11718, 26.40063], [94.11715, 26.39994], [94.11773, 26.39881], [94.11782, 26.39862], [94.11927, 26.39581], [94.1201, 26.3942], [94.12075, 26.39293], [94.12096, 26.39226], [94.12136, 26.391], [94.12204, 26.38888], [94.12318, 26.38531], [94.12423, 26.38203], [94.12519, 26.37904], [94.1257, 26.37743], [94.12724, 26.37262], [94.12846, 26.37051], [94.13023, 26.36747], [94.13137, 26.36551], [94.13187, 26.3641], [94.13292, 26.36117], [94.13366, 26.35911], [94.13384, 26.35862], [94.13421, 26.35758], [94.13512, 26.35504], [94.13611, 26.35227], [94.13623, 26.35193], [94.13688, 26.35013], [94.14075, 26.35023], [94.14158, 26.35025], [94.14184, 26.35026], [94.14215, 26.35027], [94.14838, 26.35043], [94.15565, 26.35062], [94.15785, 26.35068], [94.15806, 26.35062], [94.1602, 26.34998], [94.16213, 26.34936], [94.16485, 26.35021], [94.16652, 26.349], [94.16336, 26.3558], [94.16335, 26.35582], [94.16914, 26.36055], [94.16926, 26.36065], [94.17086, 26.36196], [94.17186, 26.36278], [94.17246, 26.36327], [94.17449, 26.36744], [94.17438, 26.37015], [94.17344, 26.37232], [94.1732, 26.37287], [94.17293, 26.37352], [94.17539, 26.37881], [94.17668, 26.3816], [94.17799, 26.38442], [94.17699, 26.38951], [94.17679, 26.39053], [94.17585, 26.39527], [94.17585, 26.39642], [94.17584, 26.39757], [94.17585, 26.39808], [94.17583, 26.39985], [94.17582, 26.40097], [94.17581, 26.40335], [94.17577, 26.40915], [94.17298, 26.41663], [94.17517, 26.42292], [94.17548, 26.42381], [94.17539, 26.42425], [94.17529, 26.42475], [94.17472, 26.42755], [94.17573, 26.43022], [94.17628, 26.43167], [94.18102, 26.44422], [94.18245, 26.44801], [94.18367, 26.45126], [94.18406, 26.45228], [94.18556, 26.45626], [94.18669, 26.45699], [94.18675, 26.45703], [94.18682, 26.45707], [94.19367, 26.46148], [94.19942, 26.46518], [94.19955, 26.46527], [94.20011, 26.46563], [94.20047, 26.46622], [94.20082, 26.46681], [94.20094, 26.46702], [94.20168, 26.46826], [94.20487, 26.47358], [94.20838, 26.47945], [94.20944, 26.48252], [94.21051, 26.48558], [94.21735, 26.49162], [94.2201, 26.49405], [94.22264, 26.49629], [94.22628, 26.49813], [94.22795, 26.49897], [94.2293, 26.49998], [94.23134, 26.5015], [94.23379, 26.50332], [94.23891, 26.50713], [94.23994, 26.50827], [94.24386, 26.51261], [94.24435, 26.51336], [94.24589, 26.51565], [94.24905, 26.52039], [94.25071, 26.52286], [94.25089, 26.52314], [94.25108, 26.52342], [94.25138, 26.52454], [94.25194, 26.52666], [94.25217, 26.52752], [94.25222, 26.52772], [94.25236, 26.52822], [94.25248, 26.52837], [94.26161, 26.53963], [94.26602, 26.54426], [94.26672, 26.545], [94.27047, 26.54893], [94.27287, 26.55145], [94.27579, 26.55452], [94.27812, 26.55649], [94.27972, 26.55784], [94.28133, 26.5592], [94.28699, 26.55963], [94.28768, 26.55968], [94.28773, 26.55968], [94.28884, 26.55977], [94.28874, 26.55932], [94.28865, 26.55886], [94.28795, 26.55555], [94.28435, 26.55389], [94.28414, 26.55263], [94.28387, 26.55101], [94.28464, 26.54221], [94.2843, 26.53907], [94.28395, 26.53593], [94.28462, 26.52972], [94.28806, 26.52079], [94.28777, 26.51393], [94.28662, 26.51171], [94.28604, 26.51056], [94.28604, 26.51046], [94.28615, 26.50549], [94.28619, 26.50412], [94.28717, 26.49997], [94.28917, 26.49156], [94.29135, 26.4856], [94.29277, 26.47665], [94.29283, 26.4763], [94.29488, 26.47334], [94.30217, 26.46281], [94.30518, 26.46231], [94.30625, 26.46215], [94.30736, 26.46197], [94.30984, 26.46157], [94.31233, 26.46051], [94.31315, 26.45994], [94.31535, 26.45843], [94.31809, 26.46116], [94.32067, 26.46373], [94.32237, 26.46543], [94.32314, 26.4662], [94.32363, 26.4677], [94.32317, 26.47147], [94.323, 26.47286], [94.32276, 26.47488], [94.32818, 26.47933], [94.32881, 26.47956], [94.33007, 26.48002], [94.33119, 26.48043], [94.33146, 26.48053], [94.33205, 26.4805], [94.33531, 26.48033], [94.3358, 26.4803], [94.33731, 26.48151], [94.33801, 26.48207], [94.34085, 26.48436], [94.34228, 26.48551], [94.34374, 26.48617], [94.34436, 26.48645], [94.34609, 26.48723], [94.34848, 26.4883], [94.34935, 26.48933], [94.35093, 26.49121], [94.35089, 26.49184], [94.35084, 26.49247], [94.35071, 26.49431], [94.35069, 26.49467], [94.35193, 26.49682], [94.35206, 26.497], [94.35243, 26.49762], [94.35429, 26.49881], [94.35287, 26.50004], [94.35259, 26.50028], [94.35247, 26.50046], [94.35205, 26.50107], [94.34999, 26.5041], [94.35048, 26.50433], [94.35347, 26.50576], [94.35558, 26.50517], [94.35622, 26.505], [94.35762, 26.50461], [94.35899, 26.50489], [94.35942, 26.50498], [94.36053, 26.50521], [94.36111, 26.5052], [94.36213, 26.50538], [94.36274, 26.50551], [94.36327, 26.50567], [94.36373, 26.50575], [94.36562, 26.50562], [94.3658, 26.50561], [94.36811, 26.50544], [94.37124, 26.5066], [94.37245, 26.50705], [94.37385, 26.50757], [94.37645, 26.50854], [94.37648, 26.50855], [94.37677, 26.51119], [94.37679, 26.51134], [94.37693, 26.51259], [94.37586, 26.51815], [94.37577, 26.51861], [94.37607, 26.51907], [94.37696, 26.52041], [94.37715, 26.5207], [94.37854, 26.5215], [94.37925, 26.52191], [94.38512, 26.52528], [94.38534, 26.5254], [94.38546, 26.52547], [94.38579, 26.52566], [94.38605, 26.52581], [94.38985, 26.528], [94.39014, 26.52817], [94.39028, 26.52825], [94.39296, 26.52805], [94.39319, 26.52778], [94.39355, 26.52735], [94.39378, 26.52708], [94.39445, 26.5263], [94.39542, 26.52515], [94.39832, 26.52773], [94.39798, 26.52915], [94.39778, 26.52996], [94.39835, 26.53064], [94.40135, 26.53421], [94.40122, 26.53478], [94.40065, 26.53742], [94.40042, 26.53849], [94.40037, 26.53872], [94.4002, 26.5395], [94.4006, 26.5403], [94.40068, 26.54047], [94.401, 26.54112], [94.40129, 26.54172], [94.40156, 26.54228], [94.40222, 26.5425], [94.40269, 26.54266], [94.40562, 26.54365], [94.40572, 26.54378], [94.40681, 26.54511], [94.40655, 26.54751], [94.40652, 26.5478], [94.40495, 26.54937], [94.40368, 26.55065], [94.40475, 26.5524], [94.40499, 26.5528], [94.40691, 26.55263], [94.40786, 26.55254], [94.41084, 26.55386], [94.40947, 26.55602], [94.40685, 26.55679], [94.40675, 26.55682], [94.40666, 26.55685], [94.40671, 26.55708], [94.40675, 26.55731], [94.4068, 26.55753], [94.40702, 26.55861], [94.4074, 26.56045], [94.40746, 26.56076], [94.40781, 26.56246], [94.40804, 26.5636], [94.40821, 26.56441], [94.41077, 26.56882], [94.41227, 26.57376], [94.41319, 26.57682], [94.41359, 26.57815], [94.41376, 26.57871], [94.41207, 26.5823], [94.41164, 26.58322], [94.40807, 26.59081], [94.40735, 26.59234], [94.40663, 26.59387], [94.40497, 26.5974], [94.40665, 26.60251], [94.4072, 26.60418], [94.40737, 26.60472], [94.40755, 26.60527], [94.40685, 26.60981], [94.4073, 26.61028], [94.40774, 26.61075], [94.40886, 26.61191], [94.413, 26.61341], [94.4287, 26.61909], [94.4322, 26.62035], [94.43347, 26.62081], [94.44442, 26.62826], [94.4463, 26.62954], [94.45223, 26.63358], [94.45286, 26.63401], [94.45349, 26.63443], [94.45402, 26.63389], [94.45451, 26.63337], [94.45577, 26.63205], [94.46145, 26.63086], [94.46261, 26.63248], [94.46323, 26.63335], [94.46376, 26.6341], [94.46344, 26.63569], [94.46342, 26.63577], [94.46064, 26.63924], [94.46063, 26.63951], [94.4604, 26.6435], [94.45756, 26.65077], [94.46084, 26.65859], [94.4625, 26.66128], [94.46277, 26.66171], [94.46353, 26.66294], [94.46499, 26.66392], [94.46694, 26.66523], [94.46883, 26.66564], [94.4774, 26.6675], [94.47926, 26.6679], [94.48475, 26.66909], [94.48626, 26.66877], [94.4902, 26.66795], [94.49177, 26.66762], [94.49724, 26.66908], [94.50198, 26.67305], [94.50612, 26.67834], [94.5065, 26.6784], [94.50892, 26.67878], [94.50922, 26.67899], [94.51448, 26.68264], [94.51867, 26.68995], [94.51909, 26.6968], [94.52173, 26.69972], [94.52673, 26.69661], [94.53985, 26.70495], [94.54404, 26.70621], [94.54414, 26.70614], [94.54934, 26.70547], [94.55363, 26.70374], [94.55478, 26.70368], [94.55504, 26.70367], [94.56008, 26.70341], [94.56238, 26.70264], [94.56367, 26.70127], [94.56342, 26.7], [94.56301, 26.69791], [94.563, 26.69785], [94.56176, 26.6916], [94.56127, 26.6891], [94.56188, 26.68589], [94.56241, 26.68577], [94.56501, 26.68517], [94.56809, 26.68525], [94.56979, 26.68529], [94.57361, 26.68626], [94.57272, 26.68771], [94.57196, 26.68896], [94.57043, 26.69146], [94.57174, 26.69254], [94.57305, 26.69363], [94.57467, 26.69497], [94.57764, 26.69743], [94.58028, 26.69961], [94.58035, 26.69967], [94.58173, 26.70081], [94.58431, 26.69853], [94.58647, 26.698], [94.58789, 26.69765], [94.58863, 26.69771], [94.5902, 26.69784], [94.59133, 26.69793], [94.59226, 26.69935], [94.59258, 26.69984], [94.59347, 26.7012], [94.59384, 26.70176], [94.59389, 26.70422], [94.59395, 26.70718], [94.59396, 26.70758], [94.59398, 26.70772], [94.59437, 26.70966], [94.5951, 26.7134], [94.59641, 26.71447], [94.59725, 26.71515], [94.59895, 26.71396], [94.5991, 26.71386], [94.59999, 26.71323], [94.60023, 26.71306], [94.60156, 26.71213], [94.60254, 26.71144], [94.60265, 26.71137], [94.60273, 26.71146], [94.60291, 26.71166], [94.6032, 26.71198], [94.60359, 26.71241], [94.60357, 26.71409], [94.60355, 26.71508], [94.60283, 26.71705], [94.60211, 26.71901], [94.60077, 26.71974], [94.59942, 26.72048], [94.5984, 26.7206], [94.59374, 26.72118], [94.593, 26.72127], [94.59227, 26.72137], [94.59414, 26.72513], [94.59287, 26.72522], [94.59127, 26.72533], [94.58474, 26.7258], [94.58447, 26.72631], [94.58171, 26.73151], [94.58128, 26.73232], [94.58188, 26.73354], [94.58246, 26.73472], [94.58296, 26.73574], [94.57981, 26.73775], [94.57636, 26.73995], [94.57616, 26.74008], [94.57523, 26.74068], [94.57374, 26.74163], [94.57358, 26.74173], [94.57241, 26.74338], [94.57305, 26.74589], [94.5746, 26.75198], [94.57308, 26.75165], [94.5725, 26.75153], [94.57087, 26.75118], [94.56894, 26.75077], [94.56658, 26.74902], [94.56585, 26.74848], [94.56475, 26.75011], [94.56418, 26.75097], [94.56384, 26.75147], [94.5608, 26.75599], [94.55907, 26.75856], [94.55773, 26.76055], [94.55735, 26.76082], [94.55694, 26.76111], [94.55565, 26.76204], [94.55504, 26.76247], [94.55008, 26.76601], [94.5452, 26.7695], [94.54501, 26.76964], [94.54425, 26.77018], [94.53955, 26.77354], [94.53647, 26.77999], [94.53555, 26.78191], [94.53537, 26.78229], [94.53342, 26.78637], [94.53219, 26.78895], [94.53114, 26.79116], [94.52963, 26.79432], [94.529, 26.79587], [94.52851, 26.79709], [94.52849, 26.79713], [94.52792, 26.79853], [94.52731, 26.80004], [94.52656, 26.80189], [94.52542, 26.80469], [94.525, 26.80571], [94.52428, 26.8075], [94.52413, 26.80787], [94.524, 26.80818], [94.52396, 26.80827], [94.5237, 26.80893], [94.52329, 26.80994], [94.52304, 26.81056], [94.52277, 26.81121], [94.52269, 26.81141], [94.52261, 26.81162], [94.52153, 26.81428], [94.52086, 26.81593], [94.51995, 26.81817], [94.51604, 26.8251], [94.5152, 26.82659], [94.51188, 26.83246], [94.50822, 26.83895], [94.50649, 26.84202], [94.50623, 26.84354], [94.50556, 26.84736], [94.50486, 26.85132], [94.50484, 26.85146], [94.5046, 26.85242], [94.50445, 26.85302], [94.50393, 26.85509], [94.50366, 26.85619], [94.50351, 26.85659], [94.50177, 26.86114], [94.50142, 26.86177], [94.50086, 26.86279], [94.49993, 26.86446], [94.49891, 26.86631], [94.49831, 26.86738], [94.49799, 26.86795], [94.49649, 26.87066], [94.49452, 26.87224], [94.49376, 26.87284], [94.49353, 26.87303], [94.49241, 26.87392], [94.49106, 26.875], [94.48253, 26.88181], [94.48145, 26.8823], [94.48037, 26.88279], [94.47873, 26.88354], [94.47808, 26.88383], [94.4769, 26.88437], [94.46372, 26.89034], [94.46198, 26.89113], [94.45363, 26.89779], [94.4483, 26.90205], [94.44734, 26.90282], [94.42668, 26.92443], [94.42196, 26.93411], [94.41917, 26.93896], [94.41661, 26.94342], [94.41659, 26.94341], [94.41406, 26.942], [94.41395, 26.94194], [94.41349, 26.942], [94.41247, 26.94211], [94.4112, 26.94225], [94.41075, 26.94239], [94.41066, 26.94242], [94.41005, 26.94261], [94.40689, 26.94358], [94.40389, 26.94636], [94.40363, 26.94661], [94.40243, 26.94772], [94.40242059000008, 26.947745206000036]]], [[[94.41980257400007, 26.969845517000067], [94.40204524400008, 26.960211360000073], [94.40140393200005, 26.959309175000044], [94.40201, 26.96009], [94.40901, 26.96393], [94.41980257400007, 26.969845517000067]]]]}}]}