{"type": "FeatureCollection", "features": [{"type": "Feature", "properties": {"Name": "Kamrup"}, "geometry": {"type": "Polygon", "coordinates": [[[91.03129, 25.88771], [91.03128, 25.8873], [91.03123, 25.88362], [91.03123, 25.88354], [91.03116, 25.87952], [91.03114, 25.87941], [91.03035, 25.8754], [91.02954, 25.87131], [91.02855, 25.8663], [91.02691, 25.86444], [91.02526, 25.86258], [91.02456, 25.86179], [91.02387, 25.86101], [91.0201, 25.85974], [91.01863, 25.85924], [91.01716, 25.85874], [91.01516, 25.85688], [91.01477, 25.84853], [91.01226, 25.84197], [91.01072, 25.83795], [91.00783, 25.8329], [91.00748, 25.83229], [91.00555, 25.8289], [91.00361, 25.82551], [91.00334, 25.82433], [91.00279, 25.82195], [91.00505, 25.82132], [91.00812, 25.82047], [91.00883, 25.8205], [91.01471, 25.82078], [91.01876, 25.82155], [91.02281, 25.82232], [91.02693, 25.82725], [91.02956, 25.82907], [91.04397, 25.83907], [91.0445, 25.83977], [91.051, 25.84836], [91.05109, 25.84848], [91.05237, 25.8483], [91.05358, 25.84813], [91.05453, 25.84799], [91.05514, 25.8479], [91.05752, 25.84756], [91.06363, 25.84668], [91.06471, 25.84653], [91.06612, 25.84633], [91.06779, 25.84609], [91.06788, 25.84608], [91.06931, 25.84678], [91.07134, 25.84778], [91.0745, 25.84933], [91.07703, 25.85057], [91.07916, 25.85161], [91.0805, 25.85227], [91.07986, 25.85111], [91.07951, 25.85047], [91.07682, 25.84552], [91.07591, 25.84384], [91.07497, 25.84213], [91.07493, 25.84097], [91.0749, 25.8399], [91.0749, 25.8398], [91.07486, 25.83864], [91.07485, 25.83819], [91.07484, 25.83798], [91.0746, 25.83789], [91.07327, 25.83739], [91.07147, 25.83672], [91.06966, 25.83604], [91.06947, 25.83597], [91.06641, 25.83584], [91.06558, 25.83581], [91.06405, 25.83574], [91.06377, 25.83573], [91.0632, 25.83523], [91.06297, 25.83503], [91.06244, 25.83457], [91.06219, 25.83435], [91.06168, 25.8339], [91.06014, 25.83254], [91.05972, 25.83218], [91.05918, 25.8317], [91.05535, 25.83004], [91.05363, 25.82929], [91.05191, 25.82853], [91.05516, 25.82616], [91.05842, 25.82379], [91.05969, 25.82286], [91.06096, 25.82194], [91.06145, 25.82172], [91.06277, 25.82112], [91.06519, 25.82003], [91.06848, 25.82542], [91.07409, 25.82677], [91.07777, 25.82765], [91.07971, 25.82812], [91.08328, 25.82898], [91.10499, 25.83007], [91.10866, 25.83025], [91.11833, 25.83074], [91.12266, 25.83095], [91.12823, 25.83781], [91.1309, 25.83968], [91.13358, 25.84155], [91.13468, 25.84158], [91.13979, 25.84173], [91.14267, 25.84374], [91.14284, 25.84385], [91.14387, 25.84457], [91.14557, 25.84575], [91.14727, 25.84693], [91.14857, 25.84741], [91.14865, 25.84743], [91.14878, 25.84748], [91.15474, 25.84966], [91.15839, 25.84933], [91.1635, 25.84888], [91.16755, 25.8466], [91.16885, 25.84587], [91.17002, 25.84521], [91.17083, 25.84499], [91.17324, 25.84435], [91.17551, 25.84375], [91.17817, 25.84304], [91.17911, 25.84279], [91.18025, 25.84249], [91.18085, 25.84232], [91.18221, 25.843], [91.18357, 25.84368], [91.18394, 25.84426], [91.18432, 25.84485], [91.18724, 25.84943], [91.1873, 25.84952], [91.19423, 25.85435], [91.19486, 25.85479], [91.19689, 25.85702], [91.19766, 25.85786], [91.1983, 25.85856], [91.19855, 25.85794], [91.19893, 25.85696], [91.19994, 25.85438], [91.20023, 25.85042], [91.20043, 25.84771], [91.20047, 25.84719], [91.20443, 25.84009], [91.20097, 25.83587], [91.20075, 25.83559], [91.1963, 25.83016], [91.1962, 25.82809], [91.19609, 25.82595], [91.19517, 25.82478], [91.19425, 25.82362], [91.19296, 25.82197], [91.19167, 25.82033], [91.18995, 25.81513], [91.19273, 25.81027], [91.18902, 25.80286], [91.18844, 25.80094], [91.18652, 25.7946], [91.18619, 25.78953], [91.186, 25.78655], [91.18582, 25.7838], [91.18572, 25.78216], [91.18487, 25.78084], [91.18355, 25.77879], [91.18347, 25.77868], [91.18167, 25.7759], [91.18292, 25.77292], [91.18703, 25.76996], [91.18765, 25.76952], [91.18743, 25.76646], [91.18996, 25.76397], [91.1909, 25.76304], [91.19069, 25.7527], [91.19056, 25.74692], [91.19055, 25.7461], [91.1905, 25.74409], [91.19047, 25.74238], [91.19039, 25.73851], [91.19403, 25.73566], [91.19375, 25.73068], [91.19366, 25.72915], [91.19968, 25.73055], [91.20549, 25.72824], [91.20859, 25.727], [91.20866, 25.72698], [91.21751, 25.72346], [91.21838, 25.7238], [91.21926, 25.72414], [91.22307, 25.7256], [91.22473, 25.7238], [91.2255, 25.72297], [91.22678, 25.72382], [91.22891, 25.72524], [91.22898, 25.72528], [91.22905, 25.72532], [91.23413, 25.7287], [91.23445, 25.72896], [91.23584, 25.7301], [91.24059, 25.73397], [91.24112, 25.7344], [91.25699, 25.74734], [91.26389, 25.7488], [91.27019, 25.74768], [91.2705, 25.74763], [91.27081, 25.74757], [91.2709, 25.74756], [91.27117, 25.74751], [91.27141, 25.74747], [91.27165, 25.74743], [91.27182, 25.7474], [91.27272, 25.74724], [91.27511, 25.74681], [91.27723, 25.74644], [91.27807, 25.75117], [91.28119, 25.75615], [91.28889, 25.7636], [91.29226, 25.76854], [91.29277, 25.76929], [91.2985, 25.77773], [91.29984, 25.7803], [91.30011, 25.78082], [91.30794, 25.79584], [91.3081, 25.79607], [91.30978, 25.79854], [91.31003, 25.79866], [91.31008, 25.79898], [91.31436, 25.80526], [91.31729, 25.80956], [91.31784, 25.81037], [91.32661, 25.82324], [91.32712, 25.8238], [91.32767, 25.82442], [91.33087, 25.82798], [91.33407, 25.83153], [91.33395, 25.83225], [91.3338, 25.83314], [91.33434, 25.83512], [91.33521, 25.83828], [91.33664, 25.83806], [91.33807, 25.83785], [91.3389, 25.83753], [91.34379, 25.83566], [91.34412, 25.83553], [91.34518, 25.8374], [91.34601, 25.83887], [91.34678, 25.83903], [91.34708, 25.8391], [91.34718, 25.83912], [91.34768, 25.83923], [91.34809, 25.83932], [91.35, 25.83973], [91.35019, 25.83977], [91.35037, 25.83967], [91.35279, 25.83834], [91.35493, 25.83716], [91.35638, 25.83868], [91.35784, 25.8402], [91.3585, 25.84088], [91.35947, 25.84074], [91.35998, 25.84067], [91.36265, 25.84028], [91.36529, 25.8399], [91.36806, 25.84145], [91.37082, 25.84299], [91.37132, 25.84327], [91.37211, 25.84371], [91.37846, 25.84428], [91.38108, 25.84531], [91.3837, 25.84633], [91.3901, 25.84669], [91.40276, 25.85047], [91.40431, 25.84999], [91.40665, 25.84925], [91.41112, 25.85161], [91.41428, 25.85328], [91.41736, 25.85368], [91.42043, 25.85408], [91.42584, 25.85291], [91.43044, 25.84882], [91.43056, 25.84872], [91.43237, 25.84711], [91.43351, 25.84643], [91.4338, 25.84626], [91.43398, 25.84615], [91.43606, 25.84492], [91.44272, 25.84097], [91.44431, 25.84067], [91.44589, 25.84037], [91.4489, 25.845], [91.45122, 25.84673], [91.45454, 25.84921], [91.45479, 25.8494], [91.45646, 25.85064], [91.47021, 25.85835], [91.47146, 25.85798], [91.47396, 25.85724], [91.47645, 25.85651], [91.47989, 25.85699], [91.48171, 25.85904], [91.48312, 25.86063], [91.48452, 25.86221], [91.48994, 25.86196], [91.49749, 25.86163], [91.50933, 25.86408], [91.51421, 25.86584], [91.51447, 25.8661], [91.51483, 25.86647], [91.51829, 25.87005], [91.52056, 25.87239], [91.52252, 25.8733], [91.52321, 25.87362], [91.5253, 25.87278], [91.52684, 25.87216], [91.52787, 25.87451], [91.52861, 25.8762], [91.53033, 25.88013], [91.53132, 25.88099], [91.53405, 25.88332], [91.5339, 25.88445], [91.5335, 25.88741], [91.53266, 25.88797], [91.5312, 25.88894], [91.52725, 25.88938], [91.52488, 25.8866], [91.52368, 25.8852], [91.52213, 25.88023], [91.52122, 25.8773], [91.52022, 25.87597], [91.51989, 25.87552], [91.51955, 25.87507], [91.5187, 25.87394], [91.51744, 25.87267], [91.51638, 25.87161], [91.515, 25.87022], [91.51139, 25.86803], [91.50924, 25.86672], [91.50157, 25.86653], [91.49978, 25.86648], [91.498, 25.86584], [91.49546, 25.86493], [91.49516, 25.86482], [91.49471, 25.86491], [91.49107, 25.86563], [91.4882, 25.8662], [91.48651, 25.86653], [91.48612, 25.86661], [91.48121, 25.86757], [91.48059, 25.86769], [91.47973, 25.86787], [91.4793, 25.86795], [91.47888, 25.86803], [91.47878, 25.86813], [91.47735, 25.8695], [91.47642, 25.87039], [91.47626, 25.87054], [91.47662, 25.87257], [91.47694, 25.87439], [91.4771, 25.8753], [91.47746, 25.87735], [91.47834, 25.87949], [91.48018, 25.88399], [91.48029, 25.88413], [91.4804, 25.88428], [91.48375, 25.88882], [91.48487, 25.89034], [91.48696, 25.89188], [91.48731, 25.89214], [91.48729, 25.89353], [91.48725, 25.89618], [91.48724, 25.89698], [91.48719, 25.9002], [91.48713, 25.90489], [91.48712, 25.90554], [91.48709, 25.90719], [91.48698, 25.91494], [91.49124, 25.94086], [91.49168, 25.94352], [91.49178, 25.9441], [91.49309, 25.95209], [91.49343, 25.95417], [91.49365, 25.95551], [91.49404, 25.95791], [91.49434, 25.95971], [91.49541, 25.96623], [91.4964, 25.97225], [91.49748, 25.97879], [91.49762, 25.97966], [91.49835, 25.98409], [91.49923, 25.98943], [91.50146, 26.00299], [91.50173, 26.0046], [91.5021, 26.00687], [91.50298, 26.01224], [91.50329, 26.01412], [91.50365, 26.01632], [91.50416, 26.01723], [91.50492, 26.01856], [91.50664, 26.02161], [91.50702, 26.02228], [91.5073, 26.02278], [91.51264, 26.03224], [91.51305, 26.03297], [91.5137, 26.03411], [91.51462, 26.03574], [91.51584, 26.0379], [91.51787, 26.04149], [91.5217, 26.04826], [91.52349, 26.0495], [91.53073, 26.05451], [91.53698, 26.04896], [91.5397, 26.04555], [91.54096, 26.04397], [91.54162, 26.04315], [91.54253, 26.04201], [91.55156, 26.03299], [91.55958, 26.03384], [91.56475, 26.03438], [91.5657, 26.03541], [91.56662, 26.03639], [91.57352, 26.04382], [91.57378, 26.0441], [91.57391, 26.04445], [91.57694, 26.05271], [91.57842, 26.05676], [91.57963, 26.06006], [91.58142, 26.06493], [91.5816, 26.06611], [91.58224, 26.07019], [91.58251, 26.07191], [91.58449, 26.08453], [91.58456, 26.085], [91.58488, 26.08707], [91.58489, 26.08715], [91.58495, 26.08896], [91.58493, 26.09048], [91.58506, 26.09197], [91.58534, 26.10005], [91.58535, 26.10052], [91.5854, 26.10174], [91.58542, 26.10238], [91.58558, 26.10691], [91.58559, 26.10729], [91.58569, 26.10837], [91.58607, 26.11227], [91.58609, 26.11248], [91.58624, 26.11404], [91.58626, 26.11428], [91.58698, 26.12187], [91.59461, 26.1302], [91.59679, 26.13042], [91.59761, 26.1305], [91.60016, 26.13079], [91.60491, 26.13129], [91.60611, 26.13141], [91.60778, 26.13159], [91.61538, 26.1292], [91.61722, 26.12862], [91.61971, 26.12784], [91.61985, 26.1278], [91.621, 26.12743], [91.62113, 26.12738], [91.62239, 26.12691], [91.62275, 26.12678], [91.62336, 26.12655], [91.62436, 26.12617], [91.62449, 26.12613], [91.63251, 26.1231], [91.63922, 26.12065], [91.6453, 26.1184], [91.64748, 26.11801], [91.64792, 26.11793], [91.64833, 26.11786], [91.64856, 26.11782], [91.66475, 26.11493], [91.67239, 26.11434], [91.67263, 26.11432], [91.67291, 26.1143], [91.67571, 26.1141], [91.67729, 26.11399], [91.67818, 26.11393], [91.67826, 26.11392], [91.6782, 26.11401], [91.6776, 26.11486], [91.67727, 26.11532], [91.67695, 26.11576], [91.67694, 26.11578], [91.67685, 26.11586], [91.6767, 26.11654], [91.67653, 26.11739], [91.6765, 26.11751], [91.67635, 26.11824], [91.67636, 26.12035], [91.67538, 26.12057], [91.675, 26.12065], [91.67306, 26.12108], [91.67259, 26.12138], [91.66988, 26.12309], [91.66897, 26.12382], [91.66799, 26.12449], [91.66754, 26.12493], [91.66657, 26.12588], [91.66628, 26.12736], [91.66606, 26.12847], [91.66586, 26.12932], [91.66583, 26.13004], [91.66579, 26.13006], [91.66573, 26.13007], [91.66362, 26.12994], [91.66334, 26.12913], [91.66323, 26.12898], [91.66292, 26.12842], [91.66276, 26.12831], [91.66185, 26.12764], [91.66053, 26.12749], [91.65873, 26.12799], [91.65827, 26.12812], [91.65759, 26.12866], [91.65689, 26.12909], [91.6567, 26.12917], [91.65615, 26.12941], [91.65582, 26.12961], [91.65551, 26.12987], [91.65474, 26.13047], [91.65337, 26.13154], [91.6528, 26.13207], [91.65233, 26.13241], [91.65236, 26.13186], [91.65236, 26.13162], [91.65236, 26.13083], [91.65236, 26.13069], [91.65197, 26.13037], [91.65189, 26.13], [91.65171, 26.12996], [91.65159, 26.12956], [91.65112, 26.12952], [91.65015, 26.1294], [91.64827, 26.12907], [91.64609, 26.12889], [91.64451, 26.12868], [91.64385, 26.12859], [91.64101, 26.12804], [91.64077, 26.128], [91.64053, 26.12797], [91.64028, 26.12794], [91.64004, 26.12792], [91.6398, 26.1279], [91.63955, 26.1279], [91.63931, 26.1279], [91.63906, 26.1279], [91.63881, 26.12792], [91.63858, 26.12793], [91.63796, 26.12826], [91.63846, 26.12854], [91.63856, 26.12863], [91.63861, 26.12873], [91.63884, 26.1298], [91.63891, 26.13005], [91.63905, 26.13044], [91.63908, 26.13062], [91.63905, 26.13077], [91.63898, 26.13094], [91.63898, 26.1311], [91.63909, 26.13135], [91.63918, 26.13171], [91.63916, 26.13186], [91.63903, 26.13207], [91.639, 26.1321], [91.63874, 26.13241], [91.63867, 26.13254], [91.63868, 26.13265], [91.63882, 26.13278], [91.63895, 26.13291], [91.63911, 26.13318], [91.63923, 26.13331], [91.63938, 26.13339], [91.6395, 26.13345], [91.63961, 26.13352], [91.63964, 26.13364], [91.63961, 26.13376], [91.63945, 26.13399], [91.63919, 26.13437], [91.63909, 26.1345], [91.63905, 26.13463], [91.63911, 26.13474], [91.63935, 26.13489], [91.63952, 26.13508], [91.63961, 26.13518], [91.63975, 26.13531], [91.64023, 26.13558], [91.64034, 26.13569], [91.64036, 26.13578], [91.64032, 26.13587], [91.64004, 26.13606], [91.63984, 26.13618], [91.63961, 26.13641], [91.6395, 26.13659], [91.63941, 26.13674], [91.63905, 26.13713], [91.63882, 26.13742], [91.63858, 26.13797], [91.63848, 26.1381], [91.63835, 26.13816], [91.63798, 26.13814], [91.63778, 26.13817], [91.63765, 26.13829], [91.63724, 26.13894], [91.63699, 26.13936], [91.63687, 26.13949], [91.6367, 26.13969], [91.6365, 26.13974], [91.63616, 26.1397], [91.6358, 26.1396], [91.63567, 26.13953], [91.63556, 26.13943], [91.63542, 26.13916], [91.63532, 26.13902], [91.63518, 26.13895], [91.63503, 26.13895], [91.63491, 26.13898], [91.63481, 26.13912], [91.6348, 26.13936], [91.63483, 26.13964], [91.6349, 26.13994], [91.63495, 26.14014], [91.63498, 26.14029], [91.63495, 26.14046], [91.63489, 26.14061], [91.63486, 26.1408], [91.63493, 26.14111], [91.635, 26.14135], [91.635, 26.14167], [91.63495, 26.14187], [91.63499, 26.14206], [91.6351, 26.14219], [91.63517, 26.14228], [91.63542, 26.14255], [91.63593, 26.14307], [91.63636, 26.14335], [91.63658, 26.14351], [91.63667, 26.14374], [91.63679, 26.14391], [91.63696, 26.14402], [91.63726, 26.14426], [91.63741, 26.14449], [91.63742, 26.14484], [91.63757, 26.14508], [91.63775, 26.14528], [91.63808, 26.14558], [91.63861, 26.14594], [91.63914, 26.14646], [91.63955, 26.14686], [91.64018, 26.14758], [91.64053, 26.14797], [91.64143, 26.14921], [91.6417, 26.14956], [91.64258, 26.15071], [91.64327, 26.15162], [91.64358, 26.15203], [91.64378, 26.15238], [91.64405, 26.15301], [91.64428, 26.15331], [91.64467, 26.15371], [91.645, 26.15422], [91.64529, 26.15487], [91.64533, 26.15506], [91.64536, 26.1552], [91.6456, 26.15549], [91.64597, 26.15577], [91.64605, 26.15593], [91.64608, 26.1561], [91.64604, 26.15645], [91.64608, 26.15665], [91.64629, 26.15693], [91.64649, 26.15712], [91.64664, 26.15727], [91.64672, 26.15747], [91.64688, 26.15786], [91.64697, 26.15816], [91.6473, 26.15868], [91.64735, 26.15876], [91.6477, 26.15929], [91.64784, 26.15952], [91.64789, 26.16005], [91.64801, 26.16049], [91.6484, 26.16138], [91.6485, 26.16193], [91.64856, 26.16208], [91.64868, 26.16221], [91.64884, 26.16231], [91.64903, 26.16234], [91.64928, 26.16234], [91.64947, 26.16245], [91.64958, 26.16261], [91.6496, 26.16281], [91.64952, 26.16305], [91.6494, 26.16334], [91.64935, 26.16366], [91.64938, 26.16406], [91.6493, 26.1643], [91.64921, 26.16442], [91.6491, 26.16448], [91.64901, 26.16452], [91.64888, 26.16455], [91.64863, 26.16453], [91.64823, 26.16441], [91.64798, 26.16431], [91.64765, 26.16427], [91.64734, 26.16427], [91.64666, 26.16425], [91.64692, 26.16449], [91.64637, 26.16553], [91.64648, 26.16822], [91.64646, 26.17125], [91.64641, 26.17199], [91.64645, 26.17277], [91.64643, 26.17336], [91.64644, 26.17381], [91.64644, 26.17396], [91.64644, 26.1741], [91.64634, 26.17471], [91.64603, 26.17668], [91.64506, 26.18256], [91.64465, 26.18528], [91.64377, 26.18893], [91.64411, 26.18859], [91.64444, 26.18833], [91.64499, 26.18803], [91.64593, 26.18768], [91.64756, 26.18658], [91.64834, 26.18634], [91.64965, 26.18597], [91.65041, 26.18593], [91.65115, 26.18575], [91.65157, 26.18561], [91.65318, 26.18486], [91.65591, 26.1836], [91.65685, 26.18321], [91.65803, 26.18274], [91.65924, 26.1824], [91.6603, 26.18221], [91.66092, 26.18216], [91.66112, 26.18201], [91.66128, 26.18197], [91.66146, 26.18192], [91.66551, 26.18137], [91.6676, 26.18111], [91.67052, 26.18066], [91.67184, 26.18073], [91.6719, 26.18073], [91.67539, 26.1803], [91.6763, 26.18024], [91.67758, 26.1802], [91.67951, 26.18011], [91.68007, 26.17999], [91.68033, 26.17991], [91.68042, 26.17981], [91.68067, 26.1797], [91.68102, 26.17961], [91.68134, 26.17953], [91.68162, 26.17945], [91.6817, 26.17945], [91.68167, 26.17958], [91.68189, 26.17963], [91.68206, 26.17977], [91.6821, 26.17987], [91.68209, 26.18002], [91.6822, 26.1801], [91.68237, 26.18012], [91.68263, 26.18005], [91.68302, 26.17976], [91.68335, 26.17957], [91.68353, 26.17944], [91.68365, 26.17938], [91.68384, 26.17941], [91.68401, 26.17952], [91.68412, 26.17968], [91.68423, 26.17981], [91.68426, 26.18002], [91.68421, 26.1802], [91.6839, 26.18046], [91.68401, 26.18076], [91.68433, 26.18116], [91.68501, 26.18165], [91.68559, 26.18189], [91.68587, 26.18192], [91.68639, 26.18157], [91.68803, 26.18186], [91.69061, 26.1819], [91.69435, 26.18155], [91.69769, 26.18132], [91.69827, 26.18143], [91.69829, 26.18144], [91.70114, 26.18146], [91.70195, 26.18157], [91.70342, 26.18248], [91.70429, 26.1826], [91.70525, 26.18268], [91.7064, 26.18273], [91.70642, 26.18273], [91.70745, 26.1828], [91.70799, 26.18281], [91.70852, 26.18284], [91.71018, 26.18302], [91.71132, 26.18318], [91.71235, 26.18334], [91.71308, 26.18347], [91.71371, 26.18359], [91.71466, 26.18378], [91.71663, 26.18418], [91.71829, 26.18457], [91.71886, 26.18473], [91.71922, 26.18481], [91.7195, 26.18486], [91.72028, 26.18506], [91.72046, 26.18499], [91.72045, 26.18483], [91.72041, 26.18466], [91.72084, 26.18473], [91.72128, 26.18482], [91.7215, 26.1849], [91.72154, 26.1852], [91.72153, 26.1855], [91.72161, 26.18566], [91.7218, 26.18608], [91.72212, 26.18641], [91.72252, 26.18656], [91.72282, 26.18665], [91.72311, 26.18664], [91.72339, 26.18648], [91.72363, 26.18639], [91.72394, 26.18641], [91.72417, 26.18657], [91.7242, 26.18674], [91.72413, 26.18688], [91.72407, 26.18703], [91.72417, 26.18819], [91.72603, 26.18632], [91.72684, 26.18551], [91.73008, 26.18224], [91.7306, 26.18169], [91.73442, 26.18428], [91.73531, 26.18526], [91.7364, 26.18662], [91.74037, 26.19128], [91.74307, 26.19569], [91.74461, 26.19744], [91.75083, 26.20129], [91.75363, 26.20179], [91.75577, 26.20137], [91.75805, 26.20022], [91.75993, 26.19989], [91.76004, 26.20047], [91.75899, 26.20126], [91.75418, 26.2049], [91.74899, 26.21072], [91.7478, 26.21461], [91.74755, 26.21544], [91.74723, 26.2165], [91.74831, 26.22103], [91.75432, 26.22595], [91.76131, 26.22917], [91.76174, 26.22937], [91.7619, 26.22945], [91.76331, 26.2301], [91.76474, 26.23076], [91.76522, 26.23098], [91.76552, 26.23157], [91.76936, 26.23938], [91.77142, 26.24068], [91.77213, 26.24112], [91.77683, 26.24049], [91.78061, 26.2413], [91.78278, 26.24252], [91.78581, 26.24422], [91.78633, 26.24774], [91.78652, 26.24904], [91.78546, 26.25377], [91.78685, 26.25876], [91.78695, 26.25912], [91.78747, 26.26099], [91.7886, 26.26279], [91.78876, 26.26303], [91.78968, 26.2645], [91.79159, 26.26755], [91.79205, 26.26829], [91.79205, 26.26989], [91.79204, 26.27163], [91.79097, 26.27343], [91.79092, 26.27352], [91.78943, 26.27604], [91.78953, 26.27768], [91.78969, 26.2804], [91.78978, 26.28193], [91.78988, 26.28362], [91.78925, 26.28566], [91.78857, 26.28787], [91.78841, 26.2884], [91.7878, 26.29037], [91.78593, 26.29644], [91.78597, 26.29896], [91.786, 26.30059], [91.7867, 26.30168], [91.7875, 26.30292], [91.78724, 26.30318], [91.78556, 26.30485], [91.78865, 26.30577], [91.78889, 26.30584], [91.78903, 26.30617], [91.78938, 26.30703], [91.79028, 26.30921], [91.79101, 26.30919], [91.79321, 26.30912], [91.79355, 26.31027], [91.79604, 26.31862], [91.7964, 26.3181], [91.79798, 26.31581], [91.79802, 26.31575], [91.79814, 26.31558], [91.7984, 26.3152], [91.79959, 26.31497], [91.79977, 26.31493], [91.80126, 26.31464], [91.80632, 26.31641], [91.80871, 26.31656], [91.80892, 26.31657], [91.80917, 26.31659], [91.81008, 26.31665], [91.81019, 26.31677], [91.81167, 26.31843], [91.81242, 26.31926], [91.81249, 26.31999], [91.81251, 26.32032], [91.81272, 26.32272], [91.81281, 26.32369], [91.81571, 26.32583], [91.81666, 26.32568], [91.82004, 26.32514], [91.82087, 26.32501], [91.82118, 26.32596], [91.82184, 26.32801], [91.82255, 26.33024], [91.82315, 26.33211], [91.82205, 26.33507], [91.82143, 26.33674], [91.82144, 26.33753], [91.82145, 26.33855], [91.82147, 26.3399], [91.82148, 26.34065], [91.82149, 26.34105], [91.82151, 26.34261], [91.82152, 26.34358], [91.82156, 26.34716], [91.82164, 26.34899], [91.82162, 26.35215], [91.82171, 26.35295], [91.82289, 26.36393], [91.82182, 26.36587], [91.82129, 26.36682], [91.82097, 26.3674], [91.82109, 26.36806], [91.82112, 26.36821], [91.82167, 26.37107], [91.82007, 26.3769], [91.82003, 26.37727], [91.82, 26.37757], [91.81981, 26.37814], [91.81944, 26.37922], [91.81326, 26.38339], [91.81214, 26.38296], [91.81056, 26.38236], [91.8094, 26.38192], [91.80877, 26.38168], [91.80813, 26.38144], [91.80525, 26.3847], [91.80528, 26.38484], [91.80553, 26.38605], [91.80579, 26.38731], [91.80587, 26.38769], [91.80516, 26.38832], [91.80787, 26.39149], [91.80971, 26.39365], [91.81002, 26.39402], [91.80676, 26.40007], [91.80006, 26.41251], [91.79793, 26.41646], [91.7952, 26.42153], [91.79279, 26.42601], [91.79086, 26.4296], [91.78713, 26.43652], [91.78712, 26.4382], [91.7871, 26.44009], [91.78706, 26.44404], [91.787, 26.45142], [91.78659, 26.46604], [91.78659, 26.46649], [91.78662, 26.47641], [91.78664, 26.48181], [91.78667, 26.49036], [91.78664, 26.49049], [91.78667, 26.49116], [91.78349, 26.4957], [91.78009, 26.49158], [91.77968, 26.48917], [91.77931, 26.48699], [91.7799, 26.48592], [91.78081, 26.48429], [91.78117, 26.48363], [91.77986, 26.47949], [91.77977, 26.47922], [91.7798, 26.47865], [91.77992, 26.47657], [91.77999, 26.47536], [91.77999, 26.47408], [91.77989, 26.47377], [91.77859, 26.46969], [91.77741, 26.46802], [91.77675, 26.46708], [91.77625, 26.46637], [91.77271, 26.46636], [91.7714, 26.46636], [91.76414, 26.46959], [91.76047, 26.47122], [91.75712, 26.47284], [91.75615, 26.47331], [91.75063, 26.47598], [91.7484, 26.47706], [91.7424, 26.47996], [91.73221, 26.4849], [91.7307, 26.48563], [91.7283, 26.48679], [91.7269, 26.48747], [91.72649, 26.48659], [91.72384, 26.48085], [91.72273, 26.47844], [91.71895, 26.47215], [91.71856, 26.4715], [91.71481, 26.46703], [91.7118, 26.46344], [91.70321, 26.4532], [91.70315, 26.45344], [91.70097, 26.45344], [91.69758, 26.45323], [91.69739, 26.45325], [91.69472, 26.45351], [91.69295, 26.45369], [91.68992, 26.45381], [91.68912, 26.45452], [91.68787, 26.45708], [91.68698, 26.45731], [91.68511, 26.45668], [91.6843, 26.4552], [91.68394, 26.45452], [91.68281, 26.45409], [91.68155, 26.45402], [91.67964, 26.45391], [91.67925, 26.45389], [91.67785, 26.45383], [91.6771, 26.4538], [91.67681, 26.45379], [91.67428, 26.4539], [91.67416, 26.45295], [91.67406, 26.45105], [91.67448, 26.44931], [91.67604, 26.44762], [91.67738, 26.44671], [91.6781, 26.44622], [91.67941, 26.44534], [91.67956, 26.44523], [91.68015, 26.4448], [91.68014, 26.44469], [91.68004, 26.44369], [91.67999, 26.44351], [91.67934, 26.44249], [91.67901, 26.44202], [91.67892, 26.44207], [91.67751, 26.44286], [91.67742, 26.44291], [91.67634, 26.44307], [91.67446, 26.44334], [91.67305, 26.44342], [91.67096, 26.44354], [91.66844, 26.4436], [91.66618, 26.44367], [91.66581, 26.44355], [91.6636, 26.44289], [91.65664, 26.44265], [91.65493, 26.44281], [91.65379, 26.44292], [91.65323, 26.44298], [91.65141, 26.4431], [91.65114, 26.44311], [91.65078, 26.44297], [91.64872, 26.44297], [91.64894, 26.44447], [91.64859, 26.44938], [91.64843, 26.45155], [91.6475, 26.45445], [91.64798, 26.45595], [91.648, 26.45678], [91.648, 26.45702], [91.64741, 26.45682], [91.64253, 26.45627], [91.64038, 26.45678], [91.63955, 26.45672], [91.6357, 26.45646], [91.6329, 26.4561], [91.63256, 26.45609], [91.63166, 26.45605], [91.63014, 26.456], [91.62876, 26.45596], [91.62761, 26.45593], [91.62744, 26.45593], [91.62543, 26.45595], [91.62465, 26.45596], [91.6234, 26.45597], [91.62296, 26.45581], [91.6225, 26.45585], [91.62216, 26.45596], [91.62141, 26.45596], [91.62078, 26.45661], [91.62023, 26.45682], [91.61878, 26.45724], [91.61867, 26.45731], [91.61751, 26.45772], [91.61566, 26.45917], [91.61506, 26.45954], [91.61499, 26.45959], [91.61353, 26.46139], [91.61352, 26.46271], [91.61351, 26.46372], [91.61351, 26.46382], [91.61354, 26.46423], [91.61354, 26.46429], [91.6136, 26.46522], [91.61367, 26.46611], [91.6137, 26.46623], [91.61415, 26.46831], [91.61531, 26.46953], [91.61593, 26.4697], [91.61819, 26.47032], [91.61858, 26.47163], [91.6183, 26.47174], [91.61781, 26.47192], [91.6173, 26.47211], [91.61611, 26.47276], [91.61575, 26.47359], [91.61499, 26.47315], [91.61358, 26.47238], [91.6121, 26.47187], [91.60996, 26.47114], [91.6085, 26.47119], [91.60786, 26.47211], [91.60791, 26.47324], [91.60957, 26.47481], [91.61, 26.47543], [91.60963, 26.47581], [91.60592, 26.47597], [91.60587, 26.47622], [91.6058, 26.47662], [91.60738, 26.47788], [91.60779, 26.47867], [91.60743, 26.47991], [91.60757, 26.48077], [91.60861, 26.48116], [91.61145, 26.48144], [91.6117, 26.48156], [91.61208, 26.48177], [91.61175, 26.48211], [91.6114, 26.48257], [91.61117, 26.48314], [91.61187, 26.48405], [91.61224, 26.48428], [91.61291, 26.48426], [91.61379, 26.48382], [91.61497, 26.48407], [91.61584, 26.48461], [91.61591, 26.48506], [91.61585, 26.48552], [91.61571, 26.48564], [91.61539, 26.48591], [91.61524, 26.48615], [91.61519, 26.48631], [91.61475, 26.48665], [91.61228, 26.48853], [91.6121, 26.49036], [91.6114, 26.49746], [91.61135, 26.49798], [91.6112, 26.49944], [91.61112, 26.50022], [91.61117, 26.50327], [91.61122, 26.50585], [91.61125, 26.50775], [91.61131, 26.51078], [91.61135, 26.5131], [91.61146, 26.51885], [91.61161, 26.5269], [91.61164, 26.52868], [91.61181, 26.53787], [91.61183, 26.5394], [91.61184, 26.53976], [91.61192, 26.54412], [91.61198, 26.54742], [91.61204, 26.55088], [91.61191, 26.55255], [91.61169, 26.55537], [91.61121, 26.56166], [91.61097, 26.56475], [91.60904, 26.56886], [91.60874, 26.56949], [91.60843, 26.56961], [91.60859, 26.56987], [91.60877, 26.57007], [91.60986, 26.57129], [91.61056, 26.57368], [91.61076, 26.57644], [91.60637, 26.57604], [91.60514, 26.57593], [91.60349, 26.57578], [91.6034, 26.57577], [91.60109, 26.57557], [91.60003, 26.57548], [91.5991, 26.57521], [91.5997, 26.57318], [91.60001, 26.57091], [91.60112, 26.5685], [91.60142, 26.56785], [91.60311, 26.5665], [91.60437, 26.5631], [91.60385, 26.5632], [91.6015, 26.56363], [91.59917, 26.56358], [91.59661, 26.56355], [91.5949, 26.5632], [91.59433, 26.56309], [91.59315, 26.5628], [91.5913, 26.56235], [91.58843, 26.56262], [91.58608, 26.56285], [91.58624, 26.56172], [91.58663, 26.55913], [91.58749, 26.55304], [91.58721, 26.55276], [91.58666, 26.55221], [91.58766, 26.54523], [91.5884, 26.54006], [91.58706, 26.53923], [91.5837, 26.53712], [91.58369, 26.53708], [91.5836, 26.53518], [91.5836, 26.5351], [91.58358, 26.53459], [91.58342, 26.5312], [91.58048, 26.52635], [91.57797, 26.52507], [91.57747, 26.52482], [91.57717, 26.52466], [91.57695, 26.52455], [91.57627, 26.52421], [91.57568, 26.52391], [91.57543, 26.52378], [91.57495, 26.52354], [91.5745, 26.52342], [91.57381, 26.52323], [91.57352, 26.52316], [91.57021, 26.52227], [91.5693, 26.52222], [91.56592, 26.52203], [91.56523, 26.52199], [91.56333, 26.52139], [91.56068, 26.52055], [91.56035, 26.51976], [91.56012, 26.51922], [91.55971, 26.51828], [91.55937, 26.51746], [91.55909, 26.51682], [91.55805, 26.51439], [91.55797, 26.51419], [91.55816, 26.51344], [91.55832, 26.51278], [91.55863, 26.51149], [91.55902, 26.50986], [91.55948, 26.50747], [91.55982, 26.50662], [91.55998, 26.50598], [91.56067, 26.50314], [91.56071, 26.50297], [91.56093, 26.50208], [91.56136, 26.50035], [91.56145, 26.49918], [91.56146, 26.49912], [91.56173, 26.49578], [91.56214, 26.49076], [91.56237, 26.48788], [91.56243, 26.48718], [91.56247, 26.48674], [91.56272, 26.48365], [91.55838, 26.47962], [91.55834, 26.47954], [91.55776, 26.47844], [91.55766, 26.47824], [91.55715, 26.47727], [91.55693, 26.47686], [91.55638, 26.47581], [91.55634, 26.47574], [91.55366, 26.47065], [91.55371, 26.47035], [91.55393, 26.46874], [91.55394, 26.46865], [91.55426, 26.46639], [91.55431, 26.46599], [91.55464, 26.4636], [91.55478, 26.46265], [91.55516, 26.45993], [91.55549, 26.4575], [91.55575, 26.45568], [91.55817, 26.45112], [91.5607, 26.44634], [91.56183, 26.44421], [91.56187, 26.44406], [91.56191, 26.44395], [91.56211, 26.44325], [91.56221, 26.44292], [91.56249, 26.44191], [91.5639, 26.437], [91.56442, 26.43598], [91.56445, 26.43593], [91.56481, 26.43522], [91.56507, 26.43472], [91.56577, 26.43336], [91.56468, 26.42907], [91.56458, 26.42865], [91.56453, 26.42845], [91.5639, 26.42595], [91.56365, 26.42495], [91.56354, 26.42452], [91.56058, 26.42208], [91.56058, 26.4211], [91.56056, 26.41656], [91.55844, 26.41597], [91.55761, 26.41574], [91.5566, 26.41546], [91.55552, 26.41516], [91.55362, 26.41462], [91.55345, 26.41458], [91.55265, 26.415], [91.55213, 26.41528], [91.55197, 26.41536], [91.54964, 26.4166], [91.54914, 26.41686], [91.54469, 26.41674], [91.54334, 26.4167], [91.54158, 26.41403], [91.54396, 26.41063], [91.54483, 26.40939], [91.54507, 26.40856], [91.54522, 26.40804], [91.54553, 26.40698], [91.54562, 26.40667], [91.54359, 26.40315], [91.54223, 26.40079], [91.54199, 26.40054], [91.53772, 26.39619], [91.53618, 26.39463], [91.53479, 26.39322], [91.53485, 26.39195], [91.53486, 26.39178], [91.53486, 26.39166], [91.53489, 26.39097], [91.53495, 26.38969], [91.53498, 26.38885], [91.53498, 26.38879], [91.53304, 26.38628], [91.52933, 26.38147], [91.52868, 26.38063], [91.52731, 26.37885], [91.52675, 26.37813], [91.52733, 26.37559], [91.52742, 26.3752], [91.52764, 26.37421], [91.52862, 26.37409], [91.52883, 26.37407], [91.53198, 26.3737], [91.5325, 26.37364], [91.53319, 26.37356], [91.53413, 26.37344], [91.53725, 26.37075], [91.53668, 26.36994], [91.53554, 26.36859], [91.53372, 26.36643], [91.53331, 26.36611], [91.5321, 26.36516], [91.53189, 26.36499], [91.52892, 26.36266], [91.52766, 26.36167], [91.52593, 26.35891], [91.52497, 26.35738], [91.52435, 26.3564], [91.524, 26.35585], [91.52353, 26.35477], [91.52327, 26.35417], [91.52312, 26.35383], [91.52292, 26.35337], [91.52204, 26.35136], [91.52187, 26.35096], [91.52155, 26.35021], [91.52093, 26.34875], [91.52077, 26.34728], [91.52031, 26.34305], [91.52026, 26.34255], [91.52061, 26.34198], [91.52174, 26.34014], [91.52184, 26.33998], [91.52187, 26.33993], [91.52258, 26.33879], [91.5247, 26.33819], [91.52628, 26.33774], [91.52835, 26.33716], [91.53325, 26.33665], [91.5342, 26.33536], [91.53538, 26.33374], [91.5314, 26.3328], [91.53084, 26.33267], [91.53026, 26.33254], [91.52685, 26.32999], [91.52656, 26.3299], [91.52613, 26.32977], [91.52565, 26.3296], [91.52055, 26.32797], [91.51891, 26.32744], [91.51481, 26.32745], [91.51286, 26.32745], [91.51258, 26.32736], [91.51142, 26.32701], [91.50921, 26.32633], [91.50693, 26.32194], [91.50285, 26.32193], [91.49991, 26.32277], [91.49847, 26.32318], [91.49723, 26.32227], [91.49391, 26.31975], [91.49313, 26.31916], [91.48904, 26.31882], [91.48818, 26.31875], [91.48789, 26.31873], [91.48597, 26.31857], [91.48334, 26.31835], [91.48096, 26.31815], [91.47991, 26.31807], [91.47951, 26.31803], [91.47697, 26.31802], [91.47675, 26.31802], [91.47222, 26.31807], [91.47212, 26.31807], [91.47174, 26.31807], [91.47021, 26.31809], [91.47, 26.31809], [91.46704, 26.31813], [91.4664, 26.31692], [91.46618, 26.31629], [91.46333, 26.31114], [91.4633, 26.31095], [91.46253, 26.30947], [91.46138, 26.30685], [91.45377, 26.28817], [91.45365, 26.28218], [91.45346, 26.27308], [91.45337, 26.2689], [91.45321, 26.26109], [91.45319, 26.26012], [91.45319, 26.26004], [91.45317, 26.25869], [91.45305, 26.2532], [91.45311, 26.25172], [91.45333, 26.24622], [91.4559, 26.24029], [91.45588, 26.23977], [91.45582, 26.23778], [91.45534, 26.22298], [91.45505, 26.21413], [91.45485, 26.20786], [91.455, 26.20403], [91.45518, 26.19945], [91.45519, 26.19922], [91.45521, 26.19887], [91.45521, 26.19876], [91.45216, 26.18476], [91.44728, 26.16234], [91.4334, 26.15216], [91.43106, 26.15044], [91.41303, 26.14702], [91.40384, 26.14666], [91.40159, 26.14783], [91.39825, 26.15171], [91.39501, 26.15874], [91.39203, 26.16788], [91.38987, 26.17451], [91.38734, 26.1773], [91.38464, 26.17856], [91.3759, 26.17929], [91.36934, 26.17998], [91.36909, 26.18001], [91.36839, 26.18042], [91.36652, 26.18078], [91.36598, 26.18089], [91.3657, 26.18095], [91.36343, 26.18313], [91.36116, 26.18381], [91.36031, 26.18363], [91.35961, 26.18349], [91.35742, 26.18226], [91.35336, 26.18015], [91.35026, 26.17917], [91.34982, 26.1792], [91.34694, 26.17938], [91.34466, 26.18152], [91.34351, 26.18131], [91.34208, 26.18049], [91.34054, 26.17881], [91.33833, 26.17569], [91.33625, 26.1738], [91.33458, 26.17318], [91.33408, 26.17304], [91.33246, 26.17257], [91.33007, 26.17188], [91.32543, 26.17134], [91.321, 26.1695], [91.31628, 26.1667], [91.31563, 26.1662], [91.308, 26.17284], [91.30139, 26.18036], [91.30053, 26.18135], [91.29629, 26.18835], [91.29236, 26.18715], [91.28194, 26.18342], [91.27607, 26.18215], [91.27244, 26.18174], [91.26722, 26.18059], [91.26575, 26.18027], [91.26153, 26.17974], [91.25582, 26.18039], [91.25182, 26.18153], [91.25053, 26.18193], [91.24098, 26.17986], [91.23653, 26.17463], [91.23156, 26.17723], [91.23569, 26.18237], [91.22709, 26.18012], [91.22118, 26.17929], [91.21468, 26.17837], [91.18908, 26.17476], [91.18874, 26.17471], [91.18267, 26.17386], [91.17033, 26.17045], [91.16711, 26.16957], [91.16451, 26.16821], [91.16018, 26.16595], [91.15539, 26.16345], [91.14792, 26.15956], [91.13259, 26.15855], [91.13095, 26.158], [91.12726, 26.15674], [91.12325, 26.15538], [91.1181, 26.15362], [91.11608, 26.15466], [91.11542, 26.155], [91.11508, 26.15518], [91.11433, 26.15556], [91.11307, 26.15621], [91.11266, 26.15642], [91.11223, 26.15664], [91.10958, 26.158], [91.10781, 26.15892], [91.10523, 26.16025], [91.10455, 26.1606], [91.10287, 26.16145], [91.10196, 26.16193], [91.10161, 26.16201], [91.09862, 26.16269], [91.0957, 26.16336], [91.09288, 26.16401], [91.0828, 26.16013], [91.07709, 26.15706], [91.07563, 26.15628], [91.07428, 26.15501], [91.07186, 26.15274], [91.06549, 26.14677], [91.06487, 26.14618], [91.05942, 26.14106], [91.05778, 26.13952], [91.05463, 26.1358], [91.05424, 26.13535], [91.054, 26.1336], [91.05369, 26.13133], [91.05285, 26.13055], [91.05137, 26.12918], [91.05067, 26.12854], [91.04998, 26.1285], [91.04753, 26.12838], [91.04483, 26.12825], [91.04469, 26.12824], [91.04131, 26.1267], [91.03889, 26.12559], [91.03811, 26.12524], [91.03639, 26.12375], [91.03568, 26.12314], [91.03324, 26.12102], [91.02692, 26.11963], [91.02548, 26.12045], [91.02541, 26.12049], [91.02342, 26.12161], [91.02148, 26.12272], [91.02033, 26.12337], [91.01969, 26.12366], [91.01844, 26.12421], [91.01454, 26.12594], [91.01283, 26.1267], [91.01195, 26.12709], [91.0085, 26.12863], [91.00813, 26.12879], [91.00417, 26.12958], [90.99909, 26.12722], [90.99079, 26.12442], [90.98624, 26.12022], [90.97472, 26.11168], [90.97114, 26.1073], [90.96948, 26.10608], [90.96854, 26.10539], [90.96851, 26.10537], [90.9611, 26.09994], [90.95825, 26.09785], [90.95726, 26.09712], [90.95246, 26.0952], [90.95083, 26.09506], [90.94421, 26.0945], [90.93806, 26.09399], [90.93818, 26.09274], [90.93818, 26.09271], [90.93824, 26.09217], [90.93871, 26.09177], [90.93979, 26.09084], [90.94256, 26.08846], [90.94513, 26.08905], [90.9463, 26.08931], [90.94642, 26.08934], [90.94656, 26.08937], [90.9478, 26.08966], [90.95, 26.08564], [90.95007, 26.0855], [90.95102, 26.08376], [90.95242, 26.08119], [90.96018, 26.08207], [90.96022, 26.08036], [90.96176, 26.07792], [90.96337, 26.07536], [90.96681, 26.07252], [90.96763, 26.07185], [90.9711, 26.06899], [90.97145, 26.06869], [90.97178, 26.06842], [90.97374, 26.0668], [90.97803, 26.06328], [90.98033, 26.06138], [90.98321, 26.06079], [90.98495, 26.06043], [90.98597, 26.06022], [90.98824, 26.05763], [90.99355, 26.05709], [90.99401, 26.05692], [90.99478, 26.05663], [90.99806, 26.05538], [90.99824, 26.05531], [90.999, 26.05502], [91.00213, 26.05397], [91.00495, 26.05302], [91.01023, 26.05289], [91.01192, 26.05285], [91.01718, 26.04815], [91.02019, 26.04602], [91.02128, 26.04524], [91.02223, 26.04457], [91.02245, 26.04442], [91.02601, 26.04189], [91.0284, 26.0402], [91.02874, 26.03996], [91.03319, 26.04171], [91.03345, 26.04182], [91.03386, 26.04207], [91.03581, 26.04324], [91.03881, 26.04505], [91.0391, 26.0449], [91.04111, 26.04389], [91.04315, 26.04287], [91.04449, 26.0422], [91.04681, 26.04164], [91.04841, 26.04126], [91.04903, 26.04111], [91.04941, 26.04102], [91.05008, 26.04086], [91.0517, 26.04047], [91.05285, 26.04136], [91.0542, 26.0424], [91.05435, 26.04251], [91.0558, 26.04363], [91.0573, 26.04479], [91.06023, 26.04461], [91.06201, 26.0445], [91.06401, 26.04438], [91.06448, 26.04435], [91.06467, 26.04434], [91.06816, 26.04413], [91.06926, 26.0418], [91.06954, 26.0412], [91.07033, 26.03951], [91.07071, 26.0387], [91.07076, 26.03859], [91.07097, 26.03815], [91.07166, 26.03668], [91.07112, 26.03656], [91.07077, 26.03508], [91.0707, 26.03481], [91.07035, 26.03191], [91.07024, 26.02836], [91.07019, 26.02677], [91.07017, 26.02617], [91.07001, 26.02533], [91.07276, 26.02587], [91.07307, 26.02602], [91.07412, 26.02607], [91.0743, 26.02614], [91.07468, 26.02628], [91.0755, 26.02646], [91.07623, 26.02662], [91.0766, 26.02665], [91.0768, 26.02666], [91.07863, 26.02679], [91.08051, 26.0265], [91.08104, 26.02642], [91.0823, 26.02625], [91.08404, 26.02601], [91.0867, 26.02565], [91.08774, 26.02551], [91.08804, 26.02546], [91.09068, 26.02515], [91.09072, 26.02515], [91.09072, 26.02498], [91.09072, 26.0245], [91.09071, 26.02391], [91.09112, 26.02293], [91.09238, 26.01998], [91.09411, 26.01658], [91.09583, 26.01319], [91.09586, 26.01313], [91.09637, 26.01212], [91.09673, 26.01182], [91.09875, 26.01017], [91.09885, 26.01009], [91.09964, 26.00945], [91.09957, 26.00502], [91.09655, 26.00343], [91.09452, 26.00236], [91.09429, 26.00224], [91.09419, 26.00219], [91.09126, 26.00064], [91.09091, 26.00045], [91.09086, 26.00023], [91.09021, 25.99733], [91.0901, 25.99684], [91.08894, 25.99167], [91.08855, 25.98995], [91.08811, 25.98798], [91.08799, 25.98745], [91.08786, 25.98688], [91.08686, 25.9824], [91.08669, 25.98226], [91.08621, 25.98188], [91.08612, 25.9818], [91.0855, 25.98129], [91.08314, 25.97938], [91.08302, 25.97928], [91.083, 25.97926], [91.08251, 25.97384], [91.08098, 25.97323], [91.07739, 25.9718], [91.07684, 25.97158], [91.07613, 25.9713], [91.07494, 25.97012], [91.07256, 25.96736], [91.06987, 25.96424], [91.0677, 25.96254], [91.06719, 25.96191], [91.06346, 25.95735], [91.0609, 25.9543], [91.05832, 25.95119], [91.05816, 25.95099], [91.05767, 25.9504], [91.05717, 25.94979], [91.05577, 25.94811], [91.05156, 25.94301], [91.05048, 25.94171], [91.05006, 25.9412], [91.05179, 25.93943], [91.05367, 25.9375], [91.05291, 25.93352], [91.04824, 25.92926], [91.0469, 25.92804], [91.04408, 25.92355], [91.04327, 25.92227], [91.04274, 25.92143], [91.04073, 25.91508], [91.03884, 25.90913], [91.03672, 25.90532], [91.03554, 25.90321], [91.03506, 25.90235], [91.03395, 25.89938], [91.03346, 25.89807], [91.03199, 25.89413], [91.03164, 25.89092], [91.03163, 25.89082], [91.03129, 25.88771]]]}}]}