{"type": "FeatureCollection", "features": [{"type": "Feature", "properties": {"Name": "Kamrup Metropolitan"}, "geometry": {"type": "Polygon", "coordinates": [[[91.95482, 26.25392], [91.94992, 26.25154], [91.94823, 26.25025], [91.94643, 26.24887], [91.94569, 26.24831], [91.94489, 26.2477], [91.94051, 26.24525], [91.93546, 26.24243], [91.93396, 26.24159], [91.93042, 26.24274], [91.92765, 26.24456], [91.9255, 26.24597], [91.92127, 26.24368], [91.91916, 26.24253], [91.91879, 26.24233], [91.91867, 26.24227], [91.91804, 26.24193], [91.91579, 26.24071], [91.91551, 26.23958], [91.91507, 26.23782], [91.9147, 26.23633], [91.91402, 26.2336], [91.91124, 26.23144], [91.90993, 26.23042], [91.90369, 26.22556], [91.90364, 26.22552], [91.90272, 26.2252], [91.901, 26.2246], [91.89785, 26.22349], [91.89632, 26.2231], [91.89394, 26.22231], [91.89331, 26.2221], [91.89211, 26.2217], [91.89198, 26.22166], [91.89195, 26.22154], [91.8915, 26.21988], [91.8913, 26.21914], [91.88672, 26.21809], [91.88284, 26.2172], [91.88212, 26.21703], [91.88073, 26.21671], [91.87673, 26.21579], [91.87569, 26.21617], [91.87551, 26.21624], [91.87203, 26.21753], [91.87008, 26.21825], [91.86839, 26.21888], [91.86733, 26.21873], [91.86641, 26.21848], [91.85641, 26.21579], [91.85131, 26.21531], [91.84394, 26.2146], [91.84328, 26.21454], [91.83744, 26.21169], [91.82971, 26.21018], [91.82916, 26.20999], [91.82871, 26.20984], [91.82528, 26.20866], [91.82388, 26.20818], [91.82359, 26.20808], [91.82125, 26.20727], [91.82026, 26.20693], [91.81863, 26.20637], [91.81722, 26.20588], [91.81241, 26.20721], [91.81217, 26.20715], [91.81164, 26.20702], [91.811, 26.20687], [91.80944, 26.20649], [91.80569, 26.20558], [91.80501, 26.20541], [91.80428, 26.20523], [91.80332, 26.205], [91.80007, 26.20421], [91.79891, 26.20392], [91.79856, 26.20384], [91.79829, 26.20377], [91.79659, 26.20335], [91.79517, 26.203], [91.79254, 26.20236], [91.79043, 26.2017], [91.78019, 26.19852], [91.77867, 26.19804], [91.77848, 26.19798], [91.77839, 26.19795], [91.77691, 26.19813], [91.77504, 26.19835], [91.77465, 26.1984], [91.77408, 26.19847], [91.77383, 26.1985], [91.77241, 26.19867], [91.7717, 26.19876], [91.77041, 26.19891], [91.76966, 26.199], [91.76375, 26.19971], [91.76361, 26.19988], [91.76054, 26.2001], [91.76004, 26.20047], [91.75993, 26.19989], [91.75805, 26.20022], [91.75577, 26.20137], [91.75363, 26.20179], [91.75083, 26.20129], [91.74461, 26.19744], [91.74307, 26.19569], [91.74037, 26.19128], [91.7364, 26.18662], [91.73531, 26.18526], [91.73442, 26.18428], [91.7306, 26.18169], [91.73008, 26.18224], [91.72684, 26.18551], [91.72603, 26.18632], [91.72417, 26.18819], [91.72407, 26.18703], [91.72413, 26.18688], [91.7242, 26.18674], [91.72417, 26.18657], [91.72394, 26.18641], [91.72363, 26.18639], [91.72339, 26.18648], [91.72311, 26.18664], [91.72282, 26.18665], [91.72252, 26.18656], [91.72212, 26.18641], [91.7218, 26.18608], [91.72161, 26.18566], [91.72153, 26.1855], [91.72154, 26.1852], [91.7215, 26.1849], [91.72128, 26.18482], [91.72084, 26.18473], [91.72041, 26.18466], [91.72045, 26.18483], [91.72046, 26.18499], [91.72028, 26.18506], [91.7195, 26.18486], [91.71922, 26.18481], [91.71886, 26.18473], [91.71829, 26.18457], [91.71663, 26.18418], [91.71466, 26.18378], [91.71371, 26.18359], [91.71308, 26.18347], [91.71235, 26.18334], [91.71132, 26.18318], [91.71018, 26.18302], [91.70852, 26.18284], [91.70799, 26.18281], [91.70745, 26.1828], [91.70642, 26.18273], [91.7064, 26.18273], [91.70525, 26.18268], [91.70429, 26.1826], [91.70342, 26.18248], [91.70195, 26.18157], [91.70114, 26.18146], [91.69829, 26.18144], [91.69827, 26.18143], [91.69769, 26.18132], [91.69435, 26.18155], [91.69061, 26.1819], [91.68803, 26.18186], [91.68639, 26.18157], [91.68587, 26.18192], [91.68559, 26.18189], [91.68501, 26.18165], [91.68433, 26.18116], [91.68401, 26.18076], [91.6839, 26.18046], [91.68421, 26.1802], [91.68426, 26.18002], [91.68423, 26.17981], [91.68412, 26.17968], [91.68401, 26.17952], [91.68384, 26.17941], [91.68365, 26.17938], [91.68353, 26.17944], [91.68335, 26.17957], [91.68302, 26.17976], [91.68263, 26.18005], [91.68237, 26.18012], [91.6822, 26.1801], [91.68209, 26.18002], [91.6821, 26.17987], [91.68206, 26.17977], [91.68189, 26.17963], [91.68167, 26.17958], [91.6817, 26.17945], [91.68162, 26.17945], [91.68134, 26.17953], [91.68102, 26.17961], [91.68067, 26.1797], [91.68042, 26.17981], [91.68033, 26.17991], [91.68007, 26.17999], [91.67951, 26.18011], [91.67758, 26.1802], [91.6763, 26.18024], [91.67539, 26.1803], [91.6719, 26.18073], [91.67184, 26.18073], [91.67052, 26.18066], [91.6676, 26.18111], [91.66551, 26.18137], [91.66146, 26.18192], [91.66128, 26.18197], [91.66112, 26.18201], [91.66092, 26.18216], [91.6603, 26.18221], [91.65924, 26.1824], [91.65803, 26.18274], [91.65685, 26.18321], [91.65591, 26.1836], [91.65318, 26.18486], [91.65157, 26.18561], [91.65115, 26.18575], [91.65041, 26.18593], [91.64965, 26.18597], [91.64834, 26.18634], [91.64756, 26.18658], [91.64593, 26.18768], [91.64499, 26.18803], [91.64444, 26.18833], [91.64411, 26.18859], [91.64377, 26.18893], [91.64465, 26.18528], [91.64506, 26.18256], [91.64603, 26.17668], [91.64634, 26.17471], [91.64644, 26.1741], [91.64644, 26.17396], [91.64644, 26.17381], [91.64643, 26.17336], [91.64645, 26.17277], [91.64641, 26.17199], [91.64646, 26.17125], [91.64648, 26.16822], [91.64637, 26.16553], [91.64692, 26.16449], [91.64666, 26.16425], [91.64734, 26.16427], [91.64765, 26.16427], [91.64798, 26.16431], [91.64823, 26.16441], [91.64863, 26.16453], [91.64888, 26.16455], [91.64901, 26.16452], [91.6491, 26.16448], [91.64921, 26.16442], [91.6493, 26.1643], [91.64938, 26.16406], [91.64935, 26.16366], [91.6494, 26.16334], [91.64952, 26.16305], [91.6496, 26.16281], [91.64958, 26.16261], [91.64947, 26.16245], [91.64928, 26.16234], [91.64903, 26.16234], [91.64884, 26.16231], [91.64868, 26.16221], [91.64856, 26.16208], [91.6485, 26.16193], [91.6484, 26.16138], [91.64801, 26.16049], [91.64789, 26.16005], [91.64784, 26.15952], [91.6477, 26.15929], [91.64735, 26.15876], [91.6473, 26.15868], [91.64697, 26.15816], [91.64688, 26.15786], [91.64672, 26.15747], [91.64664, 26.15727], [91.64649, 26.15712], [91.64629, 26.15693], [91.64608, 26.15665], [91.64604, 26.15645], [91.64608, 26.1561], [91.64605, 26.15593], [91.64597, 26.15577], [91.6456, 26.15549], [91.64536, 26.1552], [91.64533, 26.15506], [91.64529, 26.15487], [91.645, 26.15422], [91.64467, 26.15371], [91.64428, 26.15331], [91.64405, 26.15301], [91.64378, 26.15238], [91.64358, 26.15203], [91.64327, 26.15162], [91.64258, 26.15071], [91.6417, 26.14956], [91.64143, 26.14921], [91.64053, 26.14797], [91.64018, 26.14758], [91.63955, 26.14686], [91.63914, 26.14646], [91.63861, 26.14594], [91.63808, 26.14558], [91.63775, 26.14528], [91.63757, 26.14508], [91.63742, 26.14484], [91.63741, 26.14449], [91.63726, 26.14426], [91.63696, 26.14402], [91.63679, 26.14391], [91.63667, 26.14374], [91.63658, 26.14351], [91.63636, 26.14335], [91.63593, 26.14307], [91.63542, 26.14255], [91.63517, 26.14228], [91.6351, 26.14219], [91.63499, 26.14206], [91.63495, 26.14187], [91.635, 26.14167], [91.635, 26.14135], [91.63493, 26.14111], [91.63486, 26.1408], [91.63489, 26.14061], [91.63495, 26.14046], [91.63498, 26.14029], [91.63495, 26.14014], [91.6349, 26.13994], [91.63483, 26.13964], [91.6348, 26.13936], [91.63481, 26.13912], [91.63491, 26.13898], [91.63503, 26.13895], [91.63518, 26.13895], [91.63532, 26.13902], [91.63542, 26.13916], [91.63556, 26.13943], [91.63567, 26.13953], [91.6358, 26.1396], [91.63616, 26.1397], [91.6365, 26.13974], [91.6367, 26.13969], [91.63687, 26.13949], [91.63699, 26.13936], [91.63724, 26.13894], [91.63765, 26.13829], [91.63778, 26.13817], [91.63798, 26.13814], [91.63835, 26.13816], [91.63848, 26.1381], [91.63858, 26.13797], [91.63882, 26.13742], [91.63905, 26.13713], [91.63941, 26.13674], [91.6395, 26.13659], [91.63961, 26.13641], [91.63984, 26.13618], [91.64004, 26.13606], [91.64032, 26.13587], [91.64036, 26.13578], [91.64034, 26.13569], [91.64023, 26.13558], [91.63975, 26.13531], [91.63961, 26.13518], [91.63952, 26.13508], [91.63935, 26.13489], [91.63911, 26.13474], [91.63905, 26.13463], [91.63909, 26.1345], [91.63919, 26.13437], [91.63945, 26.13399], [91.63961, 26.13376], [91.63964, 26.13364], [91.63961, 26.13352], [91.6395, 26.13345], [91.63938, 26.13339], [91.63923, 26.13331], [91.63911, 26.13318], [91.63895, 26.13291], [91.63882, 26.13278], [91.63868, 26.13265], [91.63867, 26.13254], [91.63874, 26.13241], [91.639, 26.1321], [91.63903, 26.13207], [91.63916, 26.13186], [91.63918, 26.13171], [91.63909, 26.13135], [91.63898, 26.1311], [91.63898, 26.13094], [91.63905, 26.13077], [91.63908, 26.13062], [91.63905, 26.13044], [91.63891, 26.13005], [91.63884, 26.1298], [91.63861, 26.12873], [91.63856, 26.12863], [91.63846, 26.12854], [91.63796, 26.12826], [91.63858, 26.12793], [91.63881, 26.12792], [91.63906, 26.1279], [91.63931, 26.1279], [91.63955, 26.1279], [91.6398, 26.1279], [91.64004, 26.12792], [91.64028, 26.12794], [91.64053, 26.12797], [91.64077, 26.128], [91.64101, 26.12804], [91.64385, 26.12859], [91.64451, 26.12868], [91.64609, 26.12889], [91.64827, 26.12907], [91.65015, 26.1294], [91.65112, 26.12952], [91.65159, 26.12956], [91.65171, 26.12996], [91.65189, 26.13], [91.65197, 26.13037], [91.65236, 26.13069], [91.65236, 26.13083], [91.65236, 26.13162], [91.65236, 26.13186], [91.65233, 26.13241], [91.6528, 26.13207], [91.65337, 26.13154], [91.65474, 26.13047], [91.65551, 26.12987], [91.65582, 26.12961], [91.65615, 26.12941], [91.6567, 26.12917], [91.65689, 26.12909], [91.65759, 26.12866], [91.65827, 26.12812], [91.65873, 26.12799], [91.66053, 26.12749], [91.66185, 26.12764], [91.66276, 26.12831], [91.66292, 26.12842], [91.66323, 26.12898], [91.66334, 26.12913], [91.66362, 26.12994], [91.66573, 26.13007], [91.66579, 26.13006], [91.66583, 26.13004], [91.66586, 26.12932], [91.66606, 26.12847], [91.66628, 26.12736], [91.66657, 26.12588], [91.66754, 26.12493], [91.66799, 26.12449], [91.66897, 26.12382], [91.66988, 26.12309], [91.67259, 26.12138], [91.67306, 26.12108], [91.675, 26.12065], [91.67538, 26.12057], [91.67636, 26.12035], [91.67635, 26.11824], [91.6765, 26.11751], [91.67653, 26.11739], [91.6767, 26.11654], [91.67685, 26.11586], [91.67694, 26.11578], [91.67695, 26.11576], [91.67727, 26.11532], [91.6776, 26.11486], [91.6782, 26.11401], [91.67826, 26.11392], [91.67818, 26.11393], [91.67729, 26.11399], [91.67571, 26.1141], [91.67291, 26.1143], [91.67263, 26.11432], [91.67239, 26.11434], [91.66475, 26.11493], [91.64856, 26.11782], [91.64833, 26.11786], [91.64792, 26.11793], [91.64748, 26.11801], [91.6453, 26.1184], [91.63922, 26.12065], [91.63251, 26.1231], [91.62449, 26.12613], [91.62436, 26.12617], [91.62336, 26.12655], [91.62275, 26.12678], [91.62239, 26.12691], [91.62113, 26.12738], [91.621, 26.12743], [91.61985, 26.1278], [91.61971, 26.12784], [91.61722, 26.12862], [91.61538, 26.1292], [91.60778, 26.13159], [91.60611, 26.13141], [91.60491, 26.13129], [91.60016, 26.13079], [91.59761, 26.1305], [91.59679, 26.13042], [91.59461, 26.1302], [91.58698, 26.12187], [91.58626, 26.11428], [91.58624, 26.11404], [91.58609, 26.11248], [91.58607, 26.11227], [91.58569, 26.10837], [91.58559, 26.10729], [91.58558, 26.10691], [91.58542, 26.10238], [91.5854, 26.10174], [91.58535, 26.10052], [91.58534, 26.10005], [91.58506, 26.09197], [91.58493, 26.09048], [91.58495, 26.08896], [91.58489, 26.08715], [91.58488, 26.08707], [91.58456, 26.085], [91.58449, 26.08453], [91.58251, 26.07191], [91.58224, 26.07019], [91.5816, 26.06611], [91.58142, 26.06493], [91.57963, 26.06006], [91.57842, 26.05676], [91.57694, 26.05271], [91.57391, 26.04445], [91.57378, 26.0441], [91.57352, 26.04382], [91.56662, 26.03639], [91.5657, 26.03541], [91.56475, 26.03438], [91.55958, 26.03384], [91.55156, 26.03299], [91.54253, 26.04201], [91.54162, 26.04315], [91.54096, 26.04397], [91.5397, 26.04555], [91.53698, 26.04896], [91.53073, 26.05451], [91.52349, 26.0495], [91.5217, 26.04826], [91.51787, 26.04149], [91.51584, 26.0379], [91.51462, 26.03574], [91.5137, 26.03411], [91.51305, 26.03297], [91.51264, 26.03224], [91.5073, 26.02278], [91.50702, 26.02228], [91.50664, 26.02161], [91.50492, 26.01856], [91.50416, 26.01723], [91.50365, 26.01632], [91.50329, 26.01412], [91.50298, 26.01224], [91.5021, 26.00687], [91.50173, 26.0046], [91.50146, 26.00299], [91.49923, 25.98943], [91.49835, 25.98409], [91.49762, 25.97966], [91.49748, 25.97879], [91.4964, 25.97225], [91.49541, 25.96623], [91.49434, 25.95971], [91.49404, 25.95791], [91.49365, 25.95551], [91.49343, 25.95417], [91.49309, 25.95209], [91.49178, 25.9441], [91.49168, 25.94352], [91.49124, 25.94086], [91.48698, 25.91494], [91.48709, 25.90719], [91.48712, 25.90554], [91.48713, 25.90489], [91.48719, 25.9002], [91.48724, 25.89698], [91.48725, 25.89618], [91.48729, 25.89353], [91.48731, 25.89214], [91.48791, 25.89258], [91.48857, 25.89306], [91.48895, 25.89334], [91.4895, 25.89374], [91.49005, 25.89415], [91.49207, 25.89448], [91.49443, 25.89487], [91.4962, 25.8939], [91.50011, 25.89176], [91.50081, 25.89171], [91.50476, 25.89144], [91.50456, 25.89206], [91.5045, 25.89224], [91.50446, 25.89236], [91.50361, 25.89491], [91.50282, 25.89728], [91.50266, 25.89776], [91.50416, 25.90005], [91.50552, 25.90213], [91.50598, 25.90282], [91.50765, 25.90538], [91.50817, 25.90617], [91.50895, 25.90737], [91.51005, 25.90904], [91.51188, 25.91028], [91.52629, 25.92005], [91.52698, 25.92036], [91.53282, 25.92298], [91.53447, 25.92667], [91.53628, 25.93073], [91.5374, 25.93326], [91.53632, 25.93256], [91.53436, 25.93129], [91.52578, 25.92577], [91.52321, 25.92411], [91.51836, 25.91929], [91.51228, 25.9147], [91.51041, 25.91386], [91.50854, 25.91301], [91.50782, 25.91268], [91.5071, 25.91236], [91.50532, 25.91335], [91.50486, 25.91361], [91.50316, 25.92004], [91.51783, 25.9376], [91.52132, 25.94016], [91.51974, 25.95206], [91.52005, 25.95742], [91.52536, 25.95867], [91.52741, 25.96058], [91.53396, 25.96149], [91.53871, 25.96136], [91.53884, 25.96764], [91.54803, 25.97293], [91.55048, 25.97434], [91.55279, 25.97413], [91.55631, 25.98561], [91.56163, 25.99334], [91.5666, 26.00058], [91.56687, 26.00097], [91.56694, 26.00107], [91.5673, 26.00203], [91.56766, 26.00299], [91.5667, 26.00674], [91.56816, 26.0086], [91.56836, 26.00886], [91.56867, 26.00926], [91.56911, 26.00982], [91.56963, 26.01049], [91.57016, 26.01118], [91.57069, 26.0135], [91.57128, 26.01606], [91.57126, 26.01618], [91.57091, 26.01811], [91.57073, 26.0191], [91.5706, 26.01978], [91.57054, 26.02013], [91.57039, 26.02096], [91.57048, 26.0214], [91.57129, 26.02515], [91.57154, 26.02629], [91.57162, 26.0267], [91.57212, 26.02718], [91.57216, 26.02722], [91.57261, 26.02766], [91.57429, 26.02928], [91.57435, 26.02934], [91.57441, 26.0294], [91.57476, 26.02974], [91.57676, 26.03168], [91.57744, 26.03229], [91.58029, 26.03193], [91.58068, 26.03188], [91.58107, 26.03183], [91.58534, 26.03124], [91.58568, 26.03119], [91.58746, 26.03038], [91.58971, 26.02936], [91.59255, 26.02517], [91.59299, 26.02452], [91.59305, 26.02444], [91.59395, 26.02312], [91.59486, 26.02177], [91.59588, 26.02027], [91.59612, 26.01992], [91.59861, 26.01625], [91.59836, 26.01999], [91.599, 26.02022], [91.60341, 26.02183], [91.61023, 26.02279], [91.61808, 26.02389], [91.6218, 26.02621], [91.62762, 26.02314], [91.63367, 26.02157], [91.6349, 26.01702], [91.6336, 26.01312], [91.63405, 26.0086], [91.63451, 26.00407], [91.63353, 26.00103], [91.63192, 25.999], [91.6282, 25.99681], [91.63015, 25.99429], [91.62619, 25.98506], [91.62826, 25.98155], [91.62887, 25.97885], [91.62948, 25.97615], [91.63358, 25.96995], [91.63938, 25.96401], [91.63552, 25.95966], [91.63152, 25.9438], [91.62879, 25.94447], [91.62605, 25.94514], [91.61921, 25.94446], [91.61236, 25.94378], [91.61246, 25.94144], [91.61256, 25.93911], [91.62415, 25.93016], [91.63419, 25.92493], [91.64926, 25.91289], [91.65282, 25.90681], [91.65821, 25.90702], [91.66327, 25.90901], [91.66856, 25.90732], [91.67062, 25.90452], [91.67731, 25.91095], [91.67993, 25.91643], [91.68771, 25.92035], [91.69363, 25.92821], [91.70328, 25.93702], [91.70223, 25.94099], [91.70948, 25.94346], [91.71524, 25.94632], [91.71837, 25.94973], [91.72149, 25.95315], [91.72221, 25.95865], [91.72294, 25.96415], [91.72112, 25.97738], [91.72254, 26.00092], [91.72416, 26.01888], [91.72483, 26.02155], [91.72604, 26.02633], [91.72531, 26.02787], [91.72458, 26.0294], [91.72783, 26.04599], [91.73438, 26.05009], [91.73565, 26.05445], [91.73601, 26.05571], [91.73435, 26.057], [91.73269, 26.05829], [91.7579, 26.06907], [91.75804, 26.06913], [91.76087, 26.07034], [91.776, 26.08617], [91.77993, 26.09028], [91.78184, 26.08732], [91.78305, 26.08681], [91.78465, 26.08615], [91.78485, 26.08606], [91.78599, 26.0856], [91.78653, 26.08564], [91.78707, 26.08568], [91.78774, 26.08573], [91.78946, 26.08587], [91.78958, 26.08587], [91.78965, 26.08587], [91.78971, 26.08588], [91.79143, 26.08601], [91.79176, 26.08604], [91.79695, 26.09417], [91.79711, 26.09442], [91.79739, 26.09486], [91.79779, 26.09548], [91.79894, 26.09728], [91.79896, 26.0973], [91.79898, 26.09734], [91.79978, 26.09859], [91.80025, 26.09933], [91.80053, 26.09977], [91.80213, 26.10228], [91.80319, 26.10395], [91.80326, 26.10394], [91.80526, 26.10358], [91.80946, 26.10282], [91.81168, 26.1039], [91.81221, 26.10416], [91.81696, 26.11043], [91.81749, 26.11146], [91.8178, 26.11207], [91.81978, 26.11499], [91.82023, 26.11566], [91.82072, 26.11774], [91.82084, 26.11773], [91.82453, 26.11741], [91.82593, 26.11729], [91.82794, 26.11713], [91.8292, 26.11651], [91.83526, 26.11349], [91.83543, 26.11338], [91.83561, 26.11327], [91.8357, 26.11319], [91.83601, 26.11305], [91.83646, 26.11288], [91.83662, 26.11284], [91.83699, 26.1127], [91.83807, 26.11217], [91.83827, 26.11205], [91.83979, 26.11132], [91.84011, 26.11116], [91.84033, 26.11106], [91.84129, 26.11055], [91.84136, 26.11047], [91.84174, 26.11031], [91.84195, 26.11022], [91.84254, 26.10997], [91.84734, 26.10751], [91.84943, 26.10657], [91.85517, 26.10375], [91.85846, 26.1024], [91.86213, 26.10089], [91.86602, 26.09928], [91.8664, 26.09918], [91.87281, 26.09768], [91.8732, 26.09758], [91.87534, 26.09708], [91.8771, 26.09666], [91.87709, 26.09635], [91.87697, 26.09356], [91.87697, 26.09341], [91.87685, 26.09094], [91.87684, 26.09083], [91.87676, 26.08903], [91.87658, 26.08649], [91.87657, 26.08643], [91.87652, 26.08611], [91.87651, 26.08576], [91.87657, 26.08528], [91.87656, 26.08446], [91.87654, 26.08397], [91.87652, 26.08349], [91.87414, 26.07234], [91.87402, 26.07176], [91.87395, 26.0715], [91.87262, 26.06525], [91.87255, 26.0649], [91.87205, 26.06262], [91.87197, 26.06217], [91.87186, 26.06164], [91.87174, 26.06108], [91.87061, 26.05579], [91.87087, 26.05366], [91.87102, 26.05239], [91.8716, 26.05113], [91.87263, 26.04904], [91.87458, 26.04573], [91.87564, 26.04392], [91.8758, 26.04365], [91.87607, 26.04319], [91.87701, 26.04158], [91.88329, 26.03088], [91.88387, 26.0299], [91.88444, 26.02892], [91.8873, 26.02877], [91.89315, 26.02846], [91.89594, 26.02743], [91.90211, 26.02517], [91.90575, 26.02563], [91.90863, 26.026], [91.91163, 26.02364], [91.91223, 26.02318], [91.91282, 26.02272], [91.91812, 26.02034], [91.91809, 26.01839], [91.91803, 26.01483], [91.91799, 26.01264], [91.91679, 26.00921], [91.9181, 26.00788], [91.91984, 26.00612], [91.91991, 26.00566], [91.91998, 26.00519], [91.92066, 26.00047], [91.9207, 25.99901], [91.92321, 25.9984], [91.92695, 25.99861], [91.92793, 26.00049], [91.92897, 26.00238], [91.93132, 26.00666], [91.93367, 26.01095], [91.93508, 26.01353], [91.9355, 26.01349], [91.9424, 26.01285], [91.94557, 26.01317], [91.947, 26.01331], [91.94743, 26.01335], [91.95048, 26.015], [91.95352, 26.01665], [91.95621, 26.01719], [91.95891, 26.01773], [91.95987, 26.01806], [91.96834, 26.02095], [91.97926, 26.02467], [91.98003, 26.02527], [91.98373, 26.02812], [91.98532, 26.02935], [91.98538, 26.02951], [91.98553, 26.0299], [91.98849, 26.03753], [91.9906, 26.03886], [91.99215, 26.03984], [91.99871, 26.03764], [92.00031, 26.03715], [92.00152, 26.03729], [92.00226, 26.037], [92.00446, 26.03681], [92.00545, 26.03711], [92.00923, 26.03823], [92.01867, 26.03836], [92.0222, 26.03811], [92.02324, 26.03803], [92.02491, 26.0372], [92.02893, 26.03867], [92.03578, 26.03845], [92.03601, 26.0384], [92.03713, 26.03816], [92.0374, 26.03791], [92.04064, 26.03497], [92.04582, 26.0334], [92.05119, 26.03178], [92.05386, 26.03157], [92.06419, 26.03344], [92.06765, 26.03493], [92.06968, 26.03581], [92.07145, 26.03657], [92.07303, 26.03778], [92.07419, 26.03868], [92.07461, 26.039], [92.07722, 26.03974], [92.07982, 26.04049], [92.08211, 26.04233], [92.08477, 26.04339], [92.09431, 26.04721], [92.10418, 26.04796], [92.10984, 26.04839], [92.11351, 26.0468], [92.11717, 26.04522], [92.12196, 26.0441], [92.12431, 26.04355], [92.1259, 26.04399], [92.12795, 26.04455], [92.12916, 26.04455], [92.13283, 26.04454], [92.13404, 26.04454], [92.13908, 26.05147], [92.1447, 26.05628], [92.14714, 26.0572], [92.1499, 26.06026], [92.15068, 26.0619], [92.15145, 26.06353], [92.1556, 26.06669], [92.16266, 26.07135], [92.16768, 26.07467], [92.17001, 26.07621], [92.17462, 26.07716], [92.17874, 26.07801], [92.17923, 26.07811], [92.17472, 26.08192], [92.1691, 26.09188], [92.16923, 26.09368], [92.17086, 26.09689], [92.17307, 26.10126], [92.17252, 26.10497], [92.172, 26.10845], [92.17173, 26.11026], [92.17166, 26.11075], [92.17164, 26.11087], [92.17162, 26.11095], [92.17161, 26.11106], [92.1716, 26.11116], [92.17093, 26.11563], [92.16966, 26.11802], [92.16938, 26.11911], [92.16923, 26.1197], [92.16874, 26.12162], [92.16827, 26.12345], [92.167, 26.12843], [92.16623, 26.13146], [92.16598, 26.13246], [92.16564, 26.13379], [92.16449, 26.14331], [92.16388, 26.1484], [92.16723, 26.15522], [92.16801, 26.15681], [92.16824, 26.15726], [92.16825, 26.15734], [92.16846, 26.15874], [92.16871, 26.16042], [92.16919, 26.16357], [92.16772, 26.16359], [92.16675, 26.1636], [92.16479, 26.16362], [92.16393, 26.16363], [92.16035, 26.16617], [92.15991, 26.16648], [92.15821, 26.16706], [92.15741, 26.16734], [92.15608, 26.16671], [92.15561, 26.16649], [92.15545, 26.16561], [92.15501, 26.16307], [92.1529, 26.16141], [92.15203, 26.16166], [92.15173, 26.16175], [92.15134, 26.16186], [92.15032, 26.16216], [92.14863, 26.16265], [92.14829, 26.16275], [92.14276, 26.16681], [92.14198, 26.16739], [92.14091, 26.16818], [92.13339, 26.17369], [92.13268, 26.17652], [92.13239, 26.17765], [92.13091, 26.17857], [92.13077, 26.17865], [92.12982, 26.17863], [92.12796, 26.17861], [92.12543, 26.17857], [92.1238, 26.17854], [92.11699, 26.17644], [92.1168, 26.17638], [92.11608, 26.17616], [92.11595, 26.17606], [92.11356, 26.17423], [92.11185, 26.17293], [92.11111, 26.17236], [92.11022, 26.17168], [92.10969, 26.17127], [92.10849, 26.17166], [92.10745, 26.17199], [92.10549, 26.17262], [92.10187, 26.17378], [92.09471, 26.17609], [92.08413, 26.17725], [92.0827, 26.17745], [92.08299, 26.17769], [92.0835, 26.17803], [92.08507, 26.17843], [92.09292, 26.1829], [92.09457, 26.18496], [92.09437, 26.18543], [92.09328, 26.18799], [92.09319, 26.18802], [92.09123, 26.18868], [92.08518, 26.18512], [92.0846, 26.18529], [92.08312, 26.18573], [92.08269, 26.18585], [92.0819, 26.18763], [92.07927, 26.19361], [92.07844, 26.19493], [92.07836, 26.19511], [92.07458, 26.19618], [92.07415, 26.19628], [92.07291, 26.19655], [92.06865, 26.19652], [92.06646, 26.19651], [92.06572, 26.1965], [92.06458, 26.19649], [92.06448, 26.19649], [92.06223, 26.19738], [92.05935, 26.20051], [92.05725, 26.2028], [92.05249, 26.20798], [92.04905, 26.21171], [92.04797, 26.21289], [92.04734, 26.21358], [92.04712, 26.20439], [92.04486, 26.19955], [92.04404, 26.19956], [92.04256, 26.19959], [92.04175, 26.1996], [92.0396, 26.20154], [92.03949, 26.20175], [92.03779, 26.20498], [92.03767, 26.20506], [92.03583, 26.20626], [92.03331, 26.20791], [92.03167, 26.20803], [92.03069, 26.2075], [92.02954, 26.20689], [92.02799, 26.20518], [92.02461, 26.20147], [92.02309, 26.20123], [92.02168, 26.20168], [92.02155, 26.20177], [92.02131, 26.20192], [92.01777, 26.2041], [92.01584, 26.20544], [92.01565, 26.20542], [92.00939, 26.20464], [92.00707, 26.20384], [92.00416, 26.20344], [92.00043, 26.20427], [91.99874, 26.20465], [91.98934, 26.2105], [91.98731, 26.21176], [91.97781, 26.21766], [91.9776, 26.21779], [91.97105, 26.22276], [91.96831, 26.22483], [91.96079, 26.22793], [91.96014, 26.22879], [91.95986, 26.22916], [91.95961, 26.2295], [91.95799, 26.23166], [91.9571, 26.23545], [91.95735, 26.23896], [91.95868, 26.24273], [91.95908, 26.24386], [91.95909, 26.24389], [91.95892, 26.24674], [91.95884, 26.24803], [91.95531, 26.25319], [91.95482, 26.25392]]]}}]}