{"type": "FeatureCollection", "features": [{"type": "Feature", "properties": {"Name": "Karbi Anglong West"}, "geometry": {"type": "MultiPolygon", "coordinates": [[[[92.16477, 25.68342], [92.16535, 25.68004], [92.16587, 25.67698], [92.16585394300006, 25.676963424000064], [92.16585772500008, 25.67694027400006], [92.16096899500008, 25.671794242000033], [92.16101309316888, 25.671088662299045], [92.16105476200005, 25.67042196700004], [92.16230177600005, 25.66962031500003], [92.16487, 25.66789], [92.16601, 25.66726], [92.16995633100004, 25.66507712600003], [92.17006140400008, 25.665019006000023], [92.17015, 25.66497], [92.17134, 25.66544], [92.17137531825846, 25.665469490745807], [92.17393402800008, 25.667606013000068], [92.17534, 25.66878], [92.18517, 25.67968], [92.18561789700004, 25.680010181000057], [92.19248844000003, 25.684787972000038], [92.19437531800008, 25.684573554000053], [92.19600224300007, 25.685107768000023], [92.19729, 25.68549], [92.19868, 25.68488], [92.19990082600003, 25.685521451000056], [92.20059343900004, 25.685860062000074], [92.2012931853547, 25.687209572969696], [92.20192, 25.68825], [92.211, 25.69443], [92.21259, 25.69644], [92.21305, 25.69702], [92.2253, 25.71247], [92.22599873100006, 25.712853617000064], [92.22938, 25.71471], [92.2329, 25.71363], [92.233, 25.7136], [92.23401514167163, 25.709327945465212], [92.23417129700005, 25.708631252000032], [92.23418562400008, 25.70861049800004], [92.2342, 25.70855], [92.23456, 25.70805], [92.2351, 25.7073], [92.23719, 25.70687], [92.24708882400006, 25.709132588000045], [92.24836757400004, 25.709424873000046], [92.24839, 25.70943], [92.25055337400005, 25.709096872000032], [92.25392154200006, 25.708591442000056], [92.25445997400004, 25.708737505000045], [92.25604, 25.70919], [92.26117, 25.70879], [92.266, 25.70908], [92.27083, 25.70937], [92.27782736100005, 25.711808399000063], [92.28492, 25.71428], [92.28614706225356, 25.714290988617197], [92.28806134247772, 25.714308131425174], [92.28825324700006, 25.714309850000063], [92.29036848714415, 25.714833686631337], [92.29382444000004, 25.715689550000036], [92.29385520400007, 25.715703811000026], [92.29388, 25.71571], [92.30636593700007, 25.721503605000066], [92.30792674500003, 25.723668598000074], [92.30854401200008, 25.724524806000034], [92.31174086400006, 25.72445454600006], [92.31213983900005, 25.72422614800007], [92.31416485100004, 25.72306690100004], [92.31417471100008, 25.723064734000047], [92.31562853000008, 25.72274528500003], [92.31808187300004, 25.722206210000024], [92.32670172600007, 25.722954395000045], [92.32703110308005, 25.722983506585358], [92.33367334600007, 25.723570573000075], [92.33600413100004, 25.724241558000074], [92.33926, 25.72521], [92.34713535700007, 25.729618109000057], [92.34794148200007, 25.730073051000034], [92.34981120100008, 25.731446722000044], [92.35205, 25.73319], [92.35980778800007, 25.73433003400004], [92.36322862800006, 25.734852], [92.36853485800003, 25.738797660000046], [92.36816, 25.73973], [92.36777, 25.7407], [92.36973, 25.74274], [92.37158690400008, 25.744662885000025], [92.37162809200004, 25.744705536000026], [92.3717, 25.74478], [92.37879, 25.74846], [92.37959, 25.74888], [92.38533, 25.75185], [92.38560444119055, 25.75169048105799], [92.38693, 25.75092], [92.38717, 25.75078], [92.38647, 25.7502], [92.38455, 25.74862], [92.38422536300004, 25.74744725000005], [92.38373041800008, 25.745802755000057], [92.38375579200004, 25.745750926000028], [92.38375, 25.74573], [92.38397106000008, 25.745311231000073], [92.38516753000005, 25.743044679000036], [92.38531632200005, 25.742920016000028], [92.38705132400008, 25.741466366000054], [92.38707834900003, 25.74146350600006], [92.38716, 25.7414], [92.39232017900008, 25.740881990000048], [92.39271035200005, 25.740712521000034], [92.39495562900004, 25.73973729900007], [92.39539567700007, 25.739832859000046], [92.40509163269503, 25.741938415933806], [92.40749, 25.74171], [92.41092, 25.74139], [92.41264, 25.74059], [92.41488, 25.73954], [92.41657, 25.73875], [92.41263, 25.73565], [92.41303, 25.73393], [92.41343, 25.73221], [92.41293, 25.73122], [92.41405, 25.73034], [92.41713, 25.72793], [92.4215, 25.72769], [92.43215, 25.73018], [92.43220769900006, 25.730154411000058], [92.43261788300003, 25.729972504000045], [92.43293092300007, 25.72982343700005], [92.43333066690758, 25.72963308204412], [92.43747, 25.72465], [92.43993, 25.7217], [92.44207567700005, 25.719123228000058], [92.44212, 25.71907], [92.43942, 25.71652], [92.43656, 25.71382], [92.43650811900005, 25.713801299000068], [92.43552063600004, 25.713465393000035], [92.42980454100007, 25.71151519600005], [92.42739621300007, 25.708668991000025], [92.43165026600008, 25.702466306000076], [92.43223654973787, 25.699441826305094], [92.43344, 25.69345], [92.43324, 25.69275], [92.43223438200005, 25.689279631000034], [92.43360706351592, 25.687009425839175], [92.43436737100006, 25.68575199600008], [92.43439111600009, 25.68575422200007], [92.4344, 25.68574], [92.43804579600004, 25.686096847000044], [92.44051516300004, 25.686328351000043], [92.44051042200005, 25.686338083000066], [92.44053, 25.68634], [92.44010713500006, 25.68734200700004], [92.44150580400003, 25.68664267300005], [92.44306759500006, 25.68586177800006], [92.44310684091205, 25.68585683926281], [92.44312, 25.68585], [92.45118045000004, 25.684820380000076], [92.45140472600008, 25.684687922000023], [92.45522595300008, 25.682431090000023], [92.45983679700004, 25.681168597000067], [92.45985983142407, 25.681166554317187], [92.45992, 25.68115], [92.46544254600008, 25.680632572000036], [92.46556756200005, 25.680479526000056], [92.46916804100005, 25.676071764000028], [92.46921, 25.67602], [92.47157, 25.67311], [92.47298948600007, 25.672361798000054], [92.4736, 25.67204], [92.47467, 25.67147], [92.47584, 25.66982], [92.48059, 25.66311], [92.48134, 25.66204], [92.48571, 25.65324], [92.48825, 25.64813], [92.49050515300146, 25.641793659178074], [92.49072, 25.64119], [92.49319, 25.63425], [92.49502, 25.63064], [92.49783, 25.62509], [92.49860531800005, 25.624256252000066], [92.50152651600007, 25.62100805400007], [92.51036396800004, 25.615271945000075], [92.51092216400008, 25.61550862000007], [92.51718417161054, 25.618163710834875], [92.53311, 25.61402], [92.53321089300005, 25.614045434000047], [92.54029, 25.61583], [92.54033, 25.61579], [92.54236180900006, 25.614030443000047], [92.54436, 25.6123], [92.54961880900004, 25.612046709000026], [92.5530969066953, 25.611872804015267], [92.55745, 25.61002], [92.55842822200003, 25.606985515000076], [92.55603328400008, 25.603991843000074], [92.55603759258986, 25.603947768490645], [92.556, 25.6039], [92.55645982900006, 25.599628902000063], [92.55699387700008, 25.59416635300005], [92.55614306600006, 25.59090033800004], [92.55967682246649, 25.58302389291218], [92.56071, 25.58075], [92.56072987800007, 25.572341221000045], [92.56073, 25.57229], [92.56239690700005, 25.569599709000045], [92.56441514100004, 25.566280624000058], [92.56795634900004, 25.563519249000024], [92.56929, 25.56247], [92.5697459201449, 25.561841946739168], [92.5714862466736, 25.559444558153714], [92.57223, 25.55842], [92.57408953600003, 25.55801549000006], [92.57450962800004, 25.557919826000045], [92.57574464400005, 25.557638585000063], [92.57581254800004, 25.557640138000068], [92.57582771000006, 25.557640485000036], [92.57602413100005, 25.55764497800004], [92.57661, 25.55766], [92.58112112300006, 25.557759804000057], [92.58157, 25.55727], [92.58253, 25.55619], [92.58610424700004, 25.552186195000047], [92.58719, 25.55097], [92.58806258600004, 25.551097782000056], [92.59309898400005, 25.551877224000066], [92.59314397100007, 25.55189450000006], [92.60230821182039, 25.55541384793105], [92.60276620700006, 25.55727099300003], [92.6032, 25.55903], [92.6064, 25.5619], [92.60744271900006, 25.56283323300005], [92.60838064000006, 25.563663421000058], [92.60997379200006, 25.563590340000076], [92.61219, 25.56345], [92.62079715500005, 25.566239078000024], [92.62578767600007, 25.565929322000045], [92.62764197254343, 25.56692966663529], [92.62855, 25.56741], [92.63025, 25.56859], [92.63093946100008, 25.569651305000036], [92.63292, 25.5727], [92.63382919000009, 25.576796347000027], [92.64033159700006, 25.585286086000053], [92.64800755500005, 25.590221885000062], [92.64884796982614, 25.590356566491433], [92.65087, 25.59062], [92.65314, 25.59007], [92.65343306170665, 25.58984843402371], [92.66029099892576, 25.580876288450252], [92.66601442600006, 25.57338840700004], [92.66629, 25.57322], [92.66882, 25.57359], [92.67252, 25.57451], [92.68221, 25.57691], [92.68261, 25.57701], [92.68357, 25.57838], [92.68423, 25.57932], [92.68067, 25.58153], [92.68141, 25.58476], [92.69056, 25.59384], [92.69085, 25.59413], [92.69468, 25.59677], [92.69712, 25.59846], [92.69814, 25.59877], [92.69819623000006, 25.598787177000077], [92.70197, 25.59994], [92.70213, 25.59993], [92.70527, 25.59973], [92.70828, 25.59954], [92.71003, 25.59994], [92.71068, 25.60009], [92.71447, 25.59932], [92.71536192900004, 25.596954565000033], [92.71789, 25.59025], [92.71884, 25.59026], [92.74076883800006, 25.59547972400003], [92.74608444600005, 25.597754063000025], [92.74955, 25.60041], [92.75104, 25.60393], [92.75043, 25.60519], [92.74983, 25.60644], [92.74975, 25.60662], [92.74989, 25.60704], [92.75039, 25.60849], [92.75198, 25.61315], [92.75474, 25.6144], [92.7561, 25.61501], [92.75966, 25.61662], [92.76242, 25.61787], [92.76401703056835, 25.617284039143982], [92.7652, 25.61685], [92.76620566900004, 25.618114863000073], [92.76714, 25.61929], [92.76709, 25.6199], [92.76693, 25.62193], [92.76674454000005, 25.622115460000032], [92.76664, 25.62222], [92.76249, 25.62625], [92.7624900977922, 25.626266136566542], [92.76250580200008, 25.628857468000035], [92.76487, 25.63078], [92.76805, 25.63337], [92.76909, 25.63422], [92.77093, 25.63822], [92.77164, 25.63977], [92.77333, 25.64122], [92.77617, 25.64365], [92.77943, 25.64644], [92.78055, 25.6474], [92.7873, 25.65576], [92.78769, 25.66129], [92.78713, 25.66235], [92.7857, 25.66505], [92.78385, 25.66856], [92.77824, 25.67461], [92.77789, 25.67538], [92.77686530190465, 25.677674623085306], [92.77664, 25.67817], [92.77693, 25.6784], [92.77822, 25.67945], [92.78053, 25.68132], [92.78154, 25.68183], [92.78933, 25.68578], [92.79241, 25.68816], [92.79474, 25.68847], [92.79758, 25.68885], [92.79760062600008, 25.688879749000023], [92.79914, 25.6911], [92.80115, 25.69419], [92.80181, 25.69521], [92.8036, 25.69796], [92.80543497300005, 25.700772296000025], [92.80697, 25.70114], [92.81156, 25.70222], [92.81156851800006, 25.702237833000027], [92.8137, 25.7067], [92.81573, 25.71095], [92.81811, 25.71293], [92.81813207700009, 25.71298801300003], [92.81905, 25.7154], [92.82076, 25.71989], [92.82288, 25.72547], [92.82311, 25.72829], [92.82097, 25.73628], [92.82097334700006, 25.736410885000055], [92.8209874803176, 25.736963480418105], [92.82107, 25.74019], [92.82225, 25.74124], [92.82591, 25.74295], [92.82792, 25.74389], [92.82936, 25.74397], [92.83158, 25.7441], [92.83285, 25.74479], [92.83404, 25.74676], [92.83453, 25.74757], [92.83742, 25.74967], [92.83916, 25.74954], [92.84286, 25.74926], [92.84346, 25.74956], [92.84463, 25.74998], [92.8454, 25.75025], [92.84599, 25.75043], [92.84636, 25.75049], [92.84658, 25.75054], [92.84754, 25.75073], [92.84772064600008, 25.75078419400006], [92.84974, 25.75139], [92.85277149700005, 25.75139], [92.85491, 25.75139], [92.85636, 25.75139], [92.85726, 25.75166], [92.86608, 25.7543], [92.86885, 25.75513], [92.86887757389472, 25.75513478006522], [92.88131, 25.75729], [92.88473565888714, 25.75788396504898], [92.88627, 25.75815], [92.89102030100008, 25.76061829300005], [92.89137, 25.7608], [92.89800829859672, 25.762690798845327], [92.90594, 25.76495], [92.91004, 25.76688], [92.91317, 25.76925], [92.91412, 25.76997], [92.91571, 25.77021], [92.91624, 25.77029], [92.92088, 25.771], [92.9264, 25.77669], [92.92859, 25.78103], [92.9278, 25.78512], [92.93059, 25.79939], [92.93119, 25.80245], [92.93134, 25.80322], [92.93067, 25.80585], [92.9304, 25.80692], [92.93039, 25.80695], [92.93019, 25.80774], [92.93017, 25.80782], [92.93052, 25.80771], [92.93543, 25.80619], [92.93708, 25.80595], [92.93954, 25.80559], [92.94005, 25.80552], [92.94100582579782, 25.805379991714123], [92.9436, 25.805], [92.94438, 25.80556], [92.94656, 25.80715], [92.94872, 25.80872], [92.95024, 25.80983], [92.95184, 25.81099], [92.95286095300008, 25.810929944000065], [92.95354, 25.81089], [92.9546, 25.81169], [92.9555, 25.81237], [92.95618, 25.81289], [92.96192, 25.81723], [92.96206, 25.81725], [92.96245, 25.81732], [92.96441666100009, 25.817656013000033], [92.96444, 25.81766], [92.96477, 25.81752], [92.96641, 25.81681], [92.96606525538478, 25.815849640000454], [92.96585, 25.81525], [92.963122616279, 25.812751542843124], [92.95894, 25.80892], [92.95848, 25.80801], [92.95791327200004, 25.806883454000058], [92.95731741100008, 25.805676835000043], [92.95734429400005, 25.804917386000056], [92.95748, 25.80186], [92.95752937000003, 25.800803475000066], [92.96478394615731, 25.795865949121158], [92.96749, 25.79403], [92.96852, 25.79333], [92.97081462900007, 25.790432544000055], [92.97088, 25.79035], [92.96921712210766, 25.787469895490485], [92.96846714600008, 25.786079031000043], [92.96851363182988, 25.785404983467664], [92.96864, 25.78481], [92.96908613699766, 25.784578669704914], [92.96971077000006, 25.78427792000008], [92.97016269400007, 25.784425487000078], [92.97042560031147, 25.78451133344869], [92.97161, 25.78495], [92.97489708591942, 25.787475119911146], [92.97532, 25.7878], [92.97752, 25.78884], [92.97866983616709, 25.789385503669966], [92.97967, 25.78986], [92.98111, 25.79054], [92.98189, 25.79091], [92.98198, 25.79095], [92.9825, 25.7912], [92.98293344955557, 25.790811390285796], [92.98307967800008, 25.79068028900008], [92.98304860500008, 25.790593305000073], [92.98158952700004, 25.78650786700007], [92.98374805600008, 25.784411010000042], [92.98386, 25.78431], [92.98476, 25.7835], [92.98587, 25.78461], [92.98696, 25.78571], [92.98725190700009, 25.78600190700007], [92.98823, 25.78698], [92.98901, 25.79123], [92.98937, 25.79318], [92.98980569200006, 25.79554660100007], [92.98981, 25.79557], [92.98961617889964, 25.796370984436855], [92.988, 25.80305], [92.98672151736194, 25.804216450654305], [92.98412, 25.80659], [92.9841187522089, 25.806627433732945], [92.98403389200007, 25.809173239998014], [92.98403, 25.80929], [92.98403389200007, 25.80930023289905], [92.98492, 25.81163], [92.98522490452963, 25.81243884396055], [92.98564, 25.81354], [92.98683, 25.81668], [92.98801, 25.8198], [92.98807, 25.81988], [92.98968, 25.82208], [92.98971, 25.82212], [92.99076552200006, 25.82299439700006], [92.9914, 25.82352], [92.99194, 25.82325], [92.99422, 25.82214], [92.99448, 25.82201], [92.99526973000008, 25.82162353600006], [92.99865719900004, 25.81999995700005], [93.00616182900006, 25.80679180800007], [93.00972116700007, 25.79178254900006], [93.01100265600007, 25.79145156900006], [93.01584822700005, 25.790200064000032], [93.01623985300006, 25.790103525000063], [93.01903891500007, 25.796000580000054], [93.01906, 25.79604], [93.01993, 25.79603], [93.02274, 25.79598], [93.02407, 25.79596], [93.02444733162052, 25.7959551312049], [93.02562, 25.79594], [93.02648, 25.7949], [93.02726, 25.79395], [93.02943, 25.79131], [93.0322, 25.78994], [93.03451, 25.7888], [93.03591, 25.78811], [93.03614, 25.788], [93.0508, 25.781], [93.05152, 25.78065], [93.05234, 25.78026], [93.05282, 25.78003], [93.05384, 25.77983], [93.05412, 25.77978], [93.05447, 25.77971], [93.06196, 25.77828], [93.0662, 25.77672], [93.07132871900006, 25.774830464000047], [93.07150436800003, 25.774974521000047], [93.07149689200008, 25.774999567000066], [93.07352263000007, 25.77669321700006], [93.07473738600004, 25.77678342200005], [93.07626602600004, 25.776896935000025], [93.07687443000003, 25.77697100200004], [93.07687406900004, 25.77698752300006], [93.0769, 25.77699], [93.07685, 25.77811], [93.07684872000004, 25.778145107000057], [93.07676731000004, 25.78186284000003], [93.07671290000008, 25.781870455000046], [93.07671, 25.78195], [93.07263, 25.78252], [93.06221, 25.78398], [93.06202092200004, 25.78414064800006], [93.05669, 25.78867], [93.05633, 25.78898], [93.05574732100007, 25.789377742000056], [93.05452648700003, 25.790396873000077], [93.05405393000007, 25.790533666000044], [93.05403, 25.79055], [93.05325, 25.79077], [93.05253, 25.79103], [93.05213, 25.79122], [93.05175, 25.79143], [93.05159681100008, 25.791540637000026], [93.04976908800006, 25.793479132000073], [93.04936736100007, 25.793716516000075], [93.0493, 25.79379], [93.04784804300004, 25.794779550000044], [93.04435701800008, 25.798133289000077], [93.04164, 25.80077], [93.03573676100007, 25.806498543000032], [93.02993542300004, 25.812843757000053], [93.02984315600008, 25.812912957000037], [93.02963, 25.81316], [93.02912, 25.81348], [93.02887, 25.81367], [93.02879, 25.81373], [93.02839, 25.8141], [93.02813468600004, 25.81438172600008], [93.02646469900009, 25.817259242000034], [93.0262, 25.81777], [93.02526, 25.81946], [93.02434, 25.82115], [93.02242, 25.82465], [93.02152, 25.82631], [93.02018, 25.82877], [93.01905, 25.83088], [93.01876322400005, 25.831400200000076], [93.01847746200008, 25.831940358000054], [93.01812812700007, 25.832555012000057], [93.01734, 25.83402], [93.01731, 25.83407], [93.01446, 25.8393], [93.01402, 25.84015], [93.01383, 25.84046], [93.01362, 25.84077], [93.01333, 25.84113], [93.01287, 25.84158], [93.01255, 25.84182], [93.01185, 25.8423], [93.01121524700005, 25.842697905000023], [93.01117384900004, 25.842728263000026], [93.01093935000006, 25.84443675600005], [93.01070481000005, 25.846145550000074], [93.01069542400006, 25.84615185800004], [93.01069, 25.84619], [92.99868, 25.85429], [92.99753465500004, 25.856399845000055], [92.99596357300004, 25.859881703000042], [92.99558673700005, 25.86045311500004], [92.99546, 25.86072], [92.99411, 25.86279], [92.99078, 25.86789], [92.98773, 25.87255], [92.98771, 25.87259], [92.98637, 25.87464], [92.98633, 25.8747], [92.98589, 25.87538], [92.98575855100006, 25.875355985000056], [92.98571171300006, 25.87542700800003], [92.98344996000009, 25.87494234600007], [92.98321, 25.8749], [92.98218, 25.87471], [92.98191, 25.87466], [92.97428, 25.8747], [92.96846045200004, 25.874730501000045], [92.96514098600005, 25.87475695100005], [92.96508699600008, 25.87474818100003], [92.96474, 25.87475], [92.96359, 25.87456], [92.95877, 25.87378], [92.95164, 25.87262], [92.94871, 25.87214], [92.94273, 25.87117], [92.93702, 25.87024], [92.93697, 25.87023], [92.93484, 25.86989], [92.93073, 25.86922], [92.93027030000007, 25.86914477600004], [92.91006236600003, 25.86752034400007], [92.90890645100006, 25.86727952900003], [92.90808, 25.86711], [92.90361712600009, 25.866179443000078], [92.90138234000005, 25.866040732000044], [92.8951, 25.86576], [92.89382, 25.8657], [92.88994467100008, 25.86707287400003], [92.88936, 25.86728], [92.88934953200004, 25.867297129000065], [92.88929062300008, 25.867319327000075], [92.88811218800004, 25.869283385000074], [92.88789338900006, 25.869648049000034], [92.88788318800005, 25.869664456000066], [92.88783, 25.86975], [92.8873, 25.86963], [92.88475, 25.86907], [92.87591940700008, 25.86712178700003], [92.87415583900008, 25.86728712200005], [92.87358, 25.86738], [92.87121, 25.86677], [92.87079, 25.86666], [92.87073006500003, 25.86783471700005], [92.87064311200004, 25.86953900900005], [92.87064, 25.8696], [92.87041, 25.87002], [92.87033, 25.87015], [92.87007, 25.87056], [92.86894143800004, 25.872327863000066], [92.86834, 25.87327], [92.86783195900006, 25.874670886000047], [92.86632, 25.87884], [92.8662, 25.87918], [92.86491, 25.88024], [92.86192, 25.88269], [92.86071, 25.88368], [92.85813, 25.88695], [92.85650910400005, 25.888997448000055], [92.85203549700003, 25.89901298600006], [92.84829947400004, 25.905017308000026], [92.84828318200005, 25.90504349200006], [92.85779798100003, 25.92206292000003], [92.85641132400008, 25.922596249000037], [92.85408308400008, 25.923387399000035], [92.85036035600007, 25.923135010000067], [92.84453086700006, 25.918042582000055], [92.83961360900008, 25.915342121000037], [92.83681460700006, 25.913804964000065], [92.83637890800009, 25.913565687000073], [92.83635618200003, 25.913553206000074], [92.82885155200006, 25.917908572000044], [92.82619637200008, 25.920026749000044], [92.82564014000008, 25.920470485000067], [92.82651, 25.92137], [92.82559065100008, 25.920509964000075], [92.82288805200005, 25.92266597100007], [92.82214984300003, 25.92280267600006], [92.82046, 25.92316], [92.81937, 25.92339], [92.81746, 25.92287], [92.81596818900005, 25.92247057000003], [92.81236816900008, 25.92152687500004], [92.80895088200003, 25.91837761100004], [92.80680861400003, 25.918551308000076], [92.80531, 25.91872], [92.80392, 25.91888], [92.80369, 25.91917], [92.80251, 25.92062], [92.80177227000007, 25.921532455000033], [92.79923506700004, 25.92876348200008], [92.79313755600003, 25.936603140000045], [92.79347258400009, 25.939082348000056], [92.79409711600005, 25.939667847000067], [92.79459, 25.94008], [92.79677, 25.94191], [92.79721, 25.95435], [92.79912292500006, 25.954945132000034], [92.80081, 25.95547], [92.80089447300008, 25.955455578000056], [92.80471571600003, 25.954803171000037], [92.80470425000004, 25.95478200200006], [92.80811996100005, 25.954198765000058], [92.80813977200006, 25.954218576000073], [92.80819, 25.95421], [92.8087, 25.95451], [92.80867, 25.95465], [92.80865397800005, 25.954732782000065], [92.80868286000003, 25.954761663000056], [92.80821382000005, 25.957374883000057], [92.80553359600003, 25.960457142000052], [92.79982119800007, 25.96288058300007], [92.79975188100008, 25.96290999100006], [92.7995, 25.96302], [92.79888, 25.96329], [92.79099, 25.95913], [92.78934, 25.95745], [92.78667, 25.95474], [92.7844, 25.95244], [92.78142, 25.95069], [92.77889, 25.94986], [92.77844, 25.9499], [92.77517, 25.95017], [92.77381, 25.95089], [92.77341, 25.9511], [92.77303, 25.9513], [92.77174, 25.95198], [92.76981, 25.953], [92.76476, 25.96151], [92.76447351500008, 25.96199344300004], [92.76444, 25.96205], [92.76398, 25.96429], [92.76400268500004, 25.96434759600004], [92.76399011000007, 25.964410473000044], [92.76880111300005, 25.976696624000056], [92.76826348400004, 25.97864744900005], [92.76731367200006, 25.98209391100005], [92.76762897100008, 25.98449018200006], [92.76983524400003, 25.98693005900003], [92.77124547900007, 25.98848961300007], [92.77099459300007, 25.98927811200008], [92.77094529300007, 25.989433053000027], [92.76730018800004, 25.98960458700003], [92.76454371500006, 25.988559028000054], [92.76356931500004, 25.988189428000055], [92.76355210200006, 25.988232460000063], [92.76352, 25.98822], [92.7627, 25.99029], [92.76272243600005, 25.990306625000073], [92.76687, 25.99338], [92.76702440800005, 25.993390649000048], [92.76919, 25.99354], [92.77576656500008, 25.99398436200005], [92.77943624600005, 25.996894799000074], [92.77840703900006, 25.99886744400004], [92.77787367100007, 25.99917222700003], [92.77726082900006, 25.99952242200004], [92.77690611400004, 25.999725116000036], [92.77411868000007, 26.00002530100005], [92.76478475400006, 25.99822401700004], [92.76434980000005, 25.998140078000063], [92.76194, 25.99909], [92.76183, 25.99929], [92.76097, 26.00083], [92.76138, 26.00246], [92.76144956400003, 26.00292797800006], [92.76169098200006, 26.003824675000033], [92.76181108700007, 26.004270777000045], [92.76184288100006, 26.00429679000007], [92.76233129500008, 26.004696402000036], [92.76369796500006, 26.00581458700003], [92.76635674900007, 26.006800910000038], [92.78213791300004, 26.008301835000054], [92.78346730400006, 26.009631228000046], [92.78320549800009, 26.01057373200007], [92.78282405000004, 26.011946941000076], [92.77888079800005, 26.014745379000033], [92.77883587600007, 26.014777259000027], [92.77227468500007, 26.015978], [92.76211757900006, 26.015047862000074], [92.76056, 26.01491], [92.76038706100007, 26.015111368000078], [92.7591, 26.01661], [92.75905, 26.01667], [92.75938, 26.01853], [92.75959, 26.0197], [92.75977107400007, 26.020719727000028], [92.76227179400007, 26.024054023000076], [92.76346, 26.02562], [92.76346422200004, 26.025643927000033], [92.76348354700008, 26.025669693000054], [92.76429833600008, 26.030301121000036], [92.76427998000008, 26.030314888000078], [92.76429, 26.03037], [92.76195, 26.0321], [92.75999595200005, 26.03355595800008], [92.75991, 26.03362], [92.75978, 26.03404], [92.75958427400008, 26.03468807300004], [92.75933, 26.03553], [92.75894, 26.03682], [92.75744, 26.03714], [92.75698, 26.03724], [92.75239, 26.03822], [92.75079, 26.03856], [92.74995165300004, 26.03919766100006], [92.74823964700005, 26.04062433200005], [92.74817410300005, 26.040678953000054], [92.74937484300006, 26.043509270000072], [92.75056496800005, 26.04460021700004], [92.75297706600008, 26.046811306000052], [92.75412545000006, 26.04969138000007], [92.75537126500006, 26.052815805000023], [92.75455, 26.05408], [92.754, 26.05493], [92.75367952900007, 26.055420131000062], [92.75271976400006, 26.056846069000073], [92.75216306400006, 26.058874047000074], [92.75143, 26.06128], [92.74625, 26.0607], [92.744, 26.06045], [92.73911, 26.0599], [92.72904, 26.05877], [92.72512, 26.05833], [92.72204, 26.05799], [92.71959156900004, 26.05771399500003], [92.71899567911879, 26.057461887204102], [92.71809125900006, 26.057079248000036], [92.71755521400007, 26.056007159000046], [92.71340086500004, 26.049574618000065], [92.71337108500006, 26.04947677000007], [92.71323, 26.04926], [92.71277398700005, 26.047514875000047], [92.71152470800007, 26.043410101000063], [92.71279781500004, 26.038250669000035], [92.71668414100009, 26.035637449000035], [92.71724190300006, 26.033570448000035], [92.71776728700007, 26.031346158000076], [92.71594726200004, 26.029071126000076], [92.71472, 26.02762], [92.71601986700006, 26.024168943000063], [92.71608109100004, 26.023978471000078], [92.71595975396295, 26.021491078239666], [92.71274, 26.01831], [92.71259479500009, 26.01838450400004], [92.71083, 26.01929], [92.71017, 26.01963], [92.70982, 26.01932], [92.70952198400005, 26.019048541000075], [92.70881, 26.0184], [92.70872401200006, 26.018493430000035], [92.70673, 26.02066], [92.70571, 26.02013], [92.70488, 26.01969], [92.70353, 26.01898], [92.70273, 26.01856], [92.70053, 26.01957], [92.69984460600006, 26.019883655000058], [92.69876, 26.02038], [92.69755, 26.02047], [92.69588, 26.01951], [92.69524234200009, 26.019154066000056], [92.69323, 26.02054], [92.69241, 26.02111], [92.69129, 26.02282], [92.68728, 26.02343], [92.68654498600006, 26.02472741200006], [92.68596, 26.02576], [92.68418692200004, 26.026418533000026], [92.68318133000008, 26.026792707000027], [92.68289590974146, 26.02661107556276], [92.68244426800004, 26.026323667000042], [92.68272855600009, 26.02501594200004], [92.68277411798309, 26.024806357078095], [92.67956, 26.02591], [92.6785, 26.02559], [92.67585, 26.0248], [92.67560973000008, 26.02527066700003], [92.67512, 26.02623], [92.67496673400007, 26.026281089000065], [92.67493963900006, 26.026323667000042], [92.67415644500005, 26.026581548000024], [92.67058509500004, 26.027757481000037], [92.66948509200006, 26.028119676000074], [92.66814, 26.02692], [92.66612, 26.02513], [92.6652454053883, 26.024533015475726], [92.66256, 26.0227], [92.66106, 26.02186], [92.65793, 26.0201], [92.65745740300008, 26.019541477000075], [92.65738, 26.01945], [92.65755, 26.01907], [92.65782, 26.01845], [92.65913, 26.01546], [92.65892485400008, 26.014250349000065], [92.65832224400003, 26.011515425000027], [92.65842476473206, 26.01127069763979], [92.65841, 26.01118], [92.65994, 26.00753], [92.66037323400008, 26.006501069000024], [92.66042, 26.00639], [92.65946581808032, 26.004562499035185], [92.65892529500007, 26.00340774500006], [92.65876564864797, 26.00138555854068], [92.65873076799325, 26.00094374091386], [92.65836715200004, 26.000447266000037], [92.65704913700006, 25.998918369000023], [92.64947323200005, 25.99831229600005], [92.64944, 25.99831], [92.64892, 25.99828], [92.64797, 25.99821], [92.64751, 25.99818], [92.64636, 25.9981], [92.64244, 25.99725], [92.64079, 25.99689], [92.63648, 25.99212], [92.63639, 25.99162], [92.63607, 25.98995], [92.63594, 25.98924], [92.63497, 25.98904], [92.63139409700005, 25.98829582600007], [92.63126731400007, 25.988267859000075], [92.63125197300008, 25.98826447400006], [92.63104581800008, 25.98809130400008], [92.62989, 25.98717], [92.62963, 25.98697], [92.62843, 25.9865], [92.62811311438033, 25.986389570162842], [92.62307728700006, 25.984780182000065], [92.62288776730641, 25.98462592243547], [92.62284, 25.98461], [92.62185, 25.98381], [92.6218, 25.98377], [92.61421, 25.97766], [92.61223, 25.97694], [92.611, 25.97649], [92.61036, 25.97626], [92.60706, 25.97506], [92.60616, 25.9755], [92.60546, 25.97584], [92.60498, 25.97583], [92.6042, 25.97582], [92.60264719273924, 25.975806258342825], [92.59961141000008, 25.975735658000076], [92.59699, 25.97167], [92.59651, 25.97092], [92.59552, 25.96938], [92.59475, 25.96819], [92.59437, 25.9676], [92.59394, 25.96692], [92.5936, 25.9664], [92.59333, 25.96599], [92.59251, 25.96471], [92.59152, 25.96461], [92.59076, 25.96454], [92.59046, 25.96451], [92.59016, 25.96448], [92.5894, 25.96441], [92.58874956500006, 25.964344957000037], [92.5885, 25.96432], [92.58401124000005, 25.96468340800004], [92.58183, 25.96486], [92.58172, 25.96487], [92.58023, 25.96499], [92.57994, 25.96488], [92.57875479200004, 25.964444526000023], [92.57717843600005, 25.96394143400005], [92.57622144192425, 25.962608477715918], [92.57581, 25.96211], [92.57523, 25.96141], [92.57222271600006, 25.96094515200008], [92.57206, 25.96092], [92.57199, 25.96094], [92.56898, 25.96171], [92.5689, 25.96173], [92.56758, 25.96207], [92.5652, 25.96268], [92.56469, 25.96281], [92.56345, 25.96313], [92.56278, 25.9633], [92.55909, 25.96424], [92.55888, 25.9644], [92.558, 25.96506], [92.55695, 25.96586], [92.55412, 25.968], [92.551, 25.97036], [92.55391, 25.97334], [92.55418, 25.97361], [92.55561, 25.97531], [92.5558, 25.97585], [92.55594, 25.97622], [92.55611, 25.9767], [92.55931, 25.98207], [92.56027, 25.98368], [92.56036, 25.98383], [92.56269, 25.98774], [92.56359, 25.98926], [92.56377, 25.98956], [92.56792, 25.99557], [92.56896425443524, 25.997081130095452], [92.57162606400004, 26.00093300700007], [92.5717, 26.00104], [92.57170692600005, 26.002016557000047], [92.57183674700008, 26.003756174000046], [92.57012133700005, 26.004573036000068], [92.57001, 26.00463], [92.56845, 26.00674], [92.5716, 26.01198], [92.57330358700005, 26.013100655000073], [92.57876, 26.01669], [92.58270175700005, 26.017772900000068], [92.58422, 26.01819], [92.58463, 26.01836], [92.58516, 26.01858], [92.58836, 26.01991], [92.59244, 26.02161], [92.59355, 26.02207], [92.59396595700008, 26.02396071100003], [92.59435063600006, 26.02588411100004], [92.59163813200007, 26.02707994700006], [92.59038, 26.02759], [92.58822, 26.0277], [92.58695, 26.02776], [92.58693677398384, 26.027769216000625], [92.58507, 26.02907], [92.58449, 26.02947], [92.58334, 26.03027], [92.58329705200003, 26.03042210800004], [92.58214, 26.03452], [92.58202, 26.03496], [92.58358, 26.03885], [92.58395, 26.03979], [92.58406, 26.04007], [92.58441, 26.04093], [92.58495, 26.04228], [92.58505, 26.04253], [92.58509, 26.04291], [92.58514, 26.04343], [92.5854, 26.04591], [92.58627, 26.05423], [92.58695, 26.05568], [92.58812, 26.05815], [92.58923, 26.0595], [92.59031, 26.0608], [92.59278, 26.06381], [92.59576, 26.06743], [92.59677, 26.06865], [92.59683, 26.06904], [92.5979, 26.07549], [92.59804, 26.07634], [92.59602, 26.07893], [92.59486, 26.08042], [92.59207780600008, 26.083991386000037], [92.59117788000003, 26.084125418000042], [92.59006227700007, 26.08429157200004], [92.58900430400007, 26.08501855800006], [92.58859, 26.08531], [92.58681, 26.08655], [92.58236, 26.08966], [92.58147, 26.09057], [92.57989, 26.09219], [92.57936845400008, 26.092723619000026], [92.57773, 26.0944], [92.57724, 26.0954], [92.57733, 26.09546], [92.5782, 26.09618], [92.57835092900007, 26.096352490000072], [92.57855, 26.09658], [92.5789, 26.09697], [92.57897, 26.09741], [92.57949, 26.09922], [92.5797, 26.09996], [92.58028, 26.10105], [92.58050793800004, 26.10117596500004], [92.58109960500008, 26.101144825000063], [92.58107270100004, 26.101195803000053], [92.58111, 26.10119], [92.58095, 26.1015], [92.58048, 26.10244], [92.58029, 26.1027], [92.57969406395472, 26.10346505303111], [92.57909539200006, 26.10425188000005], [92.57878389100006, 26.104661281000062], [92.57824516800008, 26.104994775000023], [92.57788, 26.10525], [92.57788333500008, 26.105606845009266], [92.57788333500008, 26.11019326400003], [92.57451508100007, 26.11398788100007], [92.57450203000008, 26.114002583000058], [92.57293, 26.11428], [92.57227581200004, 26.11439706500005], [92.56956233200003, 26.11487034700008], [92.56834080800007, 26.11508340300003], [92.56711955200007, 26.115296413000067], [92.56553916890581, 26.114944262180114], [92.55922897000005, 26.113538186000028], [92.55546455900009, 26.113498138000068], [92.55530438600005, 26.11349643400007], [92.55519791200004, 26.113495301000057], [92.54939464300008, 26.109740246000058], [92.54708, 26.10827], [92.5464, 26.10784], [92.54628, 26.1069], [92.54602615700009, 26.104997214000036], [92.54532757313508, 26.104490740659664], [92.54254725000004, 26.10260286700003], [92.5413416696617, 26.10087843008571], [92.54099, 26.10039], [92.53490473400007, 26.09584622600005], [92.53428174900006, 26.09712557100005], [92.533, 26.09997], [92.53278, 26.10045], [92.53265, 26.10074], [92.53118, 26.10079], [92.52614, 26.10095], [92.52536, 26.10097], [92.5253, 26.10099], [92.52441934000007, 26.101246039000046], [92.52217, 26.1019], [92.52155007099721, 26.10324640830293], [92.52093391700004, 26.104661281000062], [92.52101150600004, 26.109972133000042], [92.52107, 26.11283], [92.52108956300003, 26.113886415000024], [92.52144596700003, 26.11497790100003], [92.52196, 26.11652], [92.52215, 26.11709], [92.52285, 26.11918], [92.52332, 26.12058], [92.52323, 26.12109], [92.52291, 26.12281], [92.52258, 26.1246], [92.52311, 26.12601], [92.52327, 26.12645], [92.52434, 26.12757], [92.52449, 26.12883], [92.52491, 26.13243], [92.52644, 26.13553], [92.52703, 26.1367], [92.52876, 26.14018], [92.52891, 26.14089], [92.52938, 26.14307], [92.52918287500006, 26.14346425100007], [92.52691360600005, 26.148181271000055], [92.52684493600003, 26.148209975000043], [92.52684, 26.14822], [92.52682, 26.14826], [92.52383661700009, 26.149467421000054], [92.52272635300005, 26.149931499000047], [92.52172035600006, 26.15034411000005], [92.52171, 26.15037], [92.52167, 26.15033], [92.52076, 26.14953], [92.52052, 26.14932], [92.517, 26.14621], [92.51583, 26.14517], [92.51548583100003, 26.144937310000046], [92.51056805100006, 26.141674110000054], [92.51011695800008, 26.141374787000075], [92.50897152900006, 26.14215850100004], [92.5085, 26.14249], [92.50803, 26.14283], [92.50557, 26.14652], [92.50539, 26.14662], [92.50443813825476, 26.147119558646438], [92.50173065000007, 26.148625711000022], [92.50144418000008, 26.148785073000056], [92.49897408400005, 26.149059527000077], [92.49895388800007, 26.149060215000077], [92.4988, 26.14908], [92.49781, 26.1491], [92.49772374800006, 26.149102092000078], [92.49252439000009, 26.14927909100004], [92.48640404400004, 26.146973669000033], [92.48574182900006, 26.14660067400007], [92.47744, 26.142], [92.47719, 26.14187], [92.47628936100006, 26.142072770000027], [92.47549, 26.14554], [92.47543, 26.1458], [92.47376, 26.14675], [92.47368205779439, 26.146744667112248], [92.47361443900007, 26.14678155000007], [92.47165006200004, 26.14660563600006], [92.46996, 26.14649], [92.46714, 26.14302], [92.46497106200007, 26.141282959000023], [92.46027592500008, 26.137559862000046], [92.45895854100007, 26.134732975000077], [92.45607, 26.13517], [92.45303031200007, 26.13434873800003], [92.44901945600003, 26.129177609000067], [92.44662, 26.12614], [92.44462, 26.12485], [92.44302, 26.12381], [92.44281, 26.12208], [92.4424976215563, 26.122062571159795], [92.43542402300005, 26.12177183600005], [92.43375156200005, 26.120142259000033], [92.43374995300007, 26.12009918700005], [92.43374, 26.12009], [92.43372, 26.11959], [92.43372, 26.11953], [92.433540786654, 26.11548774341825], [92.43354, 26.11547], [92.43266, 26.11396], [92.43064, 26.11051], [92.42657, 26.11385], [92.42517, 26.115], [92.42504310900006, 26.115103821000048], [92.42066, 26.11869], [92.40485667995716, 26.117930801312735], [92.40482122200007, 26.118189135000023], [92.40467133700008, 26.119281156000056], [92.40692186800004, 26.122684399000036], [92.40665838500007, 26.12398863800007], [92.40639102300008, 26.12531208200005], [92.40713, 26.12589], [92.40815, 26.12668], [92.40932, 26.12759], [92.40952700700007, 26.127750264000042], [92.41153271200005, 26.129243874000053], [92.41312567111682, 26.13227438334403], [92.41379, 26.13352], [92.4137, 26.13366], [92.41313437800005, 26.134514627000044], [92.41228584000004, 26.135808300000065], [92.40122263400008, 26.138422502000026], [92.40157848100006, 26.139409692000072], [92.40155822913422, 26.13940627985425], [92.4013, 26.13878], [92.40113, 26.13838], [92.39935891600004, 26.138839508000046], [92.39248691200004, 26.14042276300006], [92.39051, 26.14089], [92.38899699400008, 26.140463147000048], [92.38772354600007, 26.14015388000007], [92.38772607297847, 26.1401045904213], [92.38693, 26.13988], [92.38690202000004, 26.13985211000005], [92.38666649000004, 26.139567132000025], [92.38362, 26.13595], [92.38122, 26.13417], [92.38052, 26.13365], [92.37904741900007, 26.132558044000064], [92.37817215500007, 26.131912675000024], [92.37247776200007, 26.130918050000048], [92.36932333100003, 26.120686720000037], [92.36039, 26.11357], [92.36036, 26.11355], [92.35971135100004, 26.113032408000038], [92.35640896900009, 26.110430531000077], [92.35145560500007, 26.108234891000052], [92.35037405800006, 26.10819877600005], [92.34707907900008, 26.108088749000046], [92.34451, 26.10705], [92.34485898400004, 26.10603978300003], [92.34489, 26.10595], [92.34587592800005, 26.103098283000065], [92.34542113600008, 26.102906516000075], [92.34154, 26.10127], [92.33342, 26.09785], [92.33186, 26.09719], [92.3268, 26.09654], [92.32278, 26.094], [92.32237, 26.09374], [92.31896, 26.09158], [92.31754696600007, 26.089976265000075], [92.31676, 26.08908], [92.31498, 26.08705], [92.31453, 26.08583], [92.31449, 26.08573], [92.31304, 26.08182], [92.31304929400005, 26.081739007000067], [92.31318717900007, 26.080490948000033], [92.31371, 26.07562], [92.31298262000007, 26.074505360000046], [92.31127, 26.07492], [92.31011, 26.07766], [92.31009879090449, 26.077662853224314], [92.31009413500004, 26.07767377500005], [92.30942475700004, 26.07783442500005], [92.30901, 26.07794], [92.30807, 26.07818], [92.30803572100007, 26.078167794000024], [92.30373026900008, 26.075742845000036], [92.30372041100009, 26.075730876000023], [92.30232374600007, 26.074937316000046], [92.30230347600008, 26.074925799000027], [92.3021933325175, 26.074802168610173], [92.30121802225095, 26.07379145534456], [92.30088273900003, 26.073444779000056], [92.30081240800007, 26.073442021000062], [92.29227857200004, 26.064608], [92.28356915716734, 26.055501950276547], [92.26531, 26.03658], [92.26494, 26.03619], [92.26095, 26.03206], [92.25982, 26.03089], [92.25889, 26.02992], [92.25792, 26.02892], [92.25648, 26.02743], [92.24733, 26.02033], [92.24627, 26.01951], [92.24457, 26.01819], [92.24308, 26.01703], [92.24179, 26.01603], [92.24133, 26.01567], [92.23963, 26.01435], [92.23811, 26.01317], [92.23597, 26.01151], [92.23538, 26.01105], [92.23488, 26.01066], [92.23336, 26.00948], [92.23275, 26.00901], [92.22216, 26.00078], [92.22105, 26.00005], [92.22032066200006, 25.99957034600004], [92.21994, 25.99932], [92.21596, 25.99482], [92.21176, 25.99321], [92.21171388700003, 25.993169073000047], [92.21170029200005, 25.993163925000033], [92.21131306700005, 25.992813330000047], [92.20847, 25.99029], [92.20901812800008, 25.989477666000028], [92.20986, 25.98823], [92.20871493036871, 25.9872646796713], [92.20814, 25.98678], [92.2049, 25.98547], [92.20166, 25.98417], [92.20150671400006, 25.984163392000028], [92.20149399500008, 25.984158370000046], [92.19229202700006, 25.983687571000075], [92.18175, 25.97381], [92.17772, 25.97169], [92.17770918400004, 25.97168746400007], [92.17769359800008, 25.97167924300004], [92.17391984200003, 25.97073580400007], [92.17207560500003, 25.969370224000045], [92.16817, 25.96628], [92.16634, 25.96303], [92.16699660600005, 25.960914684000045], [92.1681, 25.95736], [92.16764, 25.95626], [92.16608803200006, 25.95254895900007], [92.16397265000006, 25.95142995300006], [92.16333, 25.95109], [92.16154, 25.95014], [92.16025268500005, 25.94819870200007], [92.15702370400004, 25.943504719000032], [92.15690338400003, 25.94190046400007], [92.15687, 25.9416], [92.15757, 25.93975], [92.15826, 25.93789], [92.16021, 25.93451], [92.16215, 25.93114], [92.1609, 25.92456], [92.16081, 25.92084], [92.1608, 25.92062], [92.16063, 25.91379], [92.16358, 25.91113], [92.1644, 25.91039], [92.17499, 25.90776], [92.18157, 25.90716], [92.18159921716139, 25.907190251397196], [92.18166767400004, 25.90726113100004], [92.1827, 25.90833], [92.18383, 25.90949], [92.18432, 25.9114], [92.18741, 25.91438], [92.18749188000004, 25.91437938200005], [92.19271, 25.91434], [92.19528, 25.91546], [92.19603, 25.91579], [92.19652941300006, 25.916010735000043], [92.19783920747301, 25.916569580775157], [92.19769642093206, 25.912890727543694], [92.19765859400007, 25.912414111000032], [92.19767520069203, 25.912343994300503], [92.19785522659508, 25.911583881932135], [92.19826164400007, 25.909867897000026], [92.20114288600007, 25.90678563800003], [92.20124294859384, 25.906797409952233], [92.20125, 25.90679], [92.20262, 25.90693], [92.20579, 25.90725], [92.20699, 25.90816], [92.20818, 25.90907], [92.21037545900003, 25.90893374500007], [92.21817, 25.90845], [92.21823645500007, 25.908468291000077], [92.21971705887371, 25.908875824125634], [92.22322, 25.90984], [92.2243122727427, 25.908973403443813], [92.22485487407235, 25.908037884323658], [92.22565, 25.90015], [92.22508791200005, 25.899702235000063], [92.22447, 25.89921], [92.22212062000006, 25.899009342000056], [92.21885, 25.89873], [92.21883119800003, 25.898684461000073], [92.21622, 25.89236], [92.21613933700007, 25.892309843000078], [92.21528288900004, 25.89177728800007], [92.21347, 25.89065], [92.20703, 25.88999], [92.20556710100004, 25.88934404500003], [92.20395, 25.88863], [92.19613, 25.8804], [92.19558, 25.87982], [92.19243, 25.87729], [92.18759738330199, 25.87341001410899], [92.18184526600004, 25.870468591000076], [92.18084018200005, 25.86926249000004], [92.18073667900006, 25.86901286600005], [92.18051, 25.86873], [92.17995203875579, 25.867120496410895], [92.17970108700007, 25.86651525900004], [92.18126212332737, 25.86215736779452], [92.18130924200005, 25.86202498800003], [92.18152772131639, 25.852302657423625], [92.18155778000005, 25.850074552000024], [92.17889701900003, 25.84674860100006], [92.17581476100008, 25.845140466000032], [92.17199544000005, 25.836429735000024], [92.17104069200008, 25.835178686000063], [92.16994, 25.83392], [92.16830951700007, 25.832938296000066], [92.16612, 25.83162], [92.16386, 25.82434], [92.16383, 25.82364], [92.16377, 25.82238], [92.16368, 25.82042], [92.16236, 25.81948], [92.15633, 25.81519], [92.15381, 25.81154], [92.15368, 25.81135], [92.15373, 25.80976], [92.15399, 25.80181], [92.15401358700007, 25.801074679000067], [92.15422, 25.79464], [92.15423777900008, 25.794142178000072], [92.15424, 25.79408], [92.15173, 25.78604], [92.15166499800006, 25.784739956000067], [92.15162573100008, 25.782423204000054], [92.15570883877896, 25.777255302557865], [92.15484200100008, 25.775521625000067], [92.15484078600008, 25.775496942000075], [92.15475, 25.77532], [92.15463, 25.77151], [92.15464202700008, 25.771455495000055], [92.15464098400008, 25.77143428200003], [92.15473308800006, 25.771042839000074], [92.15651714200004, 25.763460613000063], [92.15747852583314, 25.761335446579594], [92.15779024800008, 25.760646377000057], [92.15859431600006, 25.75602298900003], [92.16533141705496, 25.743298535785076], [92.16601, 25.73302], [92.16446, 25.7273], [92.1614, 25.72483], [92.16033997800008, 25.724501028000077], [92.15682918900006, 25.723411473000056], [92.15676, 25.72339], [92.15637710600004, 25.723075640000047], [92.15419338600003, 25.721453449000023], [92.15149172000008, 25.718194295000046], [92.15007656100005, 25.71326268100006], [92.15008351369035, 25.7132468587049], [92.15004, 25.7131], [92.15055321600005, 25.71217788200005], [92.15132018500003, 25.71043236400004], [92.15345001563982, 25.709330728462223], [92.15391, 25.70907], [92.15556, 25.70814], [92.1563, 25.70772], [92.15716, 25.70367], [92.15763050100009, 25.701454271000046], [92.15796714300006, 25.69984011500003], [92.15797572300005, 25.699828513000057], [92.1617402949496, 25.69473349860247], [92.16188, 25.69455], [92.16088, 25.68947], [92.1637, 25.68509], [92.16477, 25.68342]]], [[[92.26942035946861, 26.066424517190203], [92.26935622500008, 26.066447466000056], [92.26641976300004, 26.063921863000076], [92.26114475900005, 26.063506629000074], [92.26511, 26.0638], [92.26622, 26.06388], [92.26635, 26.06389], [92.26648, 26.0639], [92.26658, 26.06399], [92.26724, 26.06455], [92.26942035946861, 26.066424517190203]]], [[[92.29356, 26.07509], [92.29078567400006, 26.072279087000027], [92.29083837000007, 26.07119004900005], [92.29074257300005, 26.071057473000053], [92.2909, 26.07127], [92.29082, 26.07226], [92.29238, 26.07387], [92.29242, 26.07391], [92.29356, 26.07509]]], [[[92.29356, 26.07509], [92.29474114100003, 26.076287060000027], [92.29469, 26.07626], [92.29376, 26.0753], [92.29356, 26.07509]]], [[[92.29675, 26.07735], [92.29535103700005, 26.07660977200004], [92.29675781500003, 26.077337842000077], [92.29753118280723, 26.077508585983423], [92.29675, 26.07735]]], [[[92.42517, 26.115], [92.43062105900003, 26.110579217000065], [92.43090934000008, 26.111063863000027], [92.433540786654, 26.11548774341825], [92.42517, 26.115]]], [[[92.30014, 26.07548], [92.29923214500008, 26.07641457400007], [92.30042611600004, 26.07517311600003], [92.30155444200005, 26.07503291000006], [92.30232374600007, 26.074937316000046], [92.30042, 26.07519], [92.30014, 26.07548]]], [[[92.40155822913422, 26.13940627985425], [92.40618008900003, 26.15075310800006], [92.40207064000003, 26.140775038000072], [92.40150309600006, 26.139396995000027], [92.40155822913422, 26.13940627985425]]]]}}]}