{"type": "FeatureCollection", "features": [{"type": "Feature", "properties": {"Name": "Karimganj"}, "geometry": {"type": "Polygon", "coordinates": [[[92.4894, 24.87591], [92.48878, 24.87551], [92.48811, 24.87498], [92.48692, 24.8735], [92.48652, 24.87307], [92.48624, 24.87242], [92.48546, 24.87026], [92.48516, 24.86927], [92.48509, 24.86858], [92.48507, 24.86758], [92.48531, 24.8657], [92.48534, 24.86411], [92.48517, 24.86361], [92.48498, 24.86331], [92.48476, 24.8631], [92.48453, 24.86293], [92.48426, 24.8628], [92.48309, 24.86239], [92.48277, 24.86236], [92.48247, 24.86242], [92.48191, 24.86247], [92.48149, 24.86261], [92.48118, 24.8628], [92.48101, 24.86298], [92.4806, 24.8631], [92.48029, 24.86327], [92.47928, 24.86429], [92.47886, 24.86482], [92.47792, 24.86556], [92.4774, 24.86614], [92.477, 24.86671], [92.47654, 24.86722], [92.47608, 24.86761], [92.4756, 24.86789], [92.47267, 24.86907], [92.4708, 24.86963], [92.46898, 24.87024], [92.46748, 24.87068], [92.46482, 24.87174], [92.46318, 24.8723], [92.46127, 24.87287], [92.45977, 24.87348], [92.45898, 24.8737], [92.45819, 24.87379], [92.45592, 24.87386], [92.4536, 24.87351], [92.45166, 24.87303], [92.45016, 24.87253], [92.44852, 24.87178], [92.44357, 24.871], [92.44194, 24.87067], [92.44069, 24.87009], [92.44056, 24.8699], [92.44057, 24.86973], [92.44063, 24.86959], [92.44063, 24.86943], [92.44041, 24.8693], [92.44012, 24.86918], [92.43975, 24.86871], [92.43955, 24.86816], [92.43953, 24.86762], [92.43958, 24.86702], [92.43989, 24.86627], [92.44042, 24.86544], [92.44091, 24.86479], [92.44131, 24.86389], [92.44157, 24.86349], [92.44168, 24.86304], [92.44166, 24.8624], [92.4415, 24.86154], [92.44104, 24.85987], [92.44068, 24.859], [92.43962, 24.85714], [92.43925, 24.85679], [92.43806, 24.85607], [92.43682, 24.85557], [92.43555, 24.85515], [92.43433, 24.8549], [92.43206, 24.85471], [92.43108, 24.85459], [92.43056, 24.85448], [92.43017, 24.85426], [92.42877, 24.85403], [92.42661, 24.85346], [92.42485, 24.85313], [92.42351, 24.85315], [92.42244, 24.85334], [92.42122, 24.8538], [92.42, 24.85445], [92.4184, 24.85556], [92.41752, 24.85603], [92.41538, 24.85734], [92.41413, 24.85838], [92.41344, 24.85875], [92.41268, 24.85908], [92.41203, 24.85927], [92.41101, 24.85946], [92.41002, 24.85953], [92.40933, 24.85951], [92.40843, 24.85938], [92.40728, 24.85935], [92.40645, 24.85915], [92.4056, 24.859], [92.40484, 24.85875], [92.40433, 24.85848], [92.40364, 24.85791], [92.40296, 24.85713], [92.40243, 24.85645], [92.40214, 24.85585], [92.40204, 24.85515], [92.40203, 24.85459], [92.40216, 24.85342], [92.40259, 24.85139], [92.40263, 24.8509], [92.40257, 24.85048], [92.40237, 24.84997], [92.40205, 24.84948], [92.40126, 24.84864], [92.40087, 24.84841], [92.40057, 24.84831], [92.40013, 24.84824], [92.39973, 24.84834], [92.39889, 24.84868], [92.39838, 24.84884], [92.3979, 24.84902], [92.39694, 24.84931], [92.39603, 24.84964], [92.39543, 24.84991], [92.39482, 24.85007], [92.39402, 24.8502], [92.39344, 24.85025], [92.38979, 24.85136], [92.3894, 24.85143], [92.38868, 24.85148], [92.38724, 24.85171], [92.38683, 24.85175], [92.386, 24.85176], [92.38508, 24.85188], [92.384, 24.85216], [92.38365, 24.85242], [92.38306, 24.85322], [92.38264, 24.85374], [92.38234, 24.85419], [92.3823, 24.85447], [92.38242, 24.85543], [92.38297, 24.85705], [92.38298, 24.85738], [92.38283, 24.85848], [92.38237, 24.8594], [92.382, 24.85983], [92.38058, 24.86089], [92.37971, 24.86138], [92.3792, 24.86161], [92.3789, 24.86178], [92.37859, 24.86204], [92.3782, 24.8622], [92.37775, 24.86231], [92.37753, 24.86243], [92.3774, 24.86258], [92.37733, 24.8628], [92.37731, 24.86305], [92.37676, 24.86382], [92.37661, 24.86422], [92.37657, 24.86462], [92.37655, 24.86592], [92.37669, 24.86706], [92.37672, 24.86799], [92.37665, 24.86891], [92.37641, 24.8698], [92.3758, 24.87161], [92.37545, 24.87231], [92.37504, 24.8729], [92.3747, 24.87332], [92.37438, 24.87354], [92.374, 24.87367], [92.37374, 24.87382], [92.37343, 24.87414], [92.37304, 24.87448], [92.37189, 24.87477], [92.37104, 24.87457], [92.37028, 24.8743], [92.36946, 24.87381], [92.36852, 24.87315], [92.36764, 24.87244], [92.36717, 24.87213], [92.3669, 24.87206], [92.36628, 24.87198], [92.36515, 24.8716], [92.36481, 24.87153], [92.36453, 24.87152], [92.36369, 24.87165], [92.36331, 24.87152], [92.36264, 24.87172], [92.3625, 24.8718], [92.36246, 24.87195], [92.36189, 24.87266], [92.36175, 24.87297], [92.3617, 24.87339], [92.3615, 24.87442], [92.36151, 24.87561], [92.3613, 24.87617], [92.36096, 24.87756], [92.36067, 24.87824], [92.3603, 24.87862], [92.35998, 24.87883], [92.35944, 24.87897], [92.35924, 24.87896], [92.35906, 24.8789], [92.35808, 24.87842], [92.35749, 24.87825], [92.35697, 24.87818], [92.35628, 24.87821], [92.3558, 24.8783], [92.35506, 24.87852], [92.35471, 24.87865], [92.35406, 24.87924], [92.35358, 24.87978], [92.35319, 24.88034], [92.35311, 24.8805], [92.35305, 24.88095], [92.35292, 24.88129], [92.35074, 24.88575], [92.34966, 24.88853], [92.34897, 24.8897], [92.34618, 24.89293], [92.34559, 24.89357], [92.34545, 24.89366], [92.34535, 24.89368], [92.34492, 24.89363], [92.3447, 24.89345], [92.34455, 24.89313], [92.34446, 24.89264], [92.34449, 24.89201], [92.34461, 24.89128], [92.34542, 24.88839], [92.34564, 24.88738], [92.34588, 24.88551], [92.34588, 24.88495], [92.34583, 24.88447], [92.34584, 24.88435], [92.34599, 24.88396], [92.34598, 24.88353], [92.34589, 24.88314], [92.34576, 24.88223], [92.34563, 24.8818], [92.34535, 24.88119], [92.34532, 24.88099], [92.34523, 24.88079], [92.34501, 24.88045], [92.34396, 24.87903], [92.34365, 24.87876], [92.34342, 24.87864], [92.3431, 24.87842], [92.34279, 24.87825], [92.34184, 24.87789], [92.34172, 24.8778], [92.3411, 24.87775], [92.34091, 24.87764], [92.34068, 24.87746], [92.34049, 24.87737], [92.34027, 24.87733], [92.34001, 24.87735], [92.33977, 24.87741], [92.3389, 24.87784], [92.33779, 24.87866], [92.33573, 24.88104], [92.33443, 24.88271], [92.33176, 24.88524], [92.33005, 24.88666], [92.32909, 24.88762], [92.32846, 24.88832], [92.32774, 24.88951], [92.32748, 24.89022], [92.32736, 24.89075], [92.32718, 24.89117], [92.32708, 24.89151], [92.32696, 24.89228], [92.32694, 24.89256], [92.32701, 24.89411], [92.32696, 24.89464], [92.32667, 24.89552], [92.3263, 24.89607], [92.32617, 24.8962], [92.32603, 24.89628], [92.32588, 24.89646], [92.32565, 24.89657], [92.3253, 24.89657], [92.32501, 24.89676], [92.32464, 24.89693], [92.32432, 24.89699], [92.32393, 24.89695], [92.32136, 24.89597], [92.32025, 24.89549], [92.32001, 24.89537], [92.31968, 24.89505], [92.31919, 24.89464], [92.31881, 24.89448], [92.31851, 24.89442], [92.31732, 24.89441], [92.31632, 24.8945], [92.31566, 24.89469], [92.31499, 24.89508], [92.31471, 24.89545], [92.31456, 24.89575], [92.31414, 24.89638], [92.31409, 24.8966], [92.31386, 24.89691], [92.31339, 24.89725], [92.31314, 24.89754], [92.3125, 24.89815], [92.31128, 24.89904], [92.31044, 24.89955], [92.30767, 24.90106], [92.3068, 24.90158], [92.30632, 24.90191], [92.30612, 24.90216], [92.30595, 24.90264], [92.30586, 24.9033], [92.30586, 24.90368], [92.30609, 24.90489], [92.30621, 24.90576], [92.30615, 24.90598], [92.30599, 24.90626], [92.30595, 24.90641], [92.30593, 24.90797], [92.30586, 24.90834], [92.30554, 24.90946], [92.30536, 24.9097], [92.30443, 24.91019], [92.30443, 24.91028], [92.30464, 24.91041], [92.30472, 24.91051], [92.30459, 24.91091], [92.30455, 24.91115], [92.30426, 24.91159], [92.30419, 24.91185], [92.30422, 24.91206], [92.30414, 24.91219], [92.30377, 24.91258], [92.30262, 24.91368], [92.30181, 24.91427], [92.29991, 24.91526], [92.29816, 24.91599], [92.29705, 24.91632], [92.29598, 24.91649], [92.29513, 24.91646], [92.29433, 24.91635], [92.29368, 24.91614], [92.29312, 24.91591], [92.29251, 24.91555], [92.29056, 24.91399], [92.29017, 24.91373], [92.28934, 24.9134], [92.2882, 24.91289], [92.28707, 24.91232], [92.28591, 24.91152], [92.28493, 24.91078], [92.28411, 24.90998], [92.2834, 24.90898], [92.28324, 24.90858], [92.28317, 24.9078], [92.28297, 24.90724], [92.28278, 24.90693], [92.2822, 24.90636], [92.28142, 24.90575], [92.28109, 24.90562], [92.28074, 24.90552], [92.28029, 24.9055], [92.27986, 24.90554], [92.27791, 24.90557], [92.27726, 24.90551], [92.27631, 24.9053], [92.27332, 24.90487], [92.27171, 24.90477], [92.27081, 24.90481], [92.27041, 24.90484], [92.26759, 24.90583], [92.26432, 24.90682], [92.26311, 24.9071], [92.2621, 24.90719], [92.26119, 24.9072], [92.26031, 24.90715], [92.25941, 24.90716], [92.25859, 24.90706], [92.25787, 24.90691], [92.25755, 24.90691], [92.25486, 24.9073], [92.25276, 24.90777], [92.25172, 24.90814], [92.25068, 24.9084], [92.25016, 24.90843], [92.24871, 24.90877], [92.24789, 24.90888], [92.24693, 24.90888], [92.24604, 24.90879], [92.24502, 24.90856], [92.24427, 24.90826], [92.24357, 24.90789], [92.24291, 24.90747], [92.2426, 24.90715], [92.24239, 24.90667], [92.24219, 24.9055], [92.24212, 24.90531], [92.24176, 24.90504], [92.24155, 24.90494], [92.24118, 24.9049], [92.24053, 24.90496], [92.24041, 24.90489], [92.24001, 24.90433], [92.2398, 24.90421], [92.23842, 24.90367], [92.23706, 24.90328], [92.2367, 24.90299], [92.23628, 24.90297], [92.23569, 24.90274], [92.23533, 24.90254], [92.23523, 24.90244], [92.23524, 24.90212], [92.2353, 24.90185], [92.23526, 24.90167], [92.23479, 24.90134], [92.23468, 24.90113], [92.23506, 24.90109], [92.23544, 24.90098], [92.23621, 24.90085], [92.23693, 24.90068], [92.23715, 24.90058], [92.23729, 24.90041], [92.2377, 24.89979], [92.2378, 24.89954], [92.23763, 24.89692], [92.23788, 24.89626], [92.23807, 24.89543], [92.23752, 24.89443], [92.23756, 24.89425], [92.23773, 24.89401], [92.23818, 24.89359], [92.2383, 24.89358], [92.23928, 24.89364], [92.23983, 24.89361], [92.24038, 24.89335], [92.24068, 24.89316], [92.24086, 24.89296], [92.24106, 24.8919], [92.24129, 24.89142], [92.24146, 24.89123], [92.2419, 24.89101], [92.24345, 24.89056], [92.24367, 24.89052], [92.24392, 24.89058], [92.24431, 24.89059], [92.2451, 24.89041], [92.24678, 24.8897], [92.24752, 24.88928], [92.24797, 24.88909], [92.24839, 24.88873], [92.24877, 24.88821], [92.24946, 24.88666], [92.24958, 24.88635], [92.24969, 24.88515], [92.24965, 24.88496], [92.24926, 24.88394], [92.24887, 24.88314], [92.24898, 24.8827], [92.24902, 24.88205], [92.24912, 24.88147], [92.24916, 24.88128], [92.24924, 24.88115], [92.24927, 24.88096], [92.24918, 24.88046], [92.249, 24.8801], [92.24877, 24.87942], [92.24853, 24.8781], [92.24846, 24.87682], [92.24854, 24.87538], [92.24853, 24.87404], [92.24873, 24.87237], [92.24869, 24.87208], [92.24874, 24.87198], [92.24873, 24.87163], [92.24879, 24.87152], [92.24928, 24.87122], [92.24935, 24.87108], [92.24949, 24.8706], [92.24941, 24.8699], [92.24928, 24.86972], [92.24867, 24.86928], [92.24848, 24.86906], [92.24778, 24.86703], [92.24705, 24.86629], [92.24687, 24.86616], [92.24597, 24.86586], [92.24579, 24.86581], [92.24561, 24.8658], [92.24531, 24.86585], [92.24489, 24.86597], [92.24365, 24.86636], [92.24245, 24.8669], [92.24108, 24.86682], [92.24015, 24.86682], [92.23987, 24.8668], [92.23923, 24.86667], [92.2378, 24.8636], [92.23718, 24.86207], [92.23713, 24.86185], [92.23716, 24.86165], [92.23722, 24.86148], [92.23737, 24.86134], [92.23802, 24.86112], [92.23853, 24.86106], [92.23876, 24.86099], [92.23947, 24.86063], [92.24003, 24.86029], [92.24098, 24.85944], [92.2414, 24.859], [92.24144, 24.85865], [92.24142, 24.85693], [92.24144, 24.85438], [92.24149, 24.85406], [92.24161, 24.85358], [92.2429, 24.85082], [92.24347, 24.84975], [92.24351, 24.84911], [92.24339, 24.84883], [92.24293, 24.84813], [92.24279, 24.84746], [92.24283, 24.84718], [92.24365, 24.84527], [92.24427, 24.84335], [92.24441, 24.84278], [92.24449, 24.84267], [92.24504, 24.84237], [92.24607, 24.84202], [92.24635, 24.84188], [92.24699, 24.84148], [92.24803, 24.84147], [92.24865, 24.84136], [92.25105, 24.84114], [92.25146, 24.84116], [92.25203, 24.84143], [92.25224, 24.84146], [92.25292, 24.8413], [92.25299, 24.84127], [92.25305, 24.84119], [92.25313, 24.84076], [92.25323, 24.84053], [92.25342, 24.84021], [92.25354, 24.84011], [92.25367, 24.84008], [92.25456, 24.84011], [92.25578, 24.84013], [92.2561, 24.84003], [92.25638, 24.83984], [92.25647, 24.83973], [92.2568, 24.83916], [92.25688, 24.83901], [92.2569, 24.83886], [92.25682, 24.83842], [92.25677, 24.8383], [92.25666, 24.83818], [92.25612, 24.83778], [92.25563, 24.83729], [92.25535, 24.83719], [92.25495, 24.83713], [92.25445, 24.83695], [92.25308, 24.83621], [92.25301, 24.83611], [92.25297, 24.83594], [92.25299, 24.83566], [92.2533, 24.83461], [92.25354, 24.83415], [92.25388, 24.83371], [92.25407, 24.83354], [92.25428, 24.83348], [92.2557, 24.83322], [92.25988, 24.83251], [92.26209, 24.83239], [92.2633, 24.83212], [92.26507, 24.83214], [92.26675, 24.83179], [92.26712, 24.83178], [92.26749, 24.83181], [92.26801, 24.83196], [92.26848, 24.83205], [92.26909, 24.8321], [92.26931, 24.83211], [92.26989, 24.83204], [92.26998, 24.83199], [92.27035, 24.83163], [92.27067, 24.83135], [92.27098, 24.83113], [92.27126, 24.83084], [92.27173, 24.83062], [92.27255, 24.83007], [92.27308, 24.82968], [92.27372, 24.82913], [92.27452, 24.82877], [92.27462, 24.82862], [92.27467, 24.82796], [92.27437, 24.82676], [92.27426, 24.82662], [92.27421, 24.82645], [92.27431, 24.8263], [92.27452, 24.82614], [92.27458, 24.82604], [92.27461, 24.82532], [92.27469, 24.82485], [92.27479, 24.82474], [92.27514, 24.82459], [92.27519, 24.82449], [92.27521, 24.82435], [92.27519, 24.82415], [92.27515, 24.82402], [92.27483, 24.82361], [92.2748, 24.82334], [92.27466, 24.82292], [92.27465, 24.82268], [92.27491, 24.8217], [92.27497, 24.8216], [92.27516, 24.82151], [92.27544, 24.8215], [92.2759, 24.82156], [92.27599, 24.82153], [92.27606, 24.82145], [92.27621, 24.82108], [92.27676, 24.82046], [92.27683, 24.82033], [92.27701, 24.81973], [92.27716, 24.81935], [92.27714, 24.81898], [92.27719, 24.81882], [92.27725, 24.81876], [92.27767, 24.81856], [92.27803, 24.81833], [92.27817, 24.81827], [92.27823, 24.81821], [92.27824, 24.81813], [92.27807, 24.81789], [92.27801, 24.81773], [92.27801, 24.81766], [92.27807, 24.81758], [92.27831, 24.81745], [92.27835, 24.81739], [92.27835, 24.81729], [92.27831, 24.81718], [92.27812, 24.8169], [92.27809, 24.81636], [92.27812, 24.81577], [92.27805, 24.81562], [92.27787, 24.81545], [92.27756, 24.81506], [92.27735, 24.81473], [92.27708, 24.81442], [92.27686, 24.81392], [92.27683, 24.8137], [92.27687, 24.81348], [92.27708, 24.81328], [92.2776, 24.81291], [92.27777, 24.81277], [92.27782, 24.81269], [92.27774, 24.81158], [92.27782, 24.81064], [92.27788, 24.81033], [92.27789, 24.80998], [92.27782, 24.80944], [92.27773, 24.80913], [92.27753, 24.8089], [92.27709, 24.80848], [92.2769, 24.80834], [92.27676, 24.80817], [92.27665, 24.80788], [92.27664, 24.80772], [92.27657, 24.80757], [92.27607, 24.80675], [92.27595, 24.80622], [92.27593, 24.80577], [92.27636, 24.80521], [92.27639, 24.80517], [92.27685, 24.80426], [92.27691, 24.80393], [92.27695, 24.80298], [92.27693, 24.80251], [92.27744, 24.80228], [92.27759, 24.80216], [92.27774, 24.80199], [92.27801, 24.80179], [92.27815, 24.80164], [92.27831, 24.80132], [92.2783, 24.801], [92.27811, 24.80035], [92.27796, 24.80008], [92.27773, 24.79987], [92.27761, 24.79949], [92.27766, 24.79941], [92.2778, 24.79935], [92.27869, 24.79907], [92.27952, 24.79888], [92.28018, 24.79864], [92.28035, 24.79852], [92.28044, 24.79842], [92.28062, 24.79782], [92.28105, 24.79726], [92.28169, 24.79656], [92.28168, 24.79644], [92.28146, 24.79626], [92.28143, 24.79608], [92.28144, 24.79589], [92.28158, 24.79559], [92.28158, 24.7955], [92.28146, 24.79534], [92.2814, 24.79517], [92.28079, 24.79278], [92.27918, 24.79062], [92.27768, 24.789], [92.27649, 24.78686], [92.276, 24.78605], [92.27566, 24.78533], [92.27523, 24.78457], [92.27461, 24.7838], [92.27403, 24.78292], [92.2732, 24.78075], [92.27136, 24.77765], [92.27068, 24.77616], [92.27016, 24.77544], [92.26967, 24.77463], [92.26919, 24.77366], [92.26894, 24.77276], [92.26886, 24.76738], [92.26912, 24.76606], [92.26943, 24.76494], [92.26853, 24.76345], [92.26853, 24.76341], [92.26889, 24.76195], [92.26944, 24.76075], [92.26962, 24.76049], [92.2698, 24.75989], [92.2698, 24.75963], [92.26921, 24.75849], [92.26911, 24.75785], [92.26909, 24.75657], [92.26932, 24.75588], [92.2694, 24.75532], [92.26963, 24.7549], [92.27028, 24.75433], [92.27075, 24.75403], [92.27168, 24.7535], [92.27233, 24.7532], [92.27299, 24.75297], [92.27346, 24.75288], [92.27421, 24.75258], [92.27448, 24.7518], [92.2749, 24.75082], [92.27545, 24.75055], [92.27571, 24.75025], [92.27586, 24.74987], [92.27582, 24.74939], [92.27576, 24.74913], [92.27556, 24.74898], [92.27532, 24.74863], [92.27558, 24.7483], [92.27564, 24.74779], [92.27576, 24.74756], [92.27664, 24.7474], [92.27706, 24.74707], [92.27729, 24.74674], [92.27774, 24.74644], [92.27849, 24.7464], [92.27907, 24.74642], [92.27969, 24.74623], [92.28099, 24.74571], [92.28135, 24.74562], [92.28121, 24.7453], [92.28126, 24.7452], [92.28165, 24.74497], [92.28215, 24.74475], [92.28227, 24.74455], [92.28235, 24.74449], [92.28263, 24.74441], [92.28293, 24.74443], [92.28299, 24.74439], [92.283, 24.74434], [92.28289, 24.74419], [92.28288, 24.74403], [92.28295, 24.74394], [92.28336, 24.74396], [92.28346, 24.74367], [92.28355, 24.74354], [92.28375, 24.74356], [92.28383, 24.74353], [92.2847, 24.74307], [92.28477, 24.74299], [92.28481, 24.74282], [92.28478, 24.74275], [92.28451, 24.7427], [92.28446, 24.74263], [92.28446, 24.74245], [92.28454, 24.74236], [92.2849, 24.74223], [92.28509, 24.74223], [92.28525, 24.74237], [92.28575, 24.74267], [92.28594, 24.74292], [92.28627, 24.74291], [92.28638, 24.74298], [92.2864, 24.74335], [92.28647, 24.74339], [92.28665, 24.7434], [92.28672, 24.74344], [92.28701, 24.74376], [92.28721, 24.74388], [92.28744, 24.74396], [92.28774, 24.74423], [92.28789, 24.74425], [92.28827, 24.74416], [92.28856, 24.74423], [92.28904, 24.74451], [92.28931, 24.74482], [92.28944, 24.74491], [92.2896, 24.74487], [92.28985, 24.7447], [92.28985, 24.74464], [92.28963, 24.74397], [92.28965, 24.7438], [92.28978, 24.7437], [92.28996, 24.74367], [92.29008, 24.7437], [92.29021, 24.74383], [92.29039, 24.7439], [92.29053, 24.74389], [92.29068, 24.74382], [92.29079, 24.74383], [92.29101, 24.74397], [92.29113, 24.74399], [92.29157, 24.74389], [92.29166, 24.74364], [92.29197, 24.74346], [92.29212, 24.74328], [92.2922, 24.74311], [92.2922, 24.74302], [92.29212, 24.74291], [92.29186, 24.74268], [92.29162, 24.74234], [92.29108, 24.74176], [92.29101, 24.74164], [92.29098, 24.74149], [92.29099, 24.7414], [92.29105, 24.74132], [92.29128, 24.74119], [92.29156, 24.74095], [92.29176, 24.74085], [92.29269, 24.74066], [92.29286, 24.74058], [92.29322, 24.74031], [92.29334, 24.74006], [92.2937, 24.73971], [92.29374, 24.73941], [92.29365, 24.73915], [92.29371, 24.73896], [92.29384, 24.73878], [92.29401, 24.73861], [92.2942, 24.73847], [92.29475, 24.73831], [92.29545, 24.73818], [92.29555, 24.73818], [92.29582, 24.73833], [92.29622, 24.7384], [92.29656, 24.73796], [92.29775, 24.7372], [92.2978, 24.73707], [92.29777, 24.73666], [92.29792, 24.73639], [92.29788, 24.73623], [92.2977, 24.73599], [92.29772, 24.73588], [92.2978, 24.73573], [92.29766, 24.73527], [92.29743, 24.73505], [92.29728, 24.73478], [92.29729, 24.73453], [92.29721, 24.73421], [92.29699, 24.73391], [92.29675, 24.73374], [92.29669, 24.73364], [92.29669, 24.73349], [92.29663, 24.73339], [92.29611, 24.73289], [92.29584, 24.73223], [92.29569, 24.73204], [92.29546, 24.73184], [92.29531, 24.73146], [92.29483, 24.73093], [92.29474, 24.73073], [92.29474, 24.73046], [92.2947, 24.73032], [92.29463, 24.73019], [92.29433, 24.72985], [92.29423, 24.72968], [92.29419, 24.72957], [92.29409, 24.72902], [92.29383, 24.72853], [92.29363, 24.72794], [92.29364, 24.72787], [92.2939, 24.72771], [92.29394, 24.72761], [92.29388, 24.72758], [92.29356, 24.72759], [92.29348, 24.72755], [92.29346, 24.72748], [92.29357, 24.72724], [92.2935, 24.72711], [92.29354, 24.72674], [92.29344, 24.72666], [92.29316, 24.72659], [92.29311, 24.72654], [92.2931, 24.72642], [92.29319, 24.72613], [92.29308, 24.72599], [92.29293, 24.7259], [92.29291, 24.72585], [92.29295, 24.7256], [92.29288, 24.72541], [92.29279, 24.72535], [92.29257, 24.7253], [92.29235, 24.72521], [92.29225, 24.7251], [92.29216, 24.72487], [92.29181, 24.72468], [92.29149, 24.72439], [92.29146, 24.72433], [92.29151, 24.72417], [92.29151, 24.72397], [92.29142, 24.72389], [92.29117, 24.7238], [92.29106, 24.72368], [92.291, 24.72341], [92.29072, 24.72298], [92.29044, 24.7227], [92.29015, 24.72251], [92.29003, 24.72238], [92.28968, 24.72218], [92.28957, 24.72199], [92.28949, 24.72167], [92.28927, 24.72156], [92.28918, 24.72145], [92.28907, 24.72119], [92.28885, 24.72101], [92.28865, 24.7209], [92.28853, 24.72072], [92.28848, 24.72057], [92.28824, 24.7203], [92.28809, 24.72025], [92.28793, 24.72014], [92.28775, 24.7199], [92.28757, 24.71984], [92.28743, 24.71974], [92.28735, 24.71956], [92.28733, 24.71937], [92.287, 24.71878], [92.28696, 24.71849], [92.28665, 24.71829], [92.2865, 24.71802], [92.28624, 24.71792], [92.28616, 24.71784], [92.2861, 24.71759], [92.28583, 24.71742], [92.28567, 24.71724], [92.28542, 24.71714], [92.28518, 24.71694], [92.28494, 24.71683], [92.28483, 24.71655], [92.28442, 24.71628], [92.28437, 24.71586], [92.28411, 24.71573], [92.28399, 24.7154], [92.28372, 24.71525], [92.28362, 24.7151], [92.28356, 24.71486], [92.28306, 24.71462], [92.28292, 24.71437], [92.28268, 24.71413], [92.28256, 24.71387], [92.28205, 24.71327], [92.28195, 24.71303], [92.28187, 24.71292], [92.2817, 24.71285], [92.28129, 24.71281], [92.28102, 24.7126], [92.28098, 24.71253], [92.28107, 24.71236], [92.28109, 24.71219], [92.28108, 24.71209], [92.28102, 24.71198], [92.28068, 24.71175], [92.28037, 24.71137], [92.28033, 24.71128], [92.27999, 24.71122], [92.27956, 24.71104], [92.27925, 24.71094], [92.27897, 24.71071], [92.27857, 24.7105], [92.27823, 24.71023], [92.27813, 24.71012], [92.27812, 24.71005], [92.27825, 24.7097], [92.27825, 24.70958], [92.27806, 24.70933], [92.27796, 24.70929], [92.27762, 24.7093], [92.27727, 24.7092], [92.27727, 24.70908], [92.27737, 24.70888], [92.27724, 24.70853], [92.27754, 24.70767], [92.27766, 24.70692], [92.2776, 24.70667], [92.27746, 24.70634], [92.27717, 24.70637], [92.27704, 24.70633], [92.27704, 24.70626], [92.27711, 24.70614], [92.27709, 24.70608], [92.27695, 24.70596], [92.27666, 24.7056], [92.27661, 24.70548], [92.27655, 24.70504], [92.27613, 24.70486], [92.27602, 24.70477], [92.27592, 24.70444], [92.27576, 24.70437], [92.2755, 24.70434], [92.27525, 24.70409], [92.27518, 24.70409], [92.275, 24.70425], [92.27493, 24.70441], [92.27478, 24.70451], [92.27468, 24.70454], [92.27463, 24.70452], [92.27457, 24.70442], [92.27449, 24.70415], [92.27434, 24.70392], [92.27419, 24.70354], [92.27383, 24.70326], [92.27374, 24.70316], [92.27368, 24.70303], [92.27365, 24.70293], [92.27365, 24.70254], [92.27341, 24.70229], [92.27341, 24.70195], [92.27318, 24.70169], [92.27303, 24.7013], [92.27298, 24.70103], [92.27255, 24.70062], [92.27228, 24.70055], [92.27211, 24.70028], [92.27185, 24.70013], [92.27167, 24.6999], [92.27165, 24.69978], [92.2717, 24.69966], [92.2718, 24.69949], [92.27199, 24.69927], [92.27199, 24.69902], [92.27192, 24.69863], [92.27191, 24.69838], [92.27184, 24.69829], [92.27154, 24.69829], [92.27144, 24.69824], [92.27139, 24.69813], [92.27132, 24.69742], [92.27109, 24.69688], [92.27099, 24.69686], [92.27082, 24.69718], [92.27064, 24.69728], [92.27049, 24.69729], [92.27043, 24.69723], [92.27039, 24.6971], [92.27036, 24.69659], [92.27021, 24.69622], [92.27007, 24.69608], [92.2699, 24.69597], [92.26984, 24.69585], [92.26981, 24.69551], [92.26959, 24.69505], [92.26944, 24.69453], [92.26912, 24.69432], [92.26893, 24.69404], [92.26867, 24.69395], [92.26834, 24.69348], [92.26834, 24.69311], [92.26824, 24.69293], [92.26811, 24.69277], [92.26786, 24.69251], [92.26769, 24.69227], [92.26769, 24.69204], [92.26755, 24.69147], [92.26763, 24.69112], [92.2676, 24.69015], [92.26766, 24.68999], [92.26764, 24.68991], [92.26756, 24.68985], [92.26732, 24.68984], [92.26727, 24.68979], [92.26728, 24.6893], [92.26666, 24.68871], [92.26654, 24.68862], [92.26639, 24.68859], [92.26623, 24.68863], [92.26552, 24.68905], [92.26508, 24.68908], [92.26445, 24.68886], [92.26394, 24.68884], [92.26378, 24.68888], [92.26333, 24.68926], [92.26326, 24.68929], [92.26308, 24.68927], [92.26292, 24.68911], [92.2629, 24.68884], [92.26316, 24.68776], [92.26314, 24.68755], [92.26239, 24.68753], [92.26233, 24.68749], [92.26234, 24.6874], [92.2625, 24.68719], [92.2625, 24.68712], [92.26211, 24.68651], [92.26187, 24.68654], [92.2615, 24.68668], [92.26139, 24.68667], [92.26131, 24.68663], [92.2613, 24.68653], [92.26133, 24.68648], [92.26156, 24.68632], [92.26168, 24.68613], [92.26168, 24.68601], [92.26162, 24.68593], [92.2613, 24.6859], [92.2612, 24.68586], [92.26111, 24.68574], [92.26103, 24.68549], [92.26077, 24.685], [92.26079, 24.68479], [92.26097, 24.68429], [92.26095, 24.68407], [92.26086, 24.68395], [92.26085, 24.68362], [92.2608, 24.68356], [92.26069, 24.68352], [92.2604, 24.68349], [92.26029, 24.68341], [92.26023, 24.68324], [92.26022, 24.68301], [92.26034, 24.68245], [92.26042, 24.68229], [92.2606, 24.68218], [92.26074, 24.68214], [92.26081, 24.68199], [92.26081, 24.68191], [92.2607, 24.68175], [92.26069, 24.68163], [92.26081, 24.68119], [92.26077, 24.68096], [92.26047, 24.68048], [92.26014, 24.67954], [92.26012, 24.67908], [92.26028, 24.67873], [92.26026, 24.67798], [92.26017, 24.67774], [92.26005, 24.67769], [92.25963, 24.67767], [92.2592, 24.67742], [92.25909, 24.67728], [92.25869, 24.67715], [92.25855, 24.67702], [92.25855, 24.67694], [92.25867, 24.6768], [92.25872, 24.67668], [92.25871, 24.67645], [92.25885, 24.67616], [92.25907, 24.67599], [92.25957, 24.67543], [92.25991, 24.67526], [92.25997, 24.67528], [92.2601, 24.67516], [92.26017, 24.67481], [92.2603, 24.67463], [92.26047, 24.67417], [92.26045, 24.67357], [92.26067, 24.67304], [92.26068, 24.67271], [92.26092, 24.67253], [92.26098, 24.67242], [92.26117, 24.67177], [92.26123, 24.67164], [92.26135, 24.67155], [92.26164, 24.67148], [92.26169, 24.67145], [92.26176, 24.67133], [92.26174, 24.6711], [92.26168, 24.67092], [92.26173, 24.67059], [92.26166, 24.67043], [92.26164, 24.67015], [92.26152, 24.67003], [92.26149, 24.66997], [92.2615, 24.66977], [92.26145, 24.66956], [92.26126, 24.66942], [92.26122, 24.66937], [92.26119, 24.66918], [92.26111, 24.66909], [92.2606, 24.66888], [92.26058, 24.66874], [92.26067, 24.66834], [92.2606, 24.66819], [92.26044, 24.66811], [92.26003, 24.66808], [92.25996, 24.66805], [92.2599, 24.66794], [92.25991, 24.66777], [92.25996, 24.66769], [92.26021, 24.66752], [92.26024, 24.66741], [92.26008, 24.66699], [92.25982, 24.66692], [92.25981, 24.66677], [92.25991, 24.66653], [92.25989, 24.66646], [92.25953, 24.66625], [92.25947, 24.66608], [92.25947, 24.66594], [92.25956, 24.66574], [92.25968, 24.66566], [92.25976, 24.66553], [92.25981, 24.66527], [92.25978, 24.66511], [92.25943, 24.66466], [92.25918, 24.66426], [92.259, 24.66389], [92.25892, 24.66381], [92.25864, 24.66368], [92.25854, 24.66347], [92.25843, 24.66334], [92.2583, 24.66331], [92.25818, 24.66332], [92.25765, 24.66344], [92.25756, 24.66344], [92.25748, 24.66339], [92.25743, 24.66332], [92.25734, 24.66304], [92.25738, 24.66275], [92.25736, 24.6625], [92.25727, 24.66228], [92.25719, 24.66218], [92.25712, 24.66216], [92.25677, 24.6621], [92.25664, 24.66171], [92.256, 24.66135], [92.25574, 24.6608], [92.25573, 24.66066], [92.25579, 24.66048], [92.2558, 24.66035], [92.25575, 24.66024], [92.25574, 24.65997], [92.25579, 24.65983], [92.2558, 24.65967], [92.25579, 24.65958], [92.25564, 24.65939], [92.25535, 24.65922], [92.25439, 24.65922], [92.25408, 24.65898], [92.25403, 24.65899], [92.2539, 24.65915], [92.25375, 24.65922], [92.25313, 24.65938], [92.25299, 24.65935], [92.25257, 24.65893], [92.25232, 24.65859], [92.25183, 24.65802], [92.25152, 24.6576], [92.25061, 24.65682], [92.25015, 24.65682], [92.24992, 24.65688], [92.24965, 24.65702], [92.2496, 24.65731], [92.24952, 24.65737], [92.24937, 24.65738], [92.24914, 24.65702], [92.24912, 24.65686], [92.24912, 24.65657], [92.24892, 24.65628], [92.24893, 24.65584], [92.24883, 24.65531], [92.24869, 24.65519], [92.24861, 24.65504], [92.24865, 24.65492], [92.24871, 24.65489], [92.24903, 24.65486], [92.24915, 24.65481], [92.24935, 24.65456], [92.24934, 24.65447], [92.24919, 24.65436], [92.24916, 24.6542], [92.24916, 24.65401], [92.24921, 24.65385], [92.24919, 24.65348], [92.2493, 24.65325], [92.2493, 24.65303], [92.24926, 24.65291], [92.2491, 24.65282], [92.24904, 24.65275], [92.24902, 24.65267], [92.24905, 24.65253], [92.24928, 24.65198], [92.2492, 24.65168], [92.24921, 24.65157], [92.24927, 24.65148], [92.24956, 24.65134], [92.24971, 24.65133], [92.25078, 24.65144], [92.25087, 24.6515], [92.25115, 24.65182], [92.25142, 24.65195], [92.25155, 24.65195], [92.25173, 24.65185], [92.25189, 24.65182], [92.25228, 24.65183], [92.25254, 24.65175], [92.25265, 24.65158], [92.25265, 24.65151], [92.25239, 24.65143], [92.25238, 24.65138], [92.25247, 24.65123], [92.25247, 24.65116], [92.25243, 24.6511], [92.25236, 24.65107], [92.25224, 24.65108], [92.25205, 24.65119], [92.25193, 24.65117], [92.25175, 24.65108], [92.2517, 24.65102], [92.25172, 24.65087], [92.25205, 24.65052], [92.25225, 24.65038], [92.25275, 24.65016], [92.25289, 24.65015], [92.2529, 24.65003], [92.25284, 24.65], [92.25252, 24.65003], [92.25219, 24.65], [92.25215, 24.64997], [92.25215, 24.64984], [92.25221, 24.64967], [92.25267, 24.64916], [92.25281, 24.64907], [92.25339, 24.64879], [92.25371, 24.6487], [92.25381, 24.64851], [92.25382, 24.64827], [92.25389, 24.64809], [92.25389, 24.64798], [92.25374, 24.64762], [92.25342, 24.64746], [92.25307, 24.64716], [92.25295, 24.64683], [92.25281, 24.64672], [92.25249, 24.64664], [92.25246, 24.64657], [92.25241, 24.64635], [92.2524, 24.64603], [92.2525, 24.64559], [92.25211, 24.6453], [92.25204, 24.64516], [92.25204, 24.64506], [92.25235, 24.64482], [92.25259, 24.64456], [92.25268, 24.6444], [92.25267, 24.64422], [92.25246, 24.64352], [92.25214, 24.643], [92.25204, 24.64255], [92.25198, 24.64241], [92.25158, 24.6422], [92.2515, 24.64203], [92.25149, 24.64185], [92.25144, 24.64173], [92.25127, 24.64161], [92.25117, 24.64147], [92.25112, 24.64131], [92.25114, 24.6411], [92.25146, 24.64084], [92.25151, 24.64076], [92.25147, 24.64066], [92.25131, 24.64054], [92.25102, 24.64045], [92.25093, 24.64028], [92.25111, 24.63967], [92.25119, 24.63955], [92.25127, 24.63946], [92.25155, 24.63933], [92.25161, 24.63924], [92.25159, 24.63904], [92.25147, 24.63893], [92.25158, 24.63829], [92.25155, 24.638], [92.25164, 24.63775], [92.25163, 24.63759], [92.25152, 24.63739], [92.25134, 24.6373], [92.25113, 24.63728], [92.25097, 24.63683], [92.25062, 24.63656], [92.25061, 24.63637], [92.25067, 24.63616], [92.25038, 24.63592], [92.25025, 24.63537], [92.25031, 24.63506], [92.2503, 24.63489], [92.25044, 24.6347], [92.25072, 24.63452], [92.25077, 24.63442], [92.25075, 24.63412], [92.25077, 24.63404], [92.25087, 24.63393], [92.25108, 24.63384], [92.25114, 24.63379], [92.25115, 24.63372], [92.25111, 24.6336], [92.25083, 24.63355], [92.25065, 24.63345], [92.25015, 24.63282], [92.25006, 24.63265], [92.25002, 24.63261], [92.24978, 24.63252], [92.24962, 24.63235], [92.2497, 24.63192], [92.24972, 24.63135], [92.24967, 24.63118], [92.24936, 24.6308], [92.24927, 24.63062], [92.24925, 24.63053], [92.24929, 24.63042], [92.2495, 24.63032], [92.24956, 24.63019], [92.24964, 24.63013], [92.24985, 24.63004], [92.25007, 24.62988], [92.25004, 24.62971], [92.24968, 24.62958], [92.24966, 24.62952], [92.24969, 24.62942], [92.24969, 24.62931], [92.24959, 24.62915], [92.24958, 24.62906], [92.24962, 24.62902], [92.25014, 24.62889], [92.25028, 24.62873], [92.25024, 24.62861], [92.24988, 24.62842], [92.24982, 24.62835], [92.24984, 24.6282], [92.24993, 24.62813], [92.25051, 24.6279], [92.25077, 24.62773], [92.25084, 24.62765], [92.25078, 24.6275], [92.25038, 24.6273], [92.24991, 24.62682], [92.24981, 24.62667], [92.24995, 24.62613], [92.25021, 24.626], [92.25026, 24.62594], [92.25027, 24.6258], [92.25022, 24.62569], [92.25012, 24.62562], [92.2496, 24.62551], [92.24945, 24.6254], [92.24941, 24.62531], [92.24943, 24.62503], [92.2495, 24.62494], [92.24952, 24.6248], [92.24952, 24.62463], [92.24945, 24.62432], [92.24946, 24.62429], [92.24977, 24.62414], [92.24986, 24.62403], [92.24979, 24.62392], [92.24966, 24.62382], [92.24957, 24.62371], [92.24925, 24.62319], [92.24926, 24.62278], [92.24913, 24.62243], [92.24906, 24.62198], [92.24913, 24.62147], [92.24905, 24.62119], [92.24909, 24.62092], [92.24902, 24.62081], [92.24872, 24.62065], [92.24864, 24.62052], [92.24864, 24.62041], [92.2488, 24.62009], [92.2488, 24.61971], [92.24867, 24.61944], [92.24874, 24.61925], [92.24872, 24.6192], [92.24862, 24.61914], [92.24823, 24.619], [92.24811, 24.6189], [92.24805, 24.61879], [92.24818, 24.61822], [92.24818, 24.61799], [92.248, 24.61775], [92.24795, 24.61763], [92.24794, 24.61712], [92.24779, 24.61661], [92.24776, 24.6163], [92.24769, 24.61623], [92.24761, 24.61622], [92.24744, 24.61612], [92.24735, 24.616], [92.24735, 24.61569], [92.24723, 24.61558], [92.24721, 24.61527], [92.24716, 24.61518], [92.24708, 24.61511], [92.24691, 24.61508], [92.24639, 24.61524], [92.24612, 24.6152], [92.24603, 24.6151], [92.24602, 24.6149], [92.24596, 24.61482], [92.24557, 24.61466], [92.24534, 24.61473], [92.24504, 24.61452], [92.24486, 24.61452], [92.24468, 24.61465], [92.24461, 24.61464], [92.24446, 24.61454], [92.2443, 24.61463], [92.24402, 24.61466], [92.24379, 24.61453], [92.24376, 24.61423], [92.24381, 24.61393], [92.24392, 24.61369], [92.24395, 24.61347], [92.24407, 24.61339], [92.24429, 24.61341], [92.24438, 24.61334], [92.24431, 24.61299], [92.24435, 24.61262], [92.24427, 24.61246], [92.24398, 24.61243], [92.24388, 24.61228], [92.24372, 24.61226], [92.24362, 24.61221], [92.24359, 24.61196], [92.24375, 24.61178], [92.24372, 24.61158], [92.24375, 24.6115], [92.24385, 24.61144], [92.24417, 24.61146], [92.24427, 24.61138], [92.24438, 24.61134], [92.24442, 24.61125], [92.24432, 24.61121], [92.24402, 24.61123], [92.24381, 24.61106], [92.2438, 24.61093], [92.24386, 24.6108], [92.24402, 24.61069], [92.24407, 24.61062], [92.24405, 24.61059], [92.24393, 24.61056], [92.24365, 24.61064], [92.24352, 24.61059], [92.2435, 24.61054], [92.24352, 24.61038], [92.24365, 24.61014], [92.24364, 24.60989], [92.24357, 24.60987], [92.24303, 24.6099], [92.24272, 24.60982], [92.24264, 24.60978], [92.24259, 24.60971], [92.24261, 24.60966], [92.24282, 24.60944], [92.24283, 24.60929], [92.24273, 24.60921], [92.24255, 24.60916], [92.24246, 24.60908], [92.24243, 24.60903], [92.2424, 24.60879], [92.24224, 24.60871], [92.24223, 24.60866], [92.2423, 24.60844], [92.2423, 24.60832], [92.24224, 24.60806], [92.24224, 24.60788], [92.24227, 24.60779], [92.24243, 24.60765], [92.24278, 24.6074], [92.24279, 24.60732], [92.24271, 24.60728], [92.24233, 24.60731], [92.24209, 24.60727], [92.24205, 24.60724], [92.24201, 24.60713], [92.24201, 24.60691], [92.24206, 24.60678], [92.242, 24.60674], [92.24166, 24.60668], [92.24156, 24.60662], [92.24146, 24.60622], [92.24143, 24.60616], [92.2413, 24.60612], [92.24122, 24.60599], [92.24155, 24.60556], [92.24147, 24.60539], [92.24146, 24.60521], [92.24135, 24.60508], [92.24103, 24.60494], [92.24076, 24.60495], [92.24049, 24.60502], [92.24042, 24.60494], [92.24035, 24.60479], [92.24033, 24.60437], [92.24024, 24.60406], [92.24027, 24.6038], [92.24013, 24.60321], [92.24011, 24.60285], [92.24019, 24.60275], [92.24057, 24.60254], [92.2406, 24.60247], [92.24042, 24.60222], [92.24036, 24.60197], [92.24018, 24.6015], [92.23987, 24.60115], [92.23988, 24.60108], [92.2401, 24.60084], [92.24016, 24.60071], [92.24008, 24.60058], [92.2399, 24.60051], [92.23963, 24.60054], [92.23938, 24.60049], [92.23924, 24.60019], [92.23924, 24.59995], [92.23921, 24.59986], [92.23898, 24.59972], [92.2388, 24.59947], [92.23878, 24.59941], [92.23889, 24.59923], [92.23905, 24.59913], [92.23949, 24.59907], [92.2395, 24.59894], [92.23942, 24.59883], [92.2391, 24.59875], [92.23905, 24.5987], [92.23902, 24.59854], [92.23912, 24.59824], [92.23885, 24.59794], [92.23884, 24.59788], [92.23888, 24.59782], [92.23902, 24.59772], [92.23904, 24.59767], [92.23904, 24.59759], [92.23899, 24.59748], [92.23888, 24.59732], [92.23881, 24.59728], [92.23851, 24.59728], [92.23827, 24.5969], [92.23829, 24.59672], [92.23849, 24.59656], [92.23866, 24.59615], [92.23894, 24.59584], [92.23899, 24.59576], [92.239, 24.59567], [92.23899, 24.59558], [92.23859, 24.59532], [92.2385, 24.59507], [92.23851, 24.59489], [92.23871, 24.59456], [92.23851, 24.59406], [92.23849, 24.59361], [92.23857, 24.59347], [92.23854, 24.59322], [92.23846, 24.59315], [92.23818, 24.5931], [92.23797, 24.59292], [92.23807, 24.59261], [92.23824, 24.59241], [92.23841, 24.59233], [92.23845, 24.59223], [92.23842, 24.59219], [92.23823, 24.59218], [92.23817, 24.59214], [92.23799, 24.59139], [92.238, 24.59118], [92.23789, 24.59102], [92.2378, 24.59062], [92.2378, 24.59039], [92.23774, 24.59028], [92.23764, 24.59024], [92.23738, 24.59031], [92.23731, 24.59029], [92.23699, 24.59011], [92.23688, 24.59002], [92.23686, 24.58997], [92.23684, 24.5895], [92.23707, 24.58922], [92.23714, 24.58896], [92.23705, 24.58881], [92.23692, 24.5887], [92.23698, 24.58818], [92.23685, 24.58765], [92.23673, 24.58736], [92.23669, 24.58709], [92.23679, 24.58696], [92.23678, 24.58684], [92.23666, 24.58657], [92.23647, 24.58632], [92.23638, 24.58613], [92.23642, 24.58575], [92.2365, 24.58559], [92.23647, 24.58538], [92.23638, 24.58523], [92.23612, 24.58513], [92.236, 24.58501], [92.23604, 24.5849], [92.23619, 24.58472], [92.23621, 24.58465], [92.23616, 24.58455], [92.236, 24.58443], [92.23599, 24.58433], [92.23603, 24.58427], [92.23628, 24.5841], [92.23619, 24.5838], [92.236, 24.58358], [92.2358, 24.58309], [92.23581, 24.58299], [92.236, 24.58285], [92.23606, 24.58278], [92.23604, 24.5827], [92.23585, 24.58254], [92.23581, 24.58242], [92.23599, 24.58226], [92.23598, 24.58221], [92.23594, 24.58215], [92.23583, 24.58209], [92.23568, 24.58169], [92.2354, 24.58145], [92.23531, 24.58127], [92.2353, 24.58113], [92.23532, 24.58095], [92.23537, 24.58077], [92.23561, 24.58044], [92.23562, 24.58037], [92.23549, 24.58013], [92.23545, 24.57996], [92.23538, 24.57945], [92.23537, 24.57885], [92.23522, 24.5783], [92.23523, 24.57815], [92.23531, 24.57797], [92.23525, 24.57731], [92.23529, 24.57724], [92.23551, 24.57706], [92.23554, 24.57698], [92.23555, 24.57683], [92.23546, 24.57643], [92.23558, 24.57554], [92.23562, 24.57542], [92.23585, 24.57513], [92.23587, 24.57498], [92.23583, 24.57481], [92.23572, 24.57475], [92.23548, 24.57472], [92.23539, 24.57466], [92.23533, 24.5746], [92.23522, 24.57429], [92.23508, 24.57418], [92.23467, 24.57399], [92.23444, 24.57372], [92.23439, 24.57347], [92.23442, 24.57328], [92.23464, 24.57311], [92.23472, 24.57265], [92.23478, 24.57257], [92.23501, 24.57241], [92.23502, 24.57223], [92.23498, 24.57218], [92.23463, 24.57199], [92.23452, 24.57187], [92.23419, 24.57129], [92.23417, 24.57078], [92.23402, 24.56984], [92.23387, 24.56932], [92.23363, 24.56872], [92.2334, 24.56768], [92.23342, 24.56755], [92.23358, 24.5673], [92.23373, 24.56667], [92.23366, 24.56586], [92.2337, 24.56553], [92.23367, 24.56522], [92.23356, 24.56494], [92.233, 24.56412], [92.23299, 24.56385], [92.23291, 24.56361], [92.23288, 24.56338], [92.2329, 24.56328], [92.23313, 24.56301], [92.23341, 24.56291], [92.23376, 24.56263], [92.23381, 24.56254], [92.23376, 24.5624], [92.2336, 24.5623], [92.23355, 24.56206], [92.2334, 24.56195], [92.23336, 24.56173], [92.23331, 24.56166], [92.23334, 24.56152], [92.23333, 24.56139], [92.23319, 24.56126], [92.23319, 24.5612], [92.23331, 24.56091], [92.23329, 24.56072], [92.23341, 24.56065], [92.23375, 24.56057], [92.23383, 24.56046], [92.23383, 24.5599], [92.23373, 24.55965], [92.2337, 24.55928], [92.23406, 24.55879], [92.23429, 24.55825], [92.23434, 24.55799], [92.23452, 24.55747], [92.2347, 24.55713], [92.2347, 24.55693], [92.2345, 24.5565], [92.23463, 24.55609], [92.2347, 24.55562], [92.23469, 24.55554], [92.23449, 24.55496], [92.23429, 24.55458], [92.23432, 24.55411], [92.23426, 24.55376], [92.23429, 24.55327], [92.23355, 24.55232], [92.23336, 24.55216], [92.23334, 24.55204], [92.23353, 24.5514], [92.23348, 24.55084], [92.23337, 24.55053], [92.23341, 24.54978], [92.23335, 24.54956], [92.23328, 24.54946], [92.23302, 24.54928], [92.23279, 24.54895], [92.23252, 24.54801], [92.23288, 24.54785], [92.23276, 24.54775], [92.23265, 24.54758], [92.23258, 24.54723], [92.23229, 24.54707], [92.23234, 24.54676], [92.23249, 24.54626], [92.23282, 24.54599], [92.2329, 24.54569], [92.2329, 24.54553], [92.23281, 24.54528], [92.23281, 24.5452], [92.23304, 24.54493], [92.23305, 24.54479], [92.23295, 24.54455], [92.23286, 24.54399], [92.23289, 24.54394], [92.23304, 24.54383], [92.23338, 24.54376], [92.23341, 24.54365], [92.23331, 24.54313], [92.23333, 24.54302], [92.23342, 24.54292], [92.23345, 24.54273], [92.23351, 24.5426], [92.23345, 24.54249], [92.23305, 24.54256], [92.23294, 24.54255], [92.23284, 24.54249], [92.23258, 24.54191], [92.23235, 24.54169], [92.23231, 24.54153], [92.23232, 24.54135], [92.23252, 24.54107], [92.23278, 24.54088], [92.23304, 24.54077], [92.23307, 24.54073], [92.23306, 24.54063], [92.23288, 24.54051], [92.23274, 24.5403], [92.23271, 24.54006], [92.23276, 24.53973], [92.23281, 24.53968], [92.23323, 24.5395], [92.23323, 24.53942], [92.23313, 24.53927], [92.23318, 24.53902], [92.23311, 24.53898], [92.23281, 24.53914], [92.23265, 24.53914], [92.23226, 24.53888], [92.23204, 24.53877], [92.2319, 24.53837], [92.23193, 24.5382], [92.23208, 24.538], [92.23232, 24.53784], [92.23263, 24.53773], [92.233, 24.53724], [92.23303, 24.53714], [92.23297, 24.53698], [92.23245, 24.5362], [92.23229, 24.53589], [92.23231, 24.53547], [92.23237, 24.53536], [92.23282, 24.53512], [92.23287, 24.53502], [92.23281, 24.53472], [92.23266, 24.53437], [92.23254, 24.53361], [92.23256, 24.53142], [92.23257, 24.53111], [92.23266, 24.53062], [92.23244, 24.53033], [92.23246, 24.53018], [92.23253, 24.53001], [92.23245, 24.52967], [92.2324, 24.52953], [92.23223, 24.52947], [92.23171, 24.52944], [92.2316, 24.52936], [92.23116, 24.52894], [92.23086, 24.52875], [92.23067, 24.52856], [92.23041, 24.52826], [92.22982, 24.52722], [92.22941, 24.52645], [92.22834, 24.52402], [92.22766, 24.52264], [92.22732, 24.52202], [92.22697, 24.5215], [92.22654, 24.52043], [92.2261, 24.51901], [92.22537, 24.51748], [92.22484, 24.51658], [92.22467, 24.51639], [92.2244, 24.51621], [92.22272, 24.51584], [92.22243, 24.51559], [92.22221, 24.51527], [92.22179, 24.51477], [92.22142, 24.51421], [92.22141, 24.514], [92.22128, 24.51369], [92.22128, 24.51363], [92.22144, 24.51329], [92.22148, 24.51308], [92.22146, 24.51294], [92.22137, 24.51285], [92.2214, 24.51282], [92.22382, 24.50987], [92.22458, 24.50895], [92.22492, 24.50853], [92.23362, 24.49793], [92.234, 24.49686], [92.23403, 24.49675], [92.23419, 24.49618], [92.23442, 24.49537], [92.23446, 24.49526], [92.23534, 24.49292], [92.2356, 24.49141], [92.23841, 24.48851], [92.23623, 24.48647], [92.23456, 24.48492], [92.23424, 24.48462], [92.23389, 24.48429], [92.23307, 24.48352], [92.23283, 24.4833], [92.23199, 24.48221], [92.23016, 24.47979], [92.22928, 24.47863], [92.2282, 24.47241], [92.22803, 24.4714], [92.22789, 24.47058], [92.22823, 24.4696], [92.22903, 24.46731], [92.22915, 24.46695], [92.22928, 24.46656], [92.22947, 24.46603], [92.23014, 24.46405], [92.23011, 24.46262], [92.23009, 24.46146], [92.23005, 24.45898], [92.23064, 24.45805], [92.23127, 24.45705], [92.23173, 24.45672], [92.23212, 24.45643], [92.23334, 24.45553], [92.23367, 24.45529], [92.23405, 24.45501], [92.23421, 24.4545], [92.2344, 24.45391], [92.23476, 24.45278], [92.23489, 24.45238], [92.23491, 24.4517], [92.23493, 24.45092], [92.23495, 24.45002], [92.23496, 24.44951], [92.23498, 24.44887], [92.23498, 24.44882], [92.23645, 24.44745], [92.23692, 24.44701], [92.23814, 24.44592], [92.23852, 24.44567], [92.23886, 24.44545], [92.23934, 24.44514], [92.24142, 24.44379], [92.2426, 24.44303], [92.24461, 24.44175], [92.24472, 24.44168], [92.24704, 24.4402], [92.24712, 24.44015], [92.24816, 24.43948], [92.24829, 24.4394], [92.24972, 24.4385], [92.24981, 24.43845], [92.24991, 24.4384], [92.25001, 24.43831], [92.25033, 24.4381], [92.25132, 24.43747], [92.25541, 24.43486], [92.25591, 24.43291], [92.25638, 24.43109], [92.25486, 24.41755], [92.25572, 24.41615], [92.25824, 24.41207], [92.26159, 24.40838], [92.26211, 24.40666], [92.26151, 24.40338], [92.26275, 24.39764], [92.26282, 24.3973], [92.26307, 24.39615], [92.2687, 24.3934], [92.26929, 24.3895], [92.27195, 24.38701], [92.27152, 24.38475], [92.26873, 24.38076], [92.26968, 24.37972], [92.26996, 24.37941], [92.27013, 24.37922], [92.27133, 24.37791], [92.27109, 24.37612], [92.26866, 24.37446], [92.26709, 24.37337], [92.26641, 24.37181], [92.26696, 24.36585], [92.2629, 24.36074], [92.26177, 24.35824], [92.26024, 24.35488], [92.25289, 24.33872], [92.24962, 24.33154], [92.24066, 24.31184], [92.23531, 24.30007], [92.2275, 24.28287], [92.227, 24.28178], [92.22412, 24.27544], [92.22326, 24.27355], [92.22296, 24.27288], [92.21788, 24.26171], [92.21165, 24.248], [92.21621, 24.24821], [92.21736, 24.24825], [92.23007, 24.24884], [92.23928, 24.24926], [92.25349, 24.2491], [92.25538, 24.24907], [92.25831, 24.24904], [92.2598, 24.24913], [92.26057, 24.24918], [92.263, 24.24934], [92.26715, 24.2496], [92.26897, 24.24971], [92.2762, 24.25016], [92.27867, 24.25032], [92.27887, 24.25033], [92.28072, 24.25044], [92.28348, 24.25061], [92.28508, 24.25043], [92.28583, 24.25035], [92.28704, 24.25021], [92.29052, 24.24983], [92.29151, 24.24993], [92.29312, 24.25008], [92.29529, 24.25028], [92.29758, 24.25041], [92.29999, 24.25054], [92.30219, 24.25123], [92.30918, 24.24988], [92.31275, 24.25112], [92.32228, 24.25091], [92.34669, 24.25036], [92.37426, 24.24974], [92.37512, 24.24972], [92.37617, 24.24979], [92.37654, 24.24981], [92.39426, 24.25091], [92.39864, 24.25067], [92.39968, 24.25061], [92.40253, 24.25046], [92.40538, 24.2503], [92.40554, 24.25032], [92.40571, 24.25035], [92.41035, 24.25106], [92.41499, 24.25178], [92.42005, 24.25149], [92.42089, 24.25144], [92.42227, 24.25151], [92.4241, 24.25045], [92.43141, 24.25412], [92.43711, 24.26636], [92.43812, 24.26853], [92.4443, 24.27354], [92.44761, 24.27854], [92.44985, 24.28194], [92.45146, 24.28436], [92.45327, 24.2871], [92.46001, 24.2957], [92.46025, 24.29601], [92.46267, 24.29909], [92.46914, 24.3098], [92.47216, 24.31618], [92.47221, 24.31629], [92.47312, 24.31822], [92.47528, 24.3228], [92.47547, 24.32321], [92.47575, 24.32424], [92.47663, 24.32746], [92.4769, 24.32846], [92.47701, 24.32886], [92.4771, 24.32918], [92.47813, 24.33295], [92.47841, 24.33396], [92.4804, 24.34125], [92.48046, 24.3424], [92.48068, 24.3466], [92.48135, 24.34846], [92.48167, 24.34933], [92.48216, 24.3507], [92.48323, 24.35272], [92.48421, 24.35244], [92.48641, 24.3526], [92.4938, 24.35254], [92.49588, 24.35275], [92.49617, 24.35635], [92.49629, 24.35776], [92.49715, 24.36186], [92.49787, 24.36525], [92.49886, 24.36902], [92.49927, 24.3694], [92.49966, 24.36976], [92.50182, 24.36905], [92.50303, 24.36926], [92.50321, 24.3703], [92.50327, 24.37065], [92.50361, 24.37381], [92.50386, 24.37481], [92.50371, 24.37509], [92.5033, 24.37584], [92.50221, 24.37651], [92.50219, 24.3774], [92.50337, 24.37888], [92.50433, 24.37897], [92.50457, 24.38509], [92.50377, 24.39048], [92.50514, 24.39124], [92.50529, 24.39117], [92.5087, 24.38977], [92.51199, 24.38937], [92.51223, 24.38987], [92.51228, 24.38998], [92.51237, 24.39018], [92.51284, 24.39139], [92.51338, 24.3924], [92.51342, 24.39248], [92.51371, 24.39434], [92.5139, 24.39553], [92.5146, 24.3973], [92.51491, 24.39807], [92.51437, 24.39964], [92.51424, 24.40002], [92.51412, 24.40037], [92.51518, 24.40647], [92.51643, 24.40811], [92.51666, 24.41038], [92.51697, 24.41334], [92.51731, 24.41377], [92.51768, 24.41424], [92.51723, 24.41423], [92.51488, 24.41416], [92.51294, 24.41392], [92.51171, 24.42199], [92.5114, 24.42546], [92.51038, 24.43709], [92.50998, 24.44252], [92.50989, 24.44369], [92.51081, 24.44689], [92.51178, 24.44825], [92.51507, 24.44999], [92.51526, 24.45008], [92.51743, 24.45104], [92.52055, 24.45242], [92.52292, 24.4508], [92.52283, 24.45103], [92.52347, 24.45392], [92.52383, 24.45557], [92.52432, 24.45582], [92.52444, 24.45588], [92.52491, 24.45612], [92.52489, 24.4562], [92.52397, 24.45914], [92.52436, 24.46381], [92.52437, 24.46395], [92.52445, 24.46495], [92.5245, 24.46557], [92.52418, 24.46659], [92.52333, 24.46928], [92.52294, 24.471], [92.5229, 24.47118], [92.52247, 24.47307], [92.52259, 24.47311], [92.51931, 24.4736], [92.51339, 24.47519], [92.50855, 24.47716], [92.50899, 24.47887], [92.50903, 24.479], [92.5093, 24.48006], [92.50933, 24.48016], [92.50813, 24.48269], [92.50796, 24.48304], [92.50745, 24.48411], [92.50737, 24.48429], [92.50638, 24.48637], [92.50512, 24.48903], [92.50632, 24.49235], [92.50668, 24.49334], [92.50767, 24.49607], [92.50766, 24.49666], [92.50764, 24.49898], [92.50762, 24.50176], [92.50742, 24.50283], [92.50633, 24.50865], [92.50659, 24.51077], [92.50717, 24.51561], [92.50732, 24.51611], [92.50746, 24.51656], [92.50934, 24.52288], [92.5072, 24.53274], [92.50848, 24.53599], [92.50919, 24.53778], [92.50936, 24.53822], [92.51202, 24.54495], [92.51473, 24.55178], [92.51508, 24.55266], [92.51582, 24.55653], [92.51695, 24.56243], [92.5179, 24.56735], [92.51776, 24.56778], [92.51758, 24.56834], [92.51652, 24.57166], [92.51599, 24.57329], [92.51597, 24.57334], [92.51571, 24.57416], [92.51563, 24.57658], [92.51286, 24.57811], [92.51248, 24.57874], [92.51184, 24.57979], [92.51047, 24.58205], [92.51026, 24.58239], [92.50981, 24.58314], [92.50917, 24.58419], [92.50903, 24.58443], [92.5076, 24.58678], [92.50459, 24.59176], [92.50454, 24.59286], [92.50445, 24.59507], [92.50432, 24.59813], [92.50431, 24.59835], [92.50424, 24.60001], [92.50419, 24.60117], [92.50408, 24.60377], [92.50799, 24.60329], [92.50783, 24.60751], [92.50771, 24.61063], [92.50767, 24.61158], [92.50764, 24.61235], [92.50747, 24.61691], [92.50822, 24.62046], [92.50901, 24.62418], [92.5097, 24.62488], [92.50921, 24.6257], [92.50906, 24.62595], [92.50875, 24.62596], [92.50616, 24.62598], [92.50539, 24.62718], [92.50541, 24.62852], [92.50548, 24.63483], [92.50496, 24.63799], [92.50458, 24.64033], [92.50421, 24.64255], [92.50561, 24.64255], [92.50578, 24.64255], [92.50729, 24.6442], [92.50833, 24.64607], [92.51031, 24.6469], [92.51347, 24.64614], [92.51528, 24.64558], [92.51568, 24.64545], [92.51576, 24.64551], [92.51911, 24.64793], [92.5204, 24.64841], [92.5226, 24.64923], [92.52361, 24.64982], [92.52582, 24.65111], [92.52598, 24.65142], [92.5252, 24.65284], [92.52487, 24.65489], [92.52471, 24.65588], [92.52468, 24.65665], [92.52461, 24.65813], [92.52464, 24.66014], [92.52475, 24.66057], [92.52497, 24.66144], [92.5242, 24.66414], [92.52352, 24.66664], [92.52351, 24.66666], [92.52352, 24.66975], [92.52312, 24.67208], [92.52378, 24.67561], [92.52455, 24.67829], [92.52338, 24.68347], [92.52359, 24.68443], [92.52376, 24.68668], [92.52382, 24.68751], [92.52384, 24.68785], [92.52389, 24.6885], [92.52353, 24.68932], [92.52337, 24.68969], [92.5224, 24.6919], [92.52173, 24.69519], [92.52162, 24.69569], [92.52119, 24.69765], [92.52016, 24.69807], [92.51911, 24.69851], [92.51802, 24.69896], [92.51557, 24.70002], [92.51143, 24.70186], [92.51114, 24.70201], [92.50884, 24.70236], [92.5075, 24.70278], [92.50643, 24.70326], [92.50617, 24.70338], [92.50633, 24.70368], [92.50934, 24.70927], [92.51002, 24.71014], [92.51025, 24.71021], [92.51273, 24.71092], [92.51329, 24.71213], [92.51434, 24.71441], [92.51454, 24.71485], [92.51609, 24.71655], [92.51677, 24.71731], [92.52074, 24.72169], [92.52144, 24.72393], [92.52155, 24.72428], [92.52118, 24.72852], [92.52111, 24.72938], [92.52121, 24.7306], [92.52144, 24.73195], [92.52147, 24.7321], [92.52202, 24.73534], [92.52223, 24.73654], [92.52183, 24.74061], [92.52342, 24.74284], [92.52346, 24.74289], [92.52603, 24.74647], [92.53193, 24.7501], [92.53359, 24.75153], [92.53963, 24.75675], [92.54373, 24.76028], [92.54434, 24.7643], [92.54338, 24.76757], [92.54318, 24.76825], [92.54288, 24.76891], [92.54226, 24.77065], [92.54181, 24.77185], [92.54206, 24.7725], [92.54635, 24.77761], [92.54665, 24.77974], [92.54506, 24.78277], [92.54358, 24.78914], [92.54355, 24.78927], [92.54292, 24.79332], [92.54364, 24.79774], [92.54384, 24.79897], [92.54499, 24.80034], [92.54665, 24.80233], [92.54683, 24.80435], [92.54767, 24.80592], [92.5487, 24.80783], [92.54977, 24.80983], [92.55341, 24.81448], [92.55944, 24.81816], [92.56215, 24.8198], [92.56324, 24.82111], [92.5635, 24.82142], [92.57273, 24.83249], [92.57712, 24.83662], [92.57997, 24.83929], [92.58047, 24.84023], [92.58215, 24.84337], [92.58316, 24.84526], [92.5836, 24.84608], [92.58427, 24.84734], [92.58541, 24.84946], [92.58573, 24.85066], [92.58672, 24.85435], [92.58675, 24.85446], [92.58722, 24.85621], [92.58782, 24.85846], [92.58787, 24.86226], [92.58736, 24.86255], [92.58731, 24.86258], [92.58633, 24.86314], [92.58465, 24.86411], [92.58436, 24.86428], [92.58315, 24.86498], [92.58054, 24.86648], [92.57823, 24.86781], [92.57697, 24.86854], [92.57679, 24.86864], [92.57654, 24.86872], [92.57648, 24.86874], [92.57611, 24.86886], [92.57591, 24.86892], [92.5748, 24.86928], [92.57474, 24.8693], [92.5744, 24.86941], [92.57299, 24.86986], [92.57256, 24.87], [92.57177, 24.87026], [92.5716, 24.87031], [92.57081, 24.87044], [92.57041, 24.87051], [92.56983, 24.87061], [92.56858, 24.87082], [92.56754, 24.871], [92.56602, 24.87126], [92.56411, 24.87158], [92.5634, 24.8717], [92.5591, 24.87243], [92.55779, 24.87209], [92.5558, 24.87157], [92.55409, 24.87113], [92.55153, 24.87046], [92.55149, 24.87043], [92.54539, 24.86608], [92.54442, 24.86538], [92.54433, 24.86534], [92.54322, 24.86484], [92.54193, 24.86425], [92.54089, 24.86378], [92.54035, 24.86353], [92.53989, 24.86333], [92.53688, 24.86265], [92.53675, 24.86262], [92.53542, 24.86232], [92.53499, 24.86222], [92.53487, 24.86219], [92.53478, 24.86217], [92.53472, 24.86216], [92.53403, 24.862], [92.53344, 24.86172], [92.53278, 24.8614], [92.53186, 24.86096], [92.53158, 24.86083], [92.52924, 24.85971], [92.52702, 24.85938], [92.52523, 24.85912], [92.52501, 24.85909], [92.52463, 24.85903], [92.52425, 24.85982], [92.52399, 24.86037], [92.52373, 24.861], [92.52307, 24.86261], [92.52215, 24.86419], [92.52181, 24.8649], [92.52117, 24.86624], [92.52101, 24.86657], [92.5199, 24.86887], [92.51973, 24.86923], [92.51946, 24.86978], [92.51787, 24.87155], [92.5183, 24.87184], [92.51863, 24.87207], [92.51806, 24.87258], [92.518, 24.87263], [92.51772, 24.87288], [92.51502, 24.87525], [92.5115, 24.87477], [92.50826, 24.87433], [92.5038, 24.87287], [92.50241, 24.87242], [92.50068, 24.87311], [92.50046, 24.8732], [92.49988, 24.87343], [92.49499, 24.87468], [92.49465, 24.87482], [92.4894, 24.87591]]]}}]}