{"type": "FeatureCollection", "features": [{"type": "Feature", "properties": {"Name": "Kokrajhar"}, "geometry": {"type": "Polygon", "coordinates": [[[90.41924, 26.36288], [90.41914, 26.36388], [90.41857, 26.36978], [90.41825, 26.37308], [90.41814, 26.37428], [90.41716, 26.37564], [90.41709, 26.37574], [90.41687, 26.37605], [90.41331, 26.38103], [90.41119, 26.384], [90.40826, 26.38745], [90.40116, 26.39581], [90.40093, 26.39608], [90.39975, 26.39747], [90.39939, 26.39789], [90.39903, 26.39862], [90.39828, 26.40011], [90.39853, 26.40147], [90.399, 26.40291], [90.39918, 26.40348], [90.40021, 26.40668], [90.40171, 26.41133], [90.40252, 26.41383], [90.4035, 26.41672], [90.40532, 26.42212], [90.40613, 26.42451], [90.4091, 26.4333], [90.41038, 26.4371], [90.41137, 26.44002], [90.41142, 26.44017], [90.41165, 26.44084], [90.41235, 26.44294], [90.41263, 26.44377], [90.41352, 26.44567], [90.41528, 26.44734], [90.41582, 26.44742], [90.41722, 26.44762], [90.41966, 26.44798], [90.42103, 26.44818], [90.42155, 26.44826], [90.42659, 26.45092], [90.42705, 26.45131], [90.42952, 26.45339], [90.43263, 26.45269], [90.43294, 26.45262], [90.43437, 26.45229], [90.43753, 26.45191], [90.43828, 26.45182], [90.44319, 26.45134], [90.44385, 26.45128], [90.44409, 26.45136], [90.44591, 26.45199], [90.44594, 26.45204], [90.44726, 26.45396], [90.44947, 26.46101], [90.45004, 26.46281], [90.45335, 26.46281], [90.45267, 26.46373], [90.45218, 26.46438], [90.45048, 26.46668], [90.44979, 26.46866], [90.44815, 26.47296], [90.4479, 26.47343], [90.44745, 26.47426], [90.4472, 26.47472], [90.44659, 26.47585], [90.44651, 26.47599], [90.44373, 26.47729], [90.44266, 26.47871], [90.44266, 26.47873], [90.44245, 26.47957], [90.44182, 26.48244], [90.44103, 26.48598], [90.44073, 26.48734], [90.44026, 26.4892], [90.44024, 26.4893], [90.43906, 26.4923], [90.4388, 26.49279], [90.43844, 26.49345], [90.43759, 26.49388], [90.43658, 26.49439], [90.43395, 26.49471], [90.43002, 26.49518], [90.42943, 26.49519], [90.42355, 26.49529], [90.42001, 26.49535], [90.41706, 26.49655], [90.41707, 26.49711], [90.41865, 26.49823], [90.41822, 26.50075], [90.41637, 26.50229], [90.41592, 26.50266], [90.41582, 26.50357], [90.41419, 26.51818], [90.41421, 26.51993], [90.41453, 26.54408], [90.41455, 26.54522], [90.41209, 26.55207], [90.41201, 26.55228], [90.4095, 26.55928], [90.40654, 26.56309], [90.40482, 26.56531], [90.40089, 26.57036], [90.39941, 26.57226], [90.39431, 26.57687], [90.39351, 26.57759], [90.38823, 26.58236], [90.38759, 26.5866], [90.38749, 26.58725], [90.38692, 26.59104], [90.38462, 26.60615], [90.38423, 26.60648], [90.37994, 26.61012], [90.37548, 26.61264], [90.37164, 26.61481], [90.36963, 26.61884], [90.36912, 26.61986], [90.36804, 26.62202], [90.36876, 26.63103], [90.37038, 26.6352], [90.37088, 26.63648], [90.37161, 26.63837], [90.37247, 26.64058], [90.37568, 26.64886], [90.37772, 26.65411], [90.37813, 26.65518], [90.38468, 26.66278], [90.38907, 26.66789], [90.38921, 26.66805], [90.40049, 26.68114], [90.40176, 26.68958], [90.4025, 26.69446], [90.40257, 26.69492], [90.41444, 26.70315], [90.41599, 26.70422], [90.41936, 26.71062], [90.42579, 26.72283], [90.43041, 26.73162], [90.43041, 26.73179], [90.43067, 26.74608], [90.43113, 26.77127], [90.4313, 26.77344], [90.43135, 26.77408], [90.4317, 26.77865], [90.43259, 26.79022], [90.43389, 26.80711], [90.43546, 26.82752], [90.43591, 26.83074], [90.44123, 26.86862], [90.44523, 26.88276], [90.42628, 26.89804], [90.41391, 26.90181], [90.40396, 26.90091], [90.3976, 26.90043], [90.39522, 26.90022], [90.38866, 26.89957], [90.38437, 26.89914], [90.36829, 26.89796], [90.3593, 26.896], [90.35695, 26.89271], [90.35364, 26.88761], [90.35112, 26.87974], [90.35003, 26.87635], [90.34518, 26.87203], [90.34351, 26.87082], [90.32385, 26.85657], [90.31595, 26.85077], [90.30771, 26.84866], [90.30575, 26.84815], [90.29466, 26.84841], [90.28783, 26.85031], [90.2816, 26.85205], [90.26663, 26.85531], [90.25724, 26.85695], [90.25707, 26.85698], [90.25629, 26.85706], [90.25078, 26.85764], [90.24865, 26.85787], [90.23053, 26.85818], [90.21916, 26.85364], [90.21492, 26.84948], [90.20882, 26.84353], [90.2077, 26.84237], [90.199, 26.83298], [90.19621, 26.82725], [90.1924, 26.81726], [90.19128, 26.81434], [90.18836, 26.80969], [90.18689, 26.80407], [90.18732, 26.79839], [90.18754, 26.79732], [90.18959, 26.78717], [90.18963, 26.78704], [90.19007, 26.78573], [90.19046, 26.78456], [90.19136, 26.78187], [90.19147, 26.78106], [90.19299, 26.77054], [90.16516, 26.76046], [90.1504, 26.75486], [90.14817, 26.75415], [90.13619, 26.75031], [90.13425, 26.74969], [90.13214, 26.74902], [90.11865, 26.74506], [90.11621, 26.74439], [90.11584, 26.74429], [90.09937, 26.73975], [90.09007, 26.73749], [90.08715, 26.73665], [90.08198, 26.73517], [90.08074, 26.73479], [90.07972, 26.73448], [90.0719, 26.73209], [90.05496, 26.72987], [90.04955, 26.72904], [90.04165, 26.72952], [90.03827, 26.72973], [90.02408, 26.73053], [90.0101, 26.73356], [90.00648, 26.73434], [89.99876, 26.73004], [89.98907, 26.72677], [89.97173, 26.72472], [89.97043, 26.72451], [89.96223, 26.72318], [89.95197, 26.72315], [89.94433, 26.723], [89.93608, 26.72329], [89.92533, 26.72262], [89.91154, 26.72363], [89.91083, 26.72368], [89.90904, 26.72368], [89.90199, 26.72368], [89.89392, 26.72441], [89.87804, 26.73176], [89.87215, 26.7347], [89.8676, 26.73674], [89.86696, 26.73703], [89.86298, 26.73126], [89.86407, 26.72462], [89.8641, 26.72444], [89.86276, 26.72026], [89.86415, 26.70955], [89.86426, 26.70865], [89.86141, 26.70382], [89.86174, 26.70357], [89.86588, 26.70039], [89.87587, 26.68357], [89.8759, 26.67926], [89.87567, 26.67863], [89.8748, 26.6763], [89.87396, 26.67403], [89.87374, 26.67099], [89.87493, 26.66627], [89.87426, 26.66271], [89.87338, 26.66163], [89.87269, 26.6608], [89.87245, 26.65666], [89.87705, 26.652], [89.87713, 26.65191], [89.88075, 26.64955], [89.8802, 26.64634], [89.87804, 26.64356], [89.8753, 26.6418], [89.86806, 26.63715], [89.86643, 26.63485], [89.86167, 26.63214], [89.86166, 26.6319], [89.86163, 26.63099], [89.86157, 26.62896], [89.86141, 26.62388], [89.8614, 26.62346], [89.86175, 26.62235], [89.86335, 26.61727], [89.86618, 26.6152], [89.87206, 26.61508], [89.87442, 26.61504], [89.87596, 26.61501], [89.8781, 26.61428], [89.88157, 26.6131], [89.88093, 26.6064], [89.87986, 26.60244], [89.87953, 26.60122], [89.87819, 26.59942], [89.87755, 26.59856], [89.87684, 26.59762], [89.87669, 26.5966], [89.87668, 26.59651], [89.87643, 26.59477], [89.87851, 26.58927], [89.87944, 26.58788], [89.88184, 26.58429], [89.87415, 26.57957], [89.8663, 26.57794], [89.86582, 26.57462], [89.86716, 26.57296], [89.86927, 26.57034], [89.86975, 26.56591], [89.86893, 26.56226], [89.86861, 26.56084], [89.86872, 26.55595], [89.86882, 26.55106], [89.86888, 26.54836], [89.86566, 26.54325], [89.86652, 26.53736], [89.8665, 26.53718], [89.86638, 26.53533], [89.86607, 26.53054], [89.86073, 26.52376], [89.85944, 26.52213], [89.85867, 26.52115], [89.85773, 26.51731], [89.85812, 26.51509], [89.85896, 26.51022], [89.85982, 26.50522], [89.85974, 26.50399], [89.85962, 26.50204], [89.85915, 26.49439], [89.85772, 26.49028], [89.85689, 26.48787], [89.85706, 26.4876], [89.86519, 26.47486], [89.86547, 26.47304], [89.86637, 26.46719], [89.86653, 26.46616], [89.86659, 26.46616], [89.8706, 26.46593], [89.87092, 26.46591], [89.87125, 26.4659], [89.87216, 26.46535], [89.87399, 26.46427], [89.87434, 26.46406], [89.87475, 26.45998], [89.87401, 26.45836], [89.87356, 26.45737], [89.8736, 26.45278], [89.87364, 26.45257], [89.87365, 26.45242], [89.8736, 26.45227], [89.8736, 26.4511], [89.87362, 26.44851], [89.87074, 26.44575], [89.86633, 26.44154], [89.86526, 26.44052], [89.86516, 26.44046], [89.8621, 26.43841], [89.86181, 26.43821], [89.85932, 26.43415], [89.85858, 26.43099], [89.85806, 26.42874], [89.8586, 26.42809], [89.86473, 26.42066], [89.87122, 26.4128], [89.87178, 26.41212], [89.87211, 26.41172], [89.87433, 26.40904], [89.87762, 26.40505], [89.88075, 26.40126], [89.88148, 26.40038], [89.88242, 26.39924], [89.88546, 26.39555], [89.88601, 26.39488], [89.88644, 26.39443], [89.89285, 26.38776], [89.8965, 26.38396], [89.90094, 26.37934], [89.90284, 26.37736], [89.90332, 26.37686], [89.90333, 26.37645], [89.90368, 26.36171], [89.90325, 26.35842], [89.903, 26.35652], [89.90294, 26.35603], [89.90263, 26.35368], [89.90257, 26.35323], [89.90233, 26.3514], [89.902, 26.34888], [89.90192, 26.34825], [89.90164, 26.34613], [89.90151, 26.34513], [89.90097, 26.3441], [89.90077, 26.34371], [89.90074, 26.34366], [89.8992, 26.34073], [89.89692, 26.33638], [89.89686, 26.33627], [89.89539, 26.33347], [89.89453, 26.33184], [89.89394, 26.33071], [89.89342, 26.32963], [89.89308, 26.32893], [89.89213, 26.32697], [89.88973, 26.32199], [89.88854, 26.31953], [89.88847, 26.31874], [89.88815, 26.3149], [89.88782, 26.31107], [89.88767, 26.30926], [89.88639, 26.30842], [89.88587, 26.30786], [89.88545, 26.3074], [89.8845, 26.30637], [89.88319, 26.30495], [89.88285, 26.30458], [89.88123, 26.30378], [89.87892, 26.30263], [89.87811, 26.30223], [89.87595, 26.30203], [89.87147, 26.30162], [89.86932, 26.29452], [89.86686, 26.28641], [89.86647, 26.28512], [89.86567, 26.28249], [89.8651, 26.2806], [89.86402, 26.27734], [89.86283, 26.27377], [89.86267, 26.2733], [89.86164, 26.27022], [89.86125, 26.26904], [89.86026, 26.26608], [89.85971, 26.26442], [89.85905, 26.26243], [89.85837, 26.26252], [89.85722, 26.26266], [89.8543, 26.26328], [89.85428, 26.26335], [89.85268, 26.26488], [89.85172, 26.2658], [89.85066, 26.26353], [89.84907, 26.26013], [89.84879, 26.25885], [89.84739, 26.25246], [89.84829, 26.25069], [89.8488, 26.24968], [89.84683, 26.24701], [89.84684, 26.24518], [89.84684, 26.2449], [89.84767, 26.2434], [89.84989, 26.23941], [89.84995, 26.2393], [89.851, 26.23597], [89.851, 26.23593], [89.851, 26.23412], [89.85057, 26.23119], [89.85053, 26.23097], [89.85049, 26.2307], [89.85264, 26.22743], [89.85262, 26.22716], [89.85256, 26.22643], [89.85142, 26.22495], [89.85263, 26.2216], [89.85374, 26.2185], [89.85516, 26.21457], [89.85547, 26.2081], [89.85578, 26.20154], [89.85581, 26.2009], [89.85585, 26.19999], [89.85599, 26.19931], [89.85687, 26.19512], [89.85748, 26.19224], [89.85803, 26.18964], [89.85859, 26.18698], [89.85863, 26.1868], [89.86349, 26.17569], [89.86906, 26.16977], [89.87167, 26.1669], [89.8721, 26.16637], [89.87314, 26.16543], [89.8746, 26.16388], [89.87848, 26.16275], [89.8851, 26.16082], [89.89126, 26.15902], [89.89288, 26.15854], [89.89497, 26.15793], [89.90307, 26.15555], [89.91016, 26.15448], [89.91673, 26.15349], [89.91775, 26.15334], [89.91764, 26.1535], [89.91628, 26.1555], [89.91562, 26.15829], [89.91354, 26.167], [89.91033, 26.17918], [89.90898, 26.18395], [89.90897, 26.18398], [89.90842, 26.18594], [89.90811, 26.18703], [89.90789, 26.19051], [89.90788, 26.19069], [89.90782, 26.19165], [89.90773, 26.19312], [89.9075, 26.19675], [89.90772, 26.1978], [89.90822, 26.20016], [89.90893, 26.20211], [89.91039, 26.20381], [89.91034, 26.20428], [89.90992, 26.2071], [89.911, 26.20773], [89.91449, 26.20879], [89.91707, 26.20763], [89.91879, 26.20499], [89.92022, 26.20205], [89.92058, 26.20062], [89.92127, 26.19793], [89.92003, 26.19542], [89.91958, 26.19516], [89.91975, 26.19508], [89.92197, 26.19409], [89.92345, 26.19403], [89.92604, 26.1946], [89.9298, 26.1992], [89.93427, 26.20467], [89.93775, 26.20929], [89.93871, 26.21263], [89.93904, 26.21556], [89.9429, 26.21616], [89.94737, 26.21768], [89.95847, 26.22142], [89.95967, 26.22187], [89.96196, 26.2227], [89.96591, 26.2222], [89.96969, 26.22249], [89.97235, 26.22269], [89.9808, 26.22573], [89.98319, 26.22545], [89.98486, 26.22526], [89.99104, 26.22454], [89.99236, 26.22413], [89.99248, 26.22409], [89.99428, 26.22353], [89.9956, 26.22383], [89.9978, 26.22432], [90.00218, 26.22618], [90.00464, 26.22723], [90.00906, 26.22934], [90.01501, 26.23218], [90.01685, 26.23334], [90.0169, 26.23337], [90.01879, 26.23456], [90.01901, 26.2347], [90.01936, 26.23477], [90.02149, 26.2352], [90.02199, 26.23517], [90.02366, 26.23505], [90.02408, 26.23502], [90.02762, 26.23354], [90.02911, 26.23203], [90.03001, 26.22941], [90.03001, 26.22927], [90.03009, 26.22667], [90.03026, 26.21969], [90.03027, 26.2194], [90.03028, 26.21937], [90.03071, 26.21794], [90.03127, 26.21612], [90.03272, 26.21431], [90.0328, 26.21422], [90.03284, 26.21417], [90.03699, 26.21229], [90.03904, 26.21166], [90.0357, 26.20962], [90.03137, 26.207], [90.02751, 26.20355], [90.02702, 26.20311], [90.02252, 26.19915], [90.02395, 26.19811], [90.02617, 26.1975], [90.02773, 26.19755], [90.02846, 26.19758], [90.03291, 26.19968], [90.03538, 26.20073], [90.03554, 26.20076], [90.04161, 26.20174], [90.04627, 26.20435], [90.05077, 26.20673], [90.05315, 26.20799], [90.0549, 26.2075], [90.05582, 26.20724], [90.05786, 26.20576], [90.05787, 26.20565], [90.05813, 26.20402], [90.05812, 26.20249], [90.05546, 26.20133], [90.05524, 26.20087], [90.05292, 26.19601], [90.05248, 26.19381], [90.05175, 26.19273], [90.05142, 26.19225], [90.05036, 26.19068], [90.04996, 26.1892], [90.04969, 26.18825], [90.06729, 26.18898], [90.07103, 26.18913], [90.08153, 26.18957], [90.08523, 26.18977], [90.08721, 26.18988], [90.08847, 26.18995], [90.0893, 26.18999], [90.09064, 26.19006], [90.09532, 26.19032], [90.10072, 26.19061], [90.10096, 26.19062], [90.10409, 26.19079], [90.10722, 26.19096], [90.12434, 26.19469], [90.12977, 26.19587], [90.13087, 26.19607], [90.13136, 26.19619], [90.13291, 26.19652], [90.13573, 26.19832], [90.13701, 26.19914], [90.13908, 26.20047], [90.13927, 26.20059], [90.14171, 26.20215], [90.14285, 26.20288], [90.14385, 26.20352], [90.14569, 26.2047], [90.14829, 26.20636], [90.15027, 26.20763], [90.15178, 26.20931], [90.15253, 26.21014], [90.15329, 26.21099], [90.15354, 26.21127], [90.15455, 26.21239], [90.15704, 26.21515], [90.15708, 26.2152], [90.16007, 26.21852], [90.15988, 26.21881], [90.15875, 26.21963], [90.1587, 26.21933], [90.15664, 26.2192], [90.15459, 26.21959], [90.15463, 26.21972], [90.15417, 26.22197], [90.15393, 26.22229], [90.15262, 26.22408], [90.15146, 26.22578], [90.15165, 26.22644], [90.15256, 26.22676], [90.15306, 26.22694], [90.15292, 26.2271], [90.15223, 26.22791], [90.15202, 26.22803], [90.14905, 26.22973], [90.14896, 26.2312], [90.1482, 26.23173], [90.14725, 26.23238], [90.14664, 26.23401], [90.14661, 26.23409], [90.14669, 26.234], [90.14746, 26.23317], [90.14851, 26.23279], [90.14877, 26.23279], [90.14936, 26.23279], [90.14967, 26.23293], [90.14911, 26.23358], [90.14902, 26.23368], [90.14767, 26.23524], [90.14521, 26.23759], [90.14409, 26.23842], [90.14362, 26.23876], [90.14333, 26.23886], [90.14182, 26.2394], [90.14148, 26.2394], [90.13927, 26.23937], [90.13911, 26.23937], [90.13817, 26.23989], [90.13636, 26.24182], [90.13597, 26.24224], [90.1355, 26.24466], [90.13541, 26.24514], [90.13549, 26.2462], [90.13566, 26.24858], [90.13566, 26.24948], [90.13566, 26.24955], [90.13565, 26.25084], [90.13499, 26.25255], [90.13388, 26.25364], [90.13313, 26.25437], [90.13204, 26.25469], [90.13269, 26.25624], [90.13333, 26.25663], [90.13543, 26.2579], [90.13938, 26.25947], [90.14014, 26.25992], [90.14245, 26.26129], [90.1425, 26.26193], [90.14264, 26.26372], [90.14273, 26.26388], [90.14037, 26.26575], [90.13976, 26.26624], [90.13972, 26.26627], [90.13884, 26.26702], [90.13762, 26.26806], [90.13653, 26.26808], [90.13635, 26.26808], [90.13491, 26.26811], [90.13359, 26.2678], [90.13276, 26.26724], [90.13138, 26.26867], [90.13109, 26.26904], [90.13069, 26.26954], [90.13042, 26.26988], [90.13034, 26.26998], [90.12874, 26.27207], [90.12807, 26.27406], [90.12839, 26.27586], [90.12845, 26.27623], [90.12918, 26.278], [90.13362, 26.28305], [90.13692, 26.28601], [90.13588, 26.28616], [90.13332, 26.28904], [90.13101, 26.29245], [90.12795, 26.29526], [90.12684, 26.29709], [90.12483, 26.29993], [90.12444, 26.3014], [90.12382, 26.30378], [90.1235, 26.30502], [90.12356, 26.30582], [90.12376, 26.30841], [90.123, 26.3094], [90.12254, 26.31053], [90.12257, 26.31143], [90.12272, 26.31188], [90.12255, 26.3119], [90.12202, 26.31195], [90.12025, 26.31247], [90.11932, 26.31274], [90.11798, 26.31313], [90.11706, 26.31235], [90.11134, 26.31175], [90.11095, 26.31307], [90.11078, 26.31365], [90.10991, 26.31482], [90.10973, 26.31506], [90.1093, 26.31563], [90.10886, 26.31621], [90.10811, 26.31677], [90.10753, 26.31948], [90.1075, 26.31991], [90.10734, 26.32194], [90.10591, 26.32314], [90.10572, 26.3233], [90.10433, 26.32408], [90.10382, 26.3242], [90.10349, 26.32428], [90.10255, 26.32449], [90.10146, 26.32499], [90.10229, 26.32554], [90.10274, 26.32584], [90.10341, 26.32628], [90.10473, 26.32716], [90.10605, 26.32804], [90.10777, 26.32919], [90.10823, 26.32949], [90.11024, 26.33099], [90.11068, 26.33132], [90.11186, 26.33221], [90.11207, 26.33236], [90.11253, 26.3327], [90.11309, 26.33312], [90.11345, 26.33339], [90.11441, 26.33411], [90.11548, 26.33491], [90.1162, 26.33545], [90.1164, 26.3356], [90.11965, 26.33803], [90.12139, 26.33933], [90.12622, 26.34167], [90.12682, 26.34196], [90.12766, 26.34236], [90.12836, 26.3427], [90.12952, 26.34326], [90.13114, 26.34405], [90.13153, 26.34424], [90.13634, 26.34658], [90.13708, 26.34694], [90.14203, 26.34934], [90.14253, 26.34958], [90.14777, 26.35129], [90.14916, 26.35175], [90.1534, 26.35314], [90.1557, 26.353], [90.16227, 26.34973], [90.16737, 26.34719], [90.17017, 26.3458], [90.17094, 26.34499], [90.17308, 26.34275], [90.17327, 26.34256], [90.17531, 26.34244], [90.17552, 26.34256], [90.17641, 26.34308], [90.18037, 26.34539], [90.18257, 26.34539], [90.18837, 26.3454], [90.19026, 26.3454], [90.19147, 26.347], [90.19309, 26.34912], [90.19328, 26.34937], [90.1962, 26.3532], [90.20359, 26.35704], [90.20703, 26.35883], [90.2098, 26.3626], [90.2102, 26.36154], [90.20964, 26.35853], [90.2088, 26.35538], [90.20899, 26.35412], [90.20962, 26.35318], [90.20992, 26.35213], [90.21008, 26.3517], [90.21056, 26.35181], [90.21103, 26.35164], [90.21273, 26.35093], [90.21523, 26.34919], [90.21576, 26.34877], [90.21717, 26.34684], [90.2177, 26.34535], [90.21838, 26.34516], [90.2215, 26.34428], [90.22198, 26.34414], [90.22333, 26.34362], [90.22383, 26.34298], [90.22457, 26.34203], [90.2251, 26.34125], [90.22521, 26.34109], [90.2238, 26.33923], [90.22025, 26.33264], [90.21977, 26.33182], [90.22045, 26.32954], [90.22135, 26.32962], [90.22199, 26.32969], [90.22422, 26.32995], [90.22446, 26.33008], [90.22923, 26.33269], [90.22987, 26.33216], [90.23069, 26.33147], [90.23215, 26.33025], [90.23361, 26.32903], [90.23663, 26.32651], [90.23823, 26.32517], [90.23864, 26.32483], [90.23972, 26.32393], [90.24299, 26.32541], [90.24461, 26.32805], [90.24467, 26.32804], [90.24596, 26.3279], [90.24806, 26.32767], [90.2485, 26.32762], [90.25027, 26.32629], [90.25107, 26.32632], [90.25148, 26.32634], [90.25202, 26.3267], [90.25277, 26.32722], [90.25363, 26.32781], [90.25399, 26.32805], [90.25475, 26.32927], [90.25492, 26.32954], [90.25574, 26.33087], [90.25637, 26.33403], [90.25654, 26.33488], [90.25712, 26.33479], [90.25928, 26.33446], [90.26051, 26.33408], [90.26557, 26.33253], [90.26842, 26.33165], [90.26996, 26.33118], [90.27021, 26.33105], [90.27098, 26.33065], [90.27119, 26.33054], [90.27193, 26.33015], [90.27408, 26.32902], [90.27514, 26.3281], [90.27535, 26.32792], [90.27541, 26.32767], [90.27597, 26.32544], [90.27651, 26.32331], [90.28158, 26.31999], [90.28566, 26.32152], [90.28625, 26.32175], [90.28824, 26.32335], [90.28947, 26.32599], [90.29066, 26.32897], [90.2915, 26.3311], [90.29109, 26.33346], [90.28863, 26.33653], [90.29256, 26.33763], [90.29759, 26.33679], [90.29819, 26.33663], [90.29957, 26.33626], [90.29983, 26.33567], [90.30208, 26.33546], [90.30414, 26.33575], [90.30309, 26.33626], [90.30287, 26.33814], [90.30327, 26.3405], [90.30319, 26.34168], [90.30394, 26.34289], [90.30824, 26.34538], [90.31187, 26.35049], [90.31261, 26.34829], [90.31416, 26.34946], [90.31892, 26.35303], [90.31983, 26.35544], [90.32208, 26.35652], [90.33166, 26.36446], [90.33168, 26.36561], [90.32995, 26.36585], [90.32765, 26.36541], [90.3261, 26.36414], [90.32541, 26.36358], [90.32233, 26.36262], [90.32105, 26.3632], [90.32332, 26.3659], [90.3236, 26.36796], [90.31784, 26.37391], [90.31754, 26.37422], [90.31496, 26.37689], [90.31477, 26.37762], [90.31392, 26.38099], [90.31551, 26.38483], [90.31568, 26.38523], [90.31839, 26.38827], [90.31945, 26.38867], [90.32166, 26.38951], [90.32178, 26.3895], [90.32294, 26.38938], [90.32924, 26.38871], [90.33337, 26.38679], [90.33521, 26.38631], [90.33579, 26.38699], [90.33566, 26.3875], [90.33514, 26.38941], [90.33487, 26.3904], [90.33228, 26.39428], [90.33217, 26.39445], [90.3313, 26.39575], [90.33086, 26.39641], [90.33091, 26.39682], [90.33093, 26.39701], [90.33097, 26.39735], [90.33129, 26.40002], [90.3315, 26.40178], [90.33152, 26.40192], [90.33162, 26.40273], [90.3324, 26.40924], [90.33294, 26.40964], [90.33491, 26.41112], [90.33501, 26.41115], [90.3396, 26.4126], [90.34169, 26.41326], [90.35076, 26.41377], [90.35125, 26.41373], [90.35427, 26.41348], [90.35675, 26.41328], [90.35597, 26.4129], [90.35517, 26.41146], [90.35341, 26.40831], [90.3533, 26.40797], [90.35225, 26.40489], [90.35203, 26.40423], [90.35198, 26.40411], [90.35108, 26.40195], [90.34936, 26.40041], [90.34688, 26.39861], [90.3464, 26.39664], [90.3464, 26.39493], [90.35002, 26.39272], [90.35045, 26.39253], [90.35244, 26.39162], [90.35178, 26.39102], [90.35035, 26.3885], [90.35039, 26.38562], [90.35324, 26.38283], [90.35604, 26.38087], [90.35735, 26.37937], [90.35779, 26.37887], [90.35805, 26.37691], [90.35684, 26.37457], [90.35631, 26.37392], [90.35577, 26.37326], [90.35558, 26.37369], [90.3547, 26.37831], [90.35382, 26.37903], [90.3529, 26.37902], [90.35073, 26.3791], [90.34969, 26.37891], [90.34854, 26.37789], [90.34739, 26.37697], [90.34665, 26.37696], [90.34601, 26.37696], [90.33931, 26.38024], [90.33668, 26.38133], [90.33524, 26.38086], [90.33424, 26.37988], [90.33415, 26.37707], [90.3347, 26.37385], [90.3352, 26.3722], [90.3362, 26.37124], [90.33834, 26.3696], [90.33919, 26.36835], [90.34022, 26.36766], [90.34264, 26.36713], [90.34502, 26.36609], [90.34607, 26.36459], [90.34636, 26.36417], [90.34743, 26.36002], [90.3484, 26.35899], [90.34888, 26.35848], [90.34934, 26.35747], [90.34934, 26.35623], [90.34912, 26.35488], [90.3497, 26.35384], [90.35015, 26.35333], [90.35027, 26.35208], [90.3514, 26.35137], [90.35242, 26.35148], [90.35411, 26.35107], [90.35628, 26.35066], [90.35671, 26.35058], [90.3588, 26.35021], [90.35865, 26.34849], [90.3585, 26.34491], [90.35885, 26.34293], [90.35902, 26.34199], [90.35829, 26.34198], [90.35719, 26.34197], [90.35553, 26.34202], [90.3546, 26.34205], [90.35383, 26.34182], [90.35358, 26.34174], [90.35334, 26.34092], [90.35824, 26.33698], [90.36316, 26.33377], [90.36426, 26.33246], [90.36428, 26.3322], [90.3655, 26.33227], [90.36614, 26.33228], [90.3681, 26.3323], [90.37036, 26.33232], [90.37365, 26.33276], [90.374, 26.33268], [90.3743, 26.33115], [90.37513, 26.32682], [90.37557, 26.32636], [90.37604, 26.32708], [90.37798, 26.32801], [90.37937, 26.32914], [90.38063, 26.32965], [90.38144, 26.33187], [90.3817, 26.33258], [90.38415, 26.3355], [90.3844, 26.33577], [90.38566, 26.33711], [90.38619, 26.33797], [90.38861, 26.33681], [90.39216, 26.33722], [90.39365, 26.338], [90.39792, 26.34025], [90.39822, 26.34041], [90.39916, 26.34093], [90.39936, 26.34104], [90.3997, 26.3414], [90.39907, 26.34229], [90.39815, 26.34357], [90.398, 26.34383], [90.39734, 26.34493], [90.3973, 26.34499], [90.39654, 26.34627], [90.39611, 26.347], [90.3958, 26.34753], [90.39539, 26.34823], [90.39522, 26.35075], [90.3953, 26.35337], [90.39533, 26.35444], [90.39612, 26.35847], [90.39645, 26.36019], [90.39744, 26.3613], [90.3976, 26.36148], [90.39886, 26.36288], [90.39888, 26.36291], [90.40351, 26.36322], [90.40409, 26.36326], [90.4043, 26.36327], [90.40778, 26.36303], [90.41074, 26.36282], [90.41222, 26.36272], [90.41635, 26.36244], [90.41924, 26.36288]]]}}]}