{"type": "FeatureCollection", "features": [{"type": "Feature", "properties": {"Name": "Lakhimpur"}, "geometry": {"type": "Polygon", "coordinates": [[[93.69876, 26.9919], [93.70083, 26.99053], [93.70084379700006, 26.990520908000065], [93.70171709000005, 26.989934763000065], [93.70212305600006, 26.989667877000045], [93.70215703100007, 26.989568122000037], [93.70220312500004, 26.989445208000063], [93.70326, 26.98646], [93.70356, 26.98562], [93.70369, 26.98526], [93.70429970100008, 26.985077708000063], [93.70961, 26.98349], [93.71272, 26.98185], [93.71581410800007, 26.980214313000033], [93.71656, 26.97982], [93.71855, 26.97877], [93.71989, 26.97806], [93.72214, 26.97687], [93.7244, 26.97568], [93.72598, 26.97484], [93.72600643600003, 26.97477211300003], [93.72723, 26.97163], [93.72727, 26.97152], [93.72743, 26.9711], [93.72802, 26.96958], [93.72874, 26.9692], [93.73342724500009, 26.966691858000047], [93.73758447700004, 26.964434537000045], [93.74227, 26.9597], [93.7435, 26.95846], [93.74351091900007, 26.958422822000045], [93.74429, 26.95577], [93.74505, 26.95317], [93.74637, 26.94869], [93.74658, 26.94798], [93.74655, 26.94769], [93.7463, 26.94521], [93.74579913300005, 26.94015958600005], [93.7457, 26.93916], [93.74551, 26.93723], [93.74562, 26.93699], [93.74577955500007, 26.93665020700007], [93.74616, 26.93584], [93.74852, 26.93083], [93.7487, 26.92588], [93.74872, 26.92514], [93.74872929200006, 26.92511743600005], [93.74879, 26.92497], [93.74882, 26.92489], [93.74942, 26.9234], [93.75019084000007, 26.921465630000057], [93.75048, 26.92074], [93.75068, 26.92024], [93.75114, 26.91909], [93.75126733300004, 26.918648079000036], [93.75131, 26.9185], [93.75171509600005, 26.91542845200007], [93.7521, 26.91251], [93.75194, 26.9115], [93.75188935900007, 26.911164721000034], [93.75165, 26.90958], [93.75159, 26.90948], [93.75129, 26.90893], [93.75072, 26.90849], [93.75069452800005, 26.90848625900003], [93.74929, 26.90828], [93.74793, 26.90817], [93.74695, 26.9077], [93.74693599300008, 26.907657979000078], [93.74683, 26.90734], [93.74667929900005, 26.907366594000052], [93.74666, 26.90737], [93.7437, 26.90795], [93.74401658400006, 26.906256280000036], [93.7443, 26.90474], [93.74460972900005, 26.903060949000064], [93.74506, 26.90062], [93.74671, 26.89805], [93.74697, 26.89765], [93.74725040800007, 26.897215643000038], [93.74748, 26.89686], [93.74765, 26.8966], [93.74839, 26.89545], [93.7491, 26.89435], [93.74935, 26.89426], [93.75091, 26.89369], [93.75161757100005, 26.893429668000067], [93.75409, 26.89252], [93.75466, 26.89325], [93.75573, 26.89453], [93.75686331800006, 26.89520805400008], [93.7569, 26.89523], [93.75761, 26.89543], [93.7595, 26.89539], [93.76081705300004, 26.895362938000062], [93.76242, 26.89533], [93.76447, 26.89625], [93.76689, 26.89827], [93.76931516700006, 26.899179437000043], [93.76937, 26.8992], [93.76978, 26.89924], [93.77106, 26.89932], [93.77212, 26.89939], [93.77215583600008, 26.899332988000026], [93.77255042500008, 26.898705231000065], [93.77256, 26.89869], [93.77311, 26.89889], [93.77317396000007, 26.898864122000077], [93.77746, 26.89713], [93.77805, 26.89689], [93.77818115900004, 26.896855996000056], [93.77886, 26.89668], [93.77928, 26.89657], [93.78172, 26.89592], [93.78178, 26.89592], [93.78179462700007, 26.89586441800003], [93.78208, 26.89478], [93.78213, 26.89458], [93.78266, 26.89254], [93.78271, 26.89235], [93.78489, 26.88863], [93.78532592900007, 26.888121416000047], [93.78561, 26.88779], [93.78815, 26.8848], [93.78809048200009, 26.884684373000027], [93.78785139900003, 26.884219905000066], [93.78623, 26.88107], [93.78565, 26.87946], [93.78554186400004, 26.879198382000027], [93.78534, 26.87871], [93.78492, 26.87846], [93.78380085500004, 26.877805585000033], [93.78256, 26.87708], [93.78252, 26.87703], [93.782, 26.87638], [93.782, 26.87568], [93.78201, 26.87493], [93.78204, 26.87308], [93.78247, 26.87212], [93.78254, 26.87196], [93.78343, 26.86999], [93.78349, 26.86987], [93.78376, 26.86927], [93.78426, 26.86816], [93.78432, 26.86803], [93.78495, 26.86664], [93.78576, 26.86485], [93.78729, 26.86146], [93.78902, 26.85764], [93.78845, 26.85725], [93.78816, 26.85705], [93.78685, 26.85615], [93.78621, 26.85571], [93.78003, 26.85144], [93.77493, 26.85002], [93.7746, 26.84934], [93.77277207400004, 26.84613154300007], [93.77174, 26.84432], [93.7658, 26.83709], [93.77037, 26.82901], [93.77306, 26.82426], [93.77311289300008, 26.822567416000027], [93.77320552700007, 26.819603134000033], [93.77327184100005, 26.817481075000046], [93.77328, 26.81722], [93.77309370000006, 26.813771537000036], [93.77279, 26.80815], [93.77276113300007, 26.80791906500008], [93.77258, 26.80647], [93.77326, 26.80529], [93.77313872700006, 26.803312315000028], [93.77313, 26.80317], [93.77316311600003, 26.802962729000058], [93.77398, 26.79785], [93.77404060000003, 26.79586365600005], [93.77407, 26.7949], [93.77413224200006, 26.794690640000056], [93.77450898300003, 26.793423422000046], [93.77484, 26.79231], [93.77489288200007, 26.792372752000063], [93.78142011400007, 26.800118269000052], [93.78143, 26.80013], [93.78155363300004, 26.80034054300006], [93.78446, 26.80529], [93.78506367100005, 26.806183848000046], [93.78529649300003, 26.80657143700006], [93.78675439900007, 26.808696816000065], [93.78704128900006, 26.810236092000025], [93.78752662700003, 26.812840118000054], [93.78758026600008, 26.81312791600004], [93.78767472500004, 26.813649535000025], [93.78774, 26.81401], [93.78773770000004, 26.814121844000056], [93.78773661900004, 26.81417435000003], [93.78766113600005, 26.81784476000007], [93.78766, 26.8179], [93.78789114500006, 26.818100325000046], [93.78794882700004, 26.81816441600006], [93.78948640100003, 26.820487134000075], [93.79041842800007, 26.821895091000044], [93.79057818000007, 26.82202592300007], [93.79152125500008, 26.82279826900003], [93.79156, 26.82283], [93.79205, 26.82379], [93.79253752200003, 26.82611642200004], [93.79262, 26.82651], [93.79378, 26.82826], [93.7972, 26.82662], [93.79868, 26.8259], [93.80082, 26.82487], [93.80680516200005, 26.82309194000004], [93.80698, 26.82304], [93.81537143200006, 26.82325356800004], [93.81641, 26.82328], [93.82027, 26.82338], [93.82522, 26.82539], [93.82834529400009, 26.829420807000076], [93.83316613900007, 26.83563842500007], [93.83623, 26.83959], [93.837, 26.84059], [93.83865259600003, 26.84595592100004], [93.83947, 26.84861], [93.84092, 26.85068], [93.84203888700006, 26.852258429000074], [93.84267711200005, 26.85226853300003], [93.84869460300007, 26.852349124000057], [93.84876, 26.85235], [93.84889703100004, 26.851820564000036], [93.84898, 26.8515], [93.84939938400004, 26.8515], [93.84956, 26.8515], [93.84964714300008, 26.85153092200005], [93.84985354200006, 26.85160416000008], [93.84987, 26.85161], [93.84999906600007, 26.85158884200007], [93.85047362000006, 26.85151104600004], [93.85032242800008, 26.85092895500003], [93.85016, 26.85033], [93.85012, 26.85023], [93.84927695500005, 26.849159272000065], [93.84875, 26.84849], [93.84850490000008, 26.84822965400008], [93.84666, 26.84627], [93.84563, 26.84517], [93.84661221700009, 26.84571021900007], [93.84706316200004, 26.845947254000066], [93.84734326700004, 26.846008528000027], [93.84799, 26.84615], [93.84812430500006, 26.846136400000034], [93.84878, 26.84607], [93.84975446800007, 26.846588170000075], [93.85002105700005, 26.84672992800006], [93.85004, 26.84674], [93.85135, 26.84761], [93.85206, 26.84814], [93.85208463300006, 26.84816429400007], [93.85304637400009, 26.849112770000033], [93.85351, 26.84957], [93.85398038200003, 26.849898030000077], [93.85427, 26.8501], [93.85523, 26.85058], [93.85525649600004, 26.850579740000057], [93.85657849700004, 26.850566780000065], [93.85727836200005, 26.850554501000033], [93.85735674900008, 26.85052530100006], [93.85747, 26.85048], [93.85427, 26.84134], [93.85608543600006, 26.839844081000024], [93.85802, 26.83825], [93.86169612000003, 26.84201932800005], [93.86788, 26.84836], [93.88781655600008, 26.865897288000042], [93.8899, 26.86773], [93.89015825100006, 26.86789837300006], [93.92179170100007, 26.888522585000032], [93.92484, 26.89051], [93.93509, 26.89431], [93.94302, 26.89725], [93.94657384600004, 26.89856695700007], [93.94669, 26.89861], [93.94636, 26.89875], [93.94448929300006, 26.899557119000065], [93.94388, 26.89982], [93.94353261800006, 26.90019280100006], [93.94265, 26.90114], [93.94251877900007, 26.902150884000037], [93.94238, 26.90322], [93.94242053200009, 26.90326435600008], [93.94291, 26.9038], [93.94403, 26.90503], [93.94474, 26.90511], [93.94763731400008, 26.905425612000045], [93.94933, 26.90561], [93.94961160000008, 26.90556833100004], [93.95432199300006, 26.90487132800007], [93.95769526400005, 26.90436533700006], [93.95771, 26.90437], [93.96903, 26.91225], [93.96561, 26.91961], [93.96465001100006, 26.921675691000075], [93.96449, 26.92202], [93.96257, 26.92615], [93.96545, 26.92557], [93.97242247500009, 26.924166914000068], [93.97519, 26.92361], [93.97525515500007, 26.923633006000045], [93.98666, 26.92766], [93.98953, 26.93065], [93.99176, 26.93298], [93.99340949300006, 26.934699984000076], [93.99527, 26.93664], [93.99847764000003, 26.939985815000057], [93.99852, 26.94003], [94.00689298100008, 26.934791973000074], [94.00701140300004, 26.934718885000052], [94.00704, 26.9347], [94.01194, 26.9284], [94.01243792100007, 26.927762312000027], [94.01251, 26.92767], [94.01301, 26.92776], [94.01483, 26.9281], [94.02557, 26.9301], [94.02561462800008, 26.930158077000044], [94.0263, 26.93105], [94.02659, 26.93143], [94.02679608200003, 26.931697907000057], [94.02859, 26.93403], [94.02891, 26.93445], [94.02913, 26.93475], [94.02912291300004, 26.93478543300006], [94.02909, 26.93495], [94.02758, 26.9424], [94.02656, 26.94738], [94.02656651400008, 26.94743849400004], [94.02736740500006, 26.95463049500006], [94.02756, 26.95636], [94.03075, 26.95911], [94.03158, 26.95983], [94.03178, 26.96], [94.04071838900006, 26.967692794000072], [94.04075, 26.96772], [94.04165, 26.96975], [94.04352, 26.97392], [94.04492, 26.97475], [94.04539, 26.97502], [94.04781, 26.97643], [94.05258877800009, 26.979224044000034], [94.05277, 26.97933], [94.05823245600004, 26.980164656000056], [94.05938, 26.98034], [94.05985, 26.98041], [94.06414, 26.979], [94.06537, 26.9786], [94.06622537600003, 26.978321176000065], [94.06712062000008, 26.978029356000036], [94.06718, 26.97801], [94.0685, 26.98441], [94.07226, 26.9907], [94.07387, 26.99193], [94.07507, 26.99286], [94.07806714500003, 26.99518988400007], [94.0832, 26.99918], [94.09343, 26.99513], [94.09859342200008, 26.990700364000077], [94.1011, 26.98855], [94.10315, 26.9868], [94.10762299900006, 26.98087214700007], [94.1081, 26.98024], [94.10814300400006, 26.980147068000065], [94.10928, 26.97769], [94.10932, 26.97725], [94.10941, 26.97622], [94.10954, 26.97479], [94.10972, 26.97282], [94.11001409800008, 26.97120812000003], [94.11021569000008, 26.97010324200005], [94.11024, 26.96997], [94.11082014600004, 26.970142663000047], [94.11108, 26.97022], [94.11837, 26.97068], [94.11893, 26.97072], [94.11924087200003, 26.970691841000075], [94.12169, 26.97047], [94.12473, 26.97019], [94.12693, 26.96999], [94.13105, 26.96961], [94.13391, 26.96935], [94.13393456100005, 26.969365606000054], [94.1386, 26.97233], [94.13972909000006, 26.97528186900007], [94.14013, 26.97633], [94.1397, 26.97832], [94.13871, 26.98283], [94.13778827500005, 26.987069933000043], [94.13761, 26.98789], [94.13724, 26.98957], [94.13727399900006, 26.989578593000033], [94.1427, 26.99095], [94.14572, 26.99171], [94.14824, 26.99235], [94.14956, 26.99268], [94.15045, 26.99291], [94.15424, 26.99387], [94.1546, 26.9943], [94.15727979500008, 26.997500866000053], [94.15748, 26.99774], [94.15859, 26.99906], [94.15978587600006, 26.999126945000057], [94.16252, 26.99928], [94.1634, 26.99933], [94.16365, 26.99925], [94.16982, 26.99736], [94.16994, 26.99742], [94.17232, 26.99851], [94.17280681200003, 26.998733670000036], [94.1738, 26.99919], [94.17445, 26.99948], [94.17451220300006, 26.999478277000037], [94.17782887800007, 26.999386403000074], [94.17806, 26.99938], [94.1783, 26.9992], [94.17872, 26.99888], [94.17949124700004, 26.998295287000076], [94.18087, 26.99725], [94.18203, 26.99806], [94.18467, 26.99991], [94.18541, 27.00043], [94.18544847400005, 27.00045565000005], [94.18565, 27.00059], [94.18625, 27.00149], [94.18724, 27.00295], [94.18854569000007, 27.004886404000047], [94.19078, 27.0082], [94.19092820600008, 27.00856847400007], [94.19159623400003, 27.010229352000067], [94.19187, 27.01091], [94.19186806600004, 27.010940298000037], [94.19181493800005, 27.011772644000075], [94.19154, 27.01608], [94.19139, 27.01639], [94.18897389400007, 27.021222212000055], [94.18871, 27.02175], [94.18868488500004, 27.02183307100006], [94.18789543400004, 27.02444433200003], [94.18676, 27.0282], [94.18787, 27.03096], [94.18981, 27.0358], [94.19222, 27.03654], [94.19262857600006, 27.036666420000074], [94.19435432800003, 27.03720039800004], [94.19445, 27.03723], [94.19527, 27.03672], [94.19766205800005, 27.035228482000036], [94.19778081700008, 27.035154431000024], [94.19782, 27.03513], [94.19847, 27.03427], [94.20228395200007, 27.02926841200008], [94.20242, 27.02909], [94.20493, 27.02925], [94.21631, 27.03], [94.21875, 27.03016], [94.22046, 27.0307], [94.22151932800006, 27.031036081000025], [94.22428259200007, 27.03191275100005], [94.2244, 27.03195], [94.22492, 27.03339], [94.22522, 27.0342], [94.22575, 27.03567], [94.22556221000008, 27.03585189900008], [94.2232, 27.03814], [94.22512641000009, 27.043893620000063], [94.22997, 27.05836], [94.23028, 27.05928], [94.23037, 27.05945], [94.23229, 27.06291], [94.23529, 27.06831], [94.23533, 27.06838], [94.23541, 27.06853], [94.23555, 27.06878], [94.2363, 27.07012], [94.23642020000005, 27.07033949500004], [94.23676, 27.07096], [94.23715, 27.07167], [94.23727, 27.07188], [94.23773, 27.0727], [94.2378, 27.07283], [94.23808, 27.07334], [94.24327, 27.07731], [94.24601, 27.07941], [94.24640308800008, 27.07970988200003], [94.25305604600004, 27.084811478000063], [94.25307791300008, 27.084821353000052], [94.25335, 27.08503], [94.25674363300004, 27.086476839000056], [94.25783, 27.08694], [94.25905, 27.08746], [94.26175, 27.0893], [94.26371, 27.09064], [94.26602690200008, 27.092229840000073], [94.2661, 27.09228], [94.26856, 27.09277], [94.26865, 27.09279], [94.27311, 27.09367], [94.27481, 27.09401], [94.27517, 27.09408], [94.27608, 27.09426], [94.28115, 27.09527], [94.28434, 27.09253], [94.28546457600004, 27.091569996000032], [94.28598, 27.09113], [94.28607445100005, 27.091082096000036], [94.29085, 27.08866], [94.29316, 27.08749], [94.2949, 27.08661], [94.29580620400009, 27.086151305000044], [94.29635013800004, 27.085875980000026], [94.29652, 27.08579], [94.29706, 27.08528], [94.29795868400004, 27.08443326200006], [94.29879, 27.08365], [94.30158, 27.08103], [94.30248, 27.08018], [94.30474, 27.07665], [94.30746, 27.07242], [94.31274, 27.07006], [94.31275444800008, 27.070071883000026], [94.31606869000007, 27.072797799000057], [94.31612, 27.07284], [94.31997, 27.08026], [94.32369259000006, 27.087418829000057], [94.32374, 27.08751], [94.32747, 27.08574], [94.32928, 27.08488], [94.33087, 27.08413], [94.33594, 27.08173], [94.33645529400007, 27.081484172000046], [94.33703, 27.08121], [94.33704072700004, 27.081211946000053], [94.34173767800007, 27.082063917000028], [94.34337, 27.08236], [94.34537, 27.08272], [94.34642, 27.08322], [94.34676586200004, 27.08338601300005], [94.34692, 27.08346], [94.35048, 27.08514], [94.35171894600006, 27.08572997400006], [94.35174, 27.08574], [94.35176, 27.08576], [94.35599, 27.09032], [94.35689, 27.09129], [94.35697, 27.09138], [94.35804, 27.09253], [94.35818, 27.09267], [94.36022, 27.09382], [94.36049, 27.09397], [94.36226, 27.09497], [94.36308, 27.09543], [94.36584493800007, 27.096987953000053], [94.36631, 27.09725], [94.36714, 27.09772], [94.36717972400004, 27.097714234000023], [94.369, 27.09745], [94.37262, 27.09692], [94.37287726800008, 27.096882667000045], [94.37579, 27.09646], [94.37595, 27.09644], [94.37713, 27.09626], [94.37995, 27.09585], [94.38212, 27.09553], [94.38228, 27.09551], [94.38276, 27.09544], [94.38320327600007, 27.095371046000025], [94.38412498600007, 27.095605042000045], [94.3843, 27.09565], [94.38435, 27.09566], [94.38499574500008, 27.095826102000046], [94.38781, 27.09655], [94.39103, 27.09737], [94.39212, 27.09765], [94.3932, 27.09733], [94.39768, 27.096], [94.39908, 27.09558], [94.39917, 27.09555], [94.39926, 27.09553], [94.39951, 27.09545], [94.39993, 27.09533], [94.4007, 27.0951], [94.40275, 27.09449], [94.40286, 27.09446], [94.40293, 27.09443], [94.40335, 27.09431], [94.4038, 27.09418], [94.40531, 27.09373], [94.40939, 27.09251], [94.4107, 27.09226], [94.41103, 27.09219], [94.41267, 27.09187], [94.41751517300008, 27.09092460000005], [94.41759, 27.09091], [94.41956917600004, 27.092240446000062], [94.42119, 27.09333], [94.42415, 27.09532], [94.42472142500009, 27.096091004000073], [94.42687, 27.09899], [94.42762, 27.1], [94.42748, 27.10395], [94.42741, 27.10588], [94.42718415700006, 27.112183970000046], [94.42718, 27.1123], [94.42975, 27.11489], [94.43176, 27.11689], [94.43355, 27.11757], [94.43481871400007, 27.11805583100005], [94.43812, 27.11932], [94.44104, 27.11831], [94.44142279100004, 27.11817689000003], [94.4459, 27.11662], [94.45197, 27.1157], [94.45594987000004, 27.115096050000034], [94.45678817100008, 27.11496883800004], [94.45711, 27.11492], [94.46034248600006, 27.112194739000074], [94.46087, 27.11175], [94.46092394900006, 27.11174091500004], [94.46126221800006, 27.11168394200007], [94.46182, 27.11159], [94.46836618300006, 27.11382369100005], [94.46979640000006, 27.114311710000038], [94.46985, 27.11433], [94.47358, 27.12145], [94.47391, 27.12208], [94.47390991600008, 27.12212739200004], [94.4739, 27.1277], [94.47389, 27.13138], [94.47394845400004, 27.131442024000023], [94.47651, 27.13416], [94.47675, 27.13442], [94.47719, 27.13488], [94.47766, 27.13538], [94.48197750900005, 27.13712056600008], [94.48339, 27.13769], [94.48943, 27.13375], [94.49012, 27.1333], [94.49032799800005, 27.128468046000023], [94.49038, 27.12726], [94.49093, 27.12631], [94.49147, 27.1254], [94.49306, 27.12261], [94.49716812700007, 27.121614091000026], [94.50329, 27.12013], [94.50416223300005, 27.120188609000024], [94.50835, 27.12047], [94.51125, 27.13679], [94.51126, 27.13721], [94.51133, 27.13738], [94.51138, 27.13753], [94.51184, 27.1401], [94.51361, 27.1418], [94.514, 27.14517], [94.51544, 27.14918], [94.51735658300004, 27.15085472800007], [94.51964, 27.15285], [94.52139420000003, 27.15648651600003], [94.52142, 27.15654], [94.52358, 27.16271], [94.52511532100004, 27.16593479000005], [94.52607, 27.16794], [94.52890480100007, 27.170417075000046], [94.53027, 27.17161], [94.53584, 27.17371], [94.53725086800006, 27.174355760000026], [94.54246, 27.17674], [94.54802724800004, 27.179148809000026], [94.54780630400006, 27.180801090000045], [94.5474, 27.1838], [94.54216124400006, 27.187167772000066], [94.54080169300005, 27.18804176900005], [94.54054, 27.18821], [94.53848558200008, 27.18969637600003], [94.53403, 27.19292], [94.53377474100006, 27.196348972000067], [94.53373, 27.19695], [94.53545847200007, 27.200812505000044], [94.53552189200008, 27.200950877000025], [94.53941540400007, 27.20275591500007], [94.54074, 27.20337], [94.54429922400004, 27.205924267000057], [94.54663650800006, 27.20760161100003], [94.54669, 27.20764], [94.54671049500007, 27.209064381000076], [94.54672691400003, 27.210421692000068], [94.54184, 27.2131], [94.53884, 27.21577], [94.53887, 27.21825], [94.54148769200003, 27.22115178400003], [94.54233423900007, 27.22209020400004], [94.54274, 27.22254], [94.53972, 27.22361], [94.52996, 27.22707], [94.52873, 27.22811], [94.52594, 27.23047], [94.52559, 27.23076], [94.52465, 27.23155], [94.5198, 27.2351], [94.51803, 27.23734], [94.51791, 27.23754], [94.51532, 27.24183], [94.51526, 27.24281], [94.51505, 27.24646], [94.51485, 27.24809], [94.51482, 27.24835], [94.51373, 27.25736], [94.51358, 27.25993], [94.51334, 27.26457], [94.51297, 27.27158], [94.51289, 27.27319], [94.5129, 27.27495], [94.51269, 27.27705], [94.51266, 27.2777], [94.5126, 27.2789], [94.5131, 27.28204], [94.51507, 27.29434], [94.51363, 27.2992], [94.51345, 27.2998], [94.5123, 27.30293], [94.51175, 27.30442], [94.51101, 27.30671], [94.51089, 27.30784], [94.51076, 27.30908], [94.51066, 27.30995], [94.51044, 27.31197], [94.50973, 27.31334], [94.50812, 27.31645], [94.50721, 27.31822], [94.5103, 27.32176], [94.51057, 27.32209], [94.51187, 27.32336], [94.51276, 27.32424], [94.51311, 27.32534], [94.50997, 27.32971], [94.50994, 27.32975], [94.50909, 27.33102], [94.5083, 27.33219], [94.51103, 27.3338], [94.51398, 27.33554], [94.51544, 27.33556], [94.5178, 27.33542], [94.51805, 27.33532], [94.51856, 27.3351], [94.51948, 27.33471], [94.52298, 27.33182], [94.52326, 27.33255], [94.52535, 27.3353], [94.52721, 27.33926], [94.52436, 27.34051], [94.52329, 27.34066], [94.52296, 27.3407], [94.51876, 27.34083], [94.51888, 27.34311], [94.51895, 27.34425], [94.51884, 27.34453], [94.51815, 27.34632], [94.51749, 27.34804], [94.51742, 27.34813], [94.51521, 27.35115], [94.5149, 27.35157], [94.51377, 27.35311], [94.51321, 27.35201], [94.51259, 27.35141], [94.51052, 27.34941], [94.50987, 27.34879], [94.50977, 27.34736], [94.50977, 27.34699], [94.50973, 27.34679], [94.50974, 27.34667], [94.50975, 27.3465], [94.5099, 27.34382], [94.50989, 27.34306], [94.50792, 27.34153], [94.50738, 27.34111], [94.5069, 27.34074], [94.50657, 27.34017], [94.50647, 27.34], [94.50616, 27.33787], [94.50605, 27.3371], [94.50599, 27.33668], [94.50547, 27.33645], [94.50504, 27.33626], [94.50442, 27.3363], [94.50378, 27.33634], [94.50323, 27.33551], [94.50281, 27.33487], [94.50135, 27.33526], [94.5001, 27.3356], [94.49925, 27.33536], [94.49734, 27.33414], [94.49304, 27.33354], [94.49178, 27.33333], [94.49106, 27.33385], [94.49066, 27.33588], [94.48962, 27.33613], [94.48878, 27.33571], [94.48861, 27.33551], [94.48763, 27.3344], [94.48719, 27.3339], [94.48339, 27.33389], [94.4816, 27.33238], [94.48109, 27.33213], [94.4793, 27.33129], [94.47919, 27.33128], [94.47756, 27.33112], [94.4745, 27.33082], [94.47409, 27.33037], [94.47397, 27.32933], [94.47406, 27.32932], [94.47461, 27.32925], [94.47557, 27.32913], [94.47709, 27.32894], [94.47719, 27.32869], [94.4774, 27.32816], [94.47645, 27.32726], [94.4756, 27.32704], [94.47405, 27.32665], [94.47414, 27.32549], [94.4743, 27.32339], [94.47433, 27.32309], [94.47369, 27.32265], [94.47318, 27.32268], [94.47235, 27.32312], [94.472, 27.32513], [94.47137, 27.32872], [94.47137, 27.32907], [94.47138, 27.32981], [94.47139, 27.33226], [94.47119, 27.33361], [94.46975, 27.33475], [94.46809, 27.33514], [94.46663, 27.335], [94.4656, 27.33426], [94.46521, 27.33393], [94.46412, 27.33301], [94.46298, 27.33184], [94.46269, 27.33134], [94.46001, 27.32673], [94.4599, 27.32566], [94.4598, 27.32464], [94.45917, 27.32353], [94.45864, 27.32299], [94.45801, 27.32292], [94.4573, 27.32414], [94.45699, 27.32438], [94.45669, 27.32437], [94.45587, 27.32442], [94.45566, 27.32443], [94.45537, 27.32411], [94.45493, 27.32362], [94.45399, 27.32263], [94.45332, 27.32261], [94.45296, 27.3226], [94.45069, 27.32294], [94.45008, 27.3226], [94.44996, 27.32098], [94.45002, 27.32046], [94.45045, 27.31663], [94.45051, 27.31639], [94.45085, 27.31487], [94.45043, 27.31384], [94.44857, 27.31338], [94.44695, 27.31355], [94.44642, 27.31362], [94.4461, 27.31388], [94.4459, 27.31404], [94.44581, 27.31501], [94.44799, 27.31832], [94.4482, 27.31978], [94.44821, 27.31985], [94.44821, 27.3208], [94.44815, 27.32083], [94.44708, 27.32136], [94.44605, 27.32095], [94.44429, 27.31963], [94.44296, 27.3202], [94.44183, 27.32113], [94.44154, 27.32106], [94.44121, 27.32098], [94.4409, 27.31976], [94.44038, 27.3197], [94.43742, 27.32127], [94.43577, 27.32068], [94.43509, 27.32098], [94.43474, 27.32114], [94.43433, 27.32183], [94.43454, 27.32479], [94.43411, 27.32558], [94.4333, 27.32708], [94.4331, 27.32747], [94.43341, 27.32841], [94.43402, 27.32865], [94.43608, 27.3289], [94.43659, 27.32924], [94.43661, 27.32944], [94.43669, 27.33019], [94.43654, 27.33088], [94.43649, 27.33116], [94.43599, 27.33129], [94.43504, 27.33154], [94.43427, 27.33176], [94.43236, 27.3323], [94.43237, 27.33306], [94.43108, 27.33702], [94.42973, 27.33835], [94.42966, 27.33956], [94.42949, 27.34246], [94.42764, 27.34249], [94.42738, 27.34301], [94.42693, 27.34388], [94.42659, 27.34456], [94.42576, 27.34467], [94.42503, 27.34476], [94.42485, 27.34287], [94.42362, 27.34277], [94.42356, 27.34305], [94.42333, 27.34436], [94.42326, 27.34475], [94.42313, 27.34553], [94.42308, 27.34585], [94.42306, 27.34594], [94.42248, 27.34603], [94.42203, 27.3461], [94.42146, 27.34561], [94.42117, 27.34536], [94.41938, 27.34382], [94.41718, 27.34427], [94.41555, 27.3456], [94.41468, 27.34608], [94.41337, 27.34679], [94.41319, 27.34734], [94.41171, 27.35177], [94.40799, 27.35099], [94.40645, 27.3509], [94.40545, 27.35084], [94.40503, 27.35091], [94.40393, 27.34907], [94.40285, 27.34836], [94.40242, 27.34839], [94.40155, 27.34845], [94.40103, 27.34849], [94.39931, 27.34951], [94.39868, 27.35033], [94.39766, 27.35223], [94.39638, 27.35462], [94.39474, 27.35552], [94.39427, 27.35577], [94.39347, 27.35695], [94.39322, 27.35733], [94.39287, 27.35794], [94.39183, 27.35938], [94.39181, 27.35944], [94.39138, 27.35908], [94.39099, 27.35876], [94.38763, 27.35778], [94.3807, 27.3554], [94.38037, 27.35464], [94.38054, 27.35353], [94.38319, 27.3511], [94.38358, 27.35018], [94.38087, 27.34626], [94.37763, 27.34662], [94.37662, 27.34748], [94.37494, 27.34783], [94.37334, 27.34639], [94.37036, 27.34629], [94.36991, 27.34624], [94.37061, 27.34392], [94.37073, 27.34145], [94.37069, 27.34131], [94.37013, 27.33949], [94.37004, 27.33377], [94.36774, 27.33293], [94.36505, 27.33541], [94.36225, 27.33743], [94.3614, 27.33787], [94.36047, 27.33832], [94.36008, 27.33851], [94.35909, 27.33899], [94.35898, 27.33904], [94.35643, 27.33925], [94.35552, 27.34022], [94.35416, 27.34168], [94.35362, 27.34116], [94.35466, 27.33805], [94.35362, 27.33813], [94.35192, 27.33929], [94.34973, 27.33971], [94.34975, 27.33617], [94.3488, 27.33366], [94.34829, 27.33233], [94.34822, 27.33215], [94.34714, 27.32984], [94.34653, 27.32852], [94.34634, 27.32476], [94.34629, 27.32322], [94.34616, 27.32297], [94.34587, 27.32239], [94.34448, 27.32102], [94.34386, 27.32424], [94.34213, 27.3263], [94.34037, 27.32725], [94.33934, 27.32732], [94.33868, 27.32736], [94.33797, 27.32706], [94.33405, 27.3254], [94.33332, 27.32509], [94.32809, 27.32422], [94.32578, 27.32439], [94.32386, 27.32548], [94.32092, 27.32825], [94.3194, 27.33056], [94.31438, 27.32634], [94.31383, 27.32587], [94.3115, 27.32433], [94.30786, 27.32207], [94.30597, 27.32089], [94.3042, 27.31979], [94.3033, 27.3244], [94.30321, 27.32486], [94.30294, 27.32626], [94.30278, 27.32706], [94.30109, 27.33031], [94.29989, 27.33262], [94.29948, 27.3334], [94.30129, 27.33843], [94.30214, 27.34077], [94.30196, 27.34241], [94.30159, 27.34562], [94.29933, 27.35117], [94.2926, 27.35304], [94.2917, 27.35329], [94.28554, 27.355], [94.2723, 27.36267], [94.26227, 27.37069], [94.25764, 27.37545], [94.25328, 27.37994], [94.2522, 27.38106], [94.25055, 27.38275], [94.25035, 27.38323], [94.24838, 27.38784], [94.24747, 27.38997], [94.25027, 27.3945], [94.25201, 27.39732], [94.25654, 27.39946], [94.25673, 27.39955], [94.25788, 27.39942], [94.2597, 27.39922], [94.26604, 27.39853], [94.26642, 27.39844], [94.26989, 27.39309], [94.27721, 27.38865], [94.28068, 27.38483], [94.28445, 27.38315], [94.28565, 27.38262], [94.28687, 27.383], [94.29287, 27.38485], [94.29463, 27.38539], [94.29868, 27.38664], [94.30194, 27.39059], [94.3046, 27.39586], [94.30476, 27.39618], [94.30462, 27.39825], [94.30552, 27.40425], [94.30624, 27.40902], [94.30684, 27.41191], [94.3068, 27.41208], [94.30517, 27.41848], [94.30457, 27.42084], [94.30448, 27.42121], [94.30468, 27.42406], [94.30482, 27.42598], [94.30483, 27.42614], [94.30503, 27.42873], [94.30504, 27.42892], [94.30602, 27.43111], [94.30635, 27.43185], [94.30597, 27.43482], [94.30583, 27.43594], [94.30554, 27.43708], [94.30449, 27.43796], [94.30289, 27.4393], [94.3013, 27.44063], [94.29607, 27.44502], [94.29049, 27.4487], [94.2886, 27.45105], [94.28588, 27.45442], [94.28555, 27.45482], [94.28441, 27.45623], [94.28433, 27.45633], [94.28353, 27.45733], [94.28302, 27.45796], [94.28207, 27.46013], [94.28202, 27.46019], [94.28101, 27.46245], [94.28072, 27.4631], [94.27845, 27.46817], [94.27915, 27.47271], [94.27988, 27.47751], [94.28, 27.48091], [94.2803, 27.48898], [94.28015, 27.50016], [94.27958, 27.50203], [94.27746, 27.50375], [94.27522, 27.50478], [94.26588, 27.50836], [94.26442, 27.5073], [94.25873, 27.50639], [94.25807, 27.50628], [94.25693, 27.50613], [94.25344, 27.50567], [94.25037, 27.50527], [94.24886663300003, 27.505145412000047], [94.24856, 27.50512], [94.24491, 27.50482], [94.24222, 27.50514], [94.24065, 27.506], [94.23934183600005, 27.506714388000034], [94.23924, 27.50677], [94.23774, 27.50696], [94.23692478300006, 27.507064117000027], [94.23406, 27.50743], [94.22957, 27.50698], [94.22546352800003, 27.505581289000077], [94.22499, 27.50542], [94.222, 27.50362], [94.21633450600007, 27.500107197000034], [94.21621, 27.50003], [94.21616, 27.49995], [94.21529, 27.49848], [94.21509, 27.49815], [94.21493829500008, 27.498009067000055], [94.21358899200004, 27.49675557300003], [94.2134, 27.49658], [94.21299, 27.49588], [94.21135977500006, 27.495165142000076], [94.21112, 27.49506], [94.20641, 27.49466], [94.20376, 27.49468], [94.20108, 27.49451], [94.19912, 27.49446], [94.19604, 27.49437], [94.19207, 27.49324], [94.18994, 27.49054], [94.18978, 27.49034], [94.18772, 27.48773], [94.18686, 27.48726], [94.18635, 27.48698], [94.17937, 27.48313], [94.17653, 27.48156], [94.17552, 27.481], [94.17069, 27.48109], [94.16881, 27.48113], [94.16875, 27.48113], [94.16825, 27.4807], [94.16504, 27.47793], [94.16363, 27.47734], [94.15802, 27.475], [94.15857, 27.4721], [94.15912, 27.46919], [94.15918, 27.46888], [94.15955, 27.46694], [94.161, 27.46341], [94.15812, 27.46041], [94.15524, 27.4574], [94.14159, 27.4454], [94.13664, 27.4428], [94.13214, 27.43889], [94.12763, 27.43497], [94.12412, 27.43193], [94.11786, 27.42792], [94.11257, 27.42146], [94.10728, 27.41501], [94.10069, 27.41088], [94.09967, 27.41042], [94.09407, 27.4079], [94.09132, 27.40538], [94.08994, 27.40411], [94.08961, 27.40381], [94.08711, 27.40152], [94.07757, 27.38674], [94.07319, 27.37996], [94.07108, 27.37521], [94.06938, 27.37135], [94.06703, 27.36902], [94.06387, 27.36587], [94.06164, 27.36052], [94.05555, 27.35979], [94.05515, 27.35954], [94.05179, 27.35744], [94.04903, 27.35572], [94.04441, 27.35194], [94.04237, 27.35026], [94.0389, 27.34869], [94.01513, 27.33795], [94.01053, 27.33588], [94.00761, 27.33464], [94.00074, 27.33172], [94.00141, 27.32714], [93.99908, 27.32602], [93.99675, 27.32489], [93.99091, 27.32168], [93.98953, 27.32042], [93.98866, 27.31963], [93.98859, 27.31956], [93.98641, 27.31759], [93.98166, 27.31079], [93.9772, 27.30791], [93.97614, 27.30714], [93.97118, 27.30351], [93.97059, 27.30303], [93.97019, 27.30269], [93.96964, 27.30222], [93.9695, 27.3021], [93.96406, 27.29754], [93.95723, 27.29181], [93.94953, 27.28242], [93.9396, 27.27031], [93.9371, 27.26784], [93.9346, 27.26537], [93.92464, 27.25795], [93.92244, 27.25631], [93.92199, 27.25598], [93.92127, 27.25544], [93.91959, 27.25419], [93.91159, 27.24721], [93.90299, 27.2397], [93.90236, 27.23915], [93.90172, 27.23859], [93.89907, 27.23513], [93.89688, 27.23227], [93.89364, 27.22803], [93.8897, 27.2245], [93.88628, 27.22143], [93.88164, 27.21493], [93.88148, 27.2147], [93.88132, 27.21447], [93.87835, 27.2103], [93.87771, 27.2094], [93.87434, 27.20466], [93.87096, 27.19992], [93.8681, 27.1959], [93.86658, 27.19472], [93.86018, 27.18976], [93.85953, 27.18926], [93.85811, 27.18816], [93.85131, 27.1807], [93.8478, 27.17685], [93.8477, 27.17676], [93.84143, 27.17133], [93.84068, 27.17068], [93.84051, 27.17053], [93.82962, 27.16773], [93.8237, 27.16159], [93.81766, 27.15533], [93.81641, 27.15437], [93.81281, 27.15161], [93.80921, 27.14884], [93.80832, 27.14657], [93.80743, 27.1443], [93.80656, 27.1376], [93.80621, 27.13489], [93.8086, 27.13313], [93.8141, 27.12908], [93.81387, 27.12847], [93.81356, 27.12764], [93.81346, 27.12737], [93.81281, 27.12566], [93.81195, 27.12339], [93.81193, 27.12333], [93.81314, 27.12209], [93.81336, 27.12187], [93.81479, 27.12041], [93.81552, 27.11966], [93.81674, 27.11956], [93.81916, 27.11936], [93.82019, 27.11927], [93.8225, 27.11908], [93.82362, 27.11693], [93.82412, 27.11597], [93.82484, 27.11459], [93.82619, 27.112], [93.82631, 27.11178], [93.82777, 27.10897], [93.8277, 27.10735], [93.82767, 27.10696], [93.82766, 27.10674], [93.82758, 27.10521], [93.82754, 27.10429], [93.82749, 27.10322], [93.82748, 27.1031], [93.82741, 27.10186], [93.8274, 27.10163], [93.82732, 27.10004], [93.82725, 27.09851], [93.82722, 27.09798], [93.8272, 27.09761], [93.82714, 27.09646], [93.82714, 27.09639], [93.8273, 27.09616], [93.82833, 27.09462], [93.82953, 27.09285], [93.8307, 27.09111], [93.831, 27.09067], [93.83101, 27.09065], [93.83183, 27.08943], [93.8319, 27.08923], [93.83197, 27.08902], [93.83212, 27.08858], [93.83221, 27.08834], [93.83245, 27.08764], [93.8326, 27.08722], [93.83278, 27.0867], [93.8335, 27.08461], [93.83377, 27.08364], [93.83404, 27.08268], [93.83422, 27.08204], [93.83467, 27.08045], [93.83481, 27.07995], [93.83484, 27.07984], [93.83493, 27.07966], [93.83582, 27.07792], [93.83652, 27.07655], [93.83722, 27.07519], [93.8367, 27.07456], [93.83627, 27.0741], [93.83614, 27.07394], [93.8355, 27.07321], [93.83255, 27.06985], [93.83124, 27.06852], [93.83111, 27.06838], [93.83105, 27.06832], [93.83086, 27.06812], [93.82933, 27.06657], [93.82911, 27.06635], [93.82871, 27.06594], [93.82768, 27.06582], [93.82706, 27.06574], [93.82502, 27.0655], [93.82334, 27.06531], [93.82211, 27.06429], [93.82099, 27.06337], [93.81925, 27.06193], [93.81805, 27.0631], [93.81703, 27.06409], [93.81404, 27.06701], [93.81335, 27.06768], [93.8121, 27.06537], [93.81146, 27.06416], [93.81144, 27.06412], [93.81114, 27.06356], [93.81093, 27.06316], [93.81047, 27.06231], [93.81004, 27.06151], [93.81001, 27.06145], [93.80988, 27.0612], [93.80916, 27.05986], [93.80906, 27.05967], [93.809, 27.05957], [93.8086, 27.05962], [93.80657, 27.05987], [93.80562, 27.05999], [93.8043, 27.06015], [93.80062, 27.0606], [93.79813, 27.0609], [93.79655, 27.05824], [93.79596, 27.05723], [93.79572, 27.05683], [93.79512, 27.05583], [93.79503, 27.05568], [93.7948, 27.05529], [93.79448, 27.05475], [93.79366, 27.05432], [93.79356, 27.05426], [93.79269, 27.0538], [93.79071, 27.05275], [93.78945, 27.05208], [93.7879, 27.05125], [93.78651, 27.05273], [93.785, 27.05434], [93.78385, 27.05556], [93.78356, 27.05586], [93.78229, 27.05721], [93.78168, 27.05786], [93.7814, 27.05683], [93.78111, 27.05579], [93.78077, 27.05452], [93.78068, 27.0542], [93.78045, 27.05337], [93.78024, 27.0526], [93.77999, 27.05168], [93.77981, 27.05104], [93.77964, 27.05039], [93.77765, 27.05369], [93.77722, 27.0544], [93.77649, 27.05561], [93.77419, 27.05941], [93.77228, 27.05257], [93.77208, 27.05183], [93.77087, 27.04734], [93.77076, 27.04694], [93.77075, 27.0469], [93.77042, 27.04572], [93.77025, 27.04508], [93.77009, 27.04449], [93.76901, 27.04051], [93.76896, 27.04034], [93.76655, 27.03915], [93.76615, 27.03895], [93.76534, 27.03856], [93.76443, 27.0381], [93.76258, 27.0372], [93.76244, 27.03713], [93.75073, 27.03135], [93.75009, 27.03103], [93.74692, 27.02947], [93.7434, 27.02803], [93.74077, 27.02694], [93.73512, 27.02461], [93.73439, 27.02431], [93.72973, 27.02182], [93.72649, 27.0201], [93.7258, 27.01973], [93.7241, 27.01882], [93.72236, 27.01789], [93.71943, 27.01632], [93.71283, 27.01095], [93.71209, 27.01034], [93.71142, 27.0098], [93.70607, 27.00544], [93.70617, 27.00077], [93.70429, 26.99852], [93.70228, 26.99611], [93.70121, 26.99483], [93.70061, 26.99412], [93.70057, 26.99407], [93.7005, 26.99399], [93.69942, 26.99269], [93.69885, 26.99201], [93.69876, 26.9919]]]}}]}