{"type": "FeatureCollection", "features": [{"type": "Feature", "properties": {"Name": "Majuli"}, "geometry": {"type": "MultiPolygon", "coordinates": [[[[94.40140393200005, 26.959309175000044], [94.40204524400008, 26.960211360000073], [94.41980257400007, 26.969845517000067], [94.42065, 26.97031], [94.42315872200004, 26.971684802000027], [94.43251716300006, 26.977588785000023], [94.44011, 26.98253], [94.44027067800005, 26.982602980000024], [94.44273, 26.98372], [94.44955, 26.98668], [94.45191, 26.98771], [94.45257, 26.988], [94.45669810400005, 26.98981560200008], [94.45905, 26.99085], [94.45929, 26.99096], [94.4636, 26.99396], [94.46742, 26.99883], [94.46908, 27.00094], [94.46921456900009, 27.001661153000043], [94.46947, 27.00303], [94.46963, 27.0039], [94.47017, 27.00683], [94.47038, 27.00795], [94.4704, 27.00805], [94.47154, 27.0142], [94.47259, 27.01776], [94.47361809200004, 27.021166411000024], [94.47409, 27.02273], [94.47414466300006, 27.02279878300004], [94.47792838200007, 27.02755984500004], [94.47951, 27.02955], [94.47959380600008, 27.02957480300006], [94.4936, 27.03372], [94.49685, 27.03468], [94.4981, 27.03505], [94.49810925900005, 27.035055064000062], [94.50152019300003, 27.03692023900004], [94.50408, 27.03832], [94.50769004900008, 27.04029393600007], [94.50953, 27.0413], [94.51292, 27.04652], [94.51363, 27.04761], [94.51371006800008, 27.04770341400007], [94.51501, 27.04922], [94.52110344400006, 27.05632245000004], [94.52274, 27.05823], [94.5293, 27.06585], [94.52979, 27.06643], [94.53059, 27.06667], [94.53299, 27.06736], [94.53813234600005, 27.068837359000042], [94.54450720600005, 27.073968344000036], [94.54826972900008, 27.082147742000075], [94.54859531900007, 27.08331301100003], [94.55107, 27.09323], [94.55358406500005, 27.09517975700004], [94.55802, 27.09862], [94.56371, 27.1008], [94.56929, 27.11052], [94.56995, 27.11108], [94.57209691300005, 27.11287782100004], [94.57241, 27.11314], [94.57547, 27.11602], [94.57584, 27.11637], [94.5834, 27.12352], [94.58704, 27.12693], [94.59432766900005, 27.133776883000053], [94.59448, 27.13392], [94.59425453800009, 27.134638047000067], [94.59356, 27.13685], [94.59262, 27.13971], [94.59167, 27.14265], [94.59132, 27.14372], [94.59099, 27.14471], [94.5875, 27.15558], [94.58297192200007, 27.168399623000028], [94.57892448807685, 27.179858477835026], [94.57838, 27.1814], [94.57590151883971, 27.19332155977626], [94.57467745600007, 27.199209334332096], [94.57459, 27.19963], [94.56851, 27.2057], [94.56200448511413, 27.21091126884138], [94.5609717577442, 27.211738539251026], [94.56092, 27.21178], [94.55833160900005, 27.21436839100005], [94.55408, 27.21862], [94.54966, 27.2202], [94.54759774500008, 27.220945467000035], [94.54291, 27.22264], [94.54274, 27.22254], [94.54233423900007, 27.22209020400004], [94.54148769200003, 27.22115178400003], [94.53887, 27.21825], [94.53884, 27.21577], [94.54184, 27.2131], [94.54672691400003, 27.210421692000068], [94.54671049500007, 27.209064381000076], [94.54669, 27.20764], [94.54663650800006, 27.20760161100003], [94.54429922400004, 27.205924267000057], [94.54074, 27.20337], [94.53941540400007, 27.20275591500007], [94.53552189200008, 27.200950877000025], [94.53545847200007, 27.200812505000044], [94.53373, 27.19695], [94.53377474100006, 27.196348972000067], [94.53403, 27.19292], [94.53848558200008, 27.18969637600003], [94.54054, 27.18821], [94.54080169300005, 27.18804176900005], [94.54216124400006, 27.187167772000066], [94.5474, 27.1838], [94.54780630400006, 27.180801090000045], [94.54802724800004, 27.179148809000026], [94.54246, 27.17674], [94.53725086800006, 27.174355760000026], [94.53584, 27.17371], [94.53027, 27.17161], [94.52890480100007, 27.170417075000046], [94.52607, 27.16794], [94.52511532100004, 27.16593479000005], [94.52358, 27.16271], [94.52142, 27.15654], [94.52139420000003, 27.15648651600003], [94.51964, 27.15285], [94.51735658300004, 27.15085472800007], [94.51544, 27.14918], [94.514, 27.14517], [94.51361, 27.1418], [94.51184, 27.1401], [94.51138, 27.13753], [94.51133, 27.13738], [94.51126, 27.13721], [94.51125, 27.13679], [94.50835, 27.12047], [94.50416223300005, 27.120188609000024], [94.50329, 27.12013], [94.49716812700007, 27.121614091000026], [94.49306, 27.12261], [94.49147, 27.1254], [94.49093, 27.12631], [94.49038, 27.12726], [94.49032799800005, 27.128468046000023], [94.49012, 27.1333], [94.48943, 27.13375], [94.48339, 27.13769], [94.48197750900005, 27.13712056600008], [94.47766, 27.13538], [94.47719, 27.13488], [94.47675, 27.13442], [94.47651, 27.13416], [94.47394845400004, 27.131442024000023], [94.47389, 27.13138], [94.4739, 27.1277], [94.47390991600008, 27.12212739200004], [94.47391, 27.12208], [94.47358, 27.12145], [94.46985, 27.11433], [94.46979640000006, 27.114311710000038], [94.46836618300006, 27.11382369100005], [94.46182, 27.11159], [94.46126221800006, 27.11168394200007], [94.46092394900006, 27.11174091500004], [94.46087, 27.11175], [94.46034248600006, 27.112194739000074], [94.45711, 27.11492], [94.45678817100008, 27.11496883800004], [94.45594987000004, 27.115096050000034], [94.45197, 27.1157], [94.4459, 27.11662], [94.44142279100004, 27.11817689000003], [94.44104, 27.11831], [94.43812, 27.11932], [94.43481871400007, 27.11805583100005], [94.43355, 27.11757], [94.43176, 27.11689], [94.42975, 27.11489], [94.42718, 27.1123], [94.42718415700006, 27.112183970000046], [94.42741, 27.10588], [94.42748, 27.10395], [94.42762, 27.1], [94.42687, 27.09899], [94.42472142500009, 27.096091004000073], [94.42415, 27.09532], [94.42119, 27.09333], [94.41956917600004, 27.092240446000062], [94.41759, 27.09091], [94.41751517300008, 27.09092460000005], [94.41267, 27.09187], [94.41103, 27.09219], [94.4107, 27.09226], [94.40939, 27.09251], [94.40531, 27.09373], [94.4038, 27.09418], [94.40335, 27.09431], [94.40293, 27.09443], [94.40286, 27.09446], [94.40275, 27.09449], [94.4007, 27.0951], [94.39993, 27.09533], [94.39951, 27.09545], [94.39926, 27.09553], [94.39917, 27.09555], [94.39908, 27.09558], [94.39768, 27.096], [94.3932, 27.09733], [94.39212, 27.09765], [94.39103, 27.09737], [94.38781, 27.09655], [94.38499574500008, 27.095826102000046], [94.38435, 27.09566], [94.3843, 27.09565], [94.38412498600007, 27.095605042000045], [94.38320327600007, 27.095371046000025], [94.38276, 27.09544], [94.38228, 27.09551], [94.38212, 27.09553], [94.37995, 27.09585], [94.37713, 27.09626], [94.37595, 27.09644], [94.37579, 27.09646], [94.37287726800008, 27.096882667000045], [94.37262, 27.09692], [94.369, 27.09745], [94.36717972400004, 27.097714234000023], [94.36714, 27.09772], [94.36631, 27.09725], [94.36584493800007, 27.096987953000053], [94.36308, 27.09543], [94.36226, 27.09497], [94.36049, 27.09397], [94.36022, 27.09382], [94.35818, 27.09267], [94.35804, 27.09253], [94.35697, 27.09138], [94.35689, 27.09129], [94.35599, 27.09032], [94.35176, 27.08576], [94.35174, 27.08574], [94.35171894600006, 27.08572997400006], [94.35048, 27.08514], [94.34692, 27.08346], [94.34676586200004, 27.08338601300005], [94.34642, 27.08322], [94.34537, 27.08272], [94.34337, 27.08236], [94.34173767800007, 27.082063917000028], [94.33704072700004, 27.081211946000053], [94.33703, 27.08121], [94.33645529400007, 27.081484172000046], [94.33594, 27.08173], [94.33087, 27.08413], [94.32928, 27.08488], [94.32747, 27.08574], [94.32374, 27.08751], [94.32369259000006, 27.087418829000057], [94.31997, 27.08026], [94.31612, 27.07284], [94.31606869000007, 27.072797799000057], [94.31275444800008, 27.070071883000026], [94.31274, 27.07006], [94.30746, 27.07242], [94.30474, 27.07665], [94.30248, 27.08018], [94.30158, 27.08103], [94.29879, 27.08365], [94.29795868400004, 27.08443326200006], [94.29706, 27.08528], [94.29652, 27.08579], [94.29635013800004, 27.085875980000026], [94.29580620400009, 27.086151305000044], [94.2949, 27.08661], [94.29316, 27.08749], [94.29085, 27.08866], [94.28607445100005, 27.091082096000036], [94.28598, 27.09113], [94.28546457600004, 27.091569996000032], [94.28434, 27.09253], [94.28115, 27.09527], [94.27608, 27.09426], [94.27517, 27.09408], [94.27481, 27.09401], [94.27311, 27.09367], [94.26865, 27.09279], [94.26856, 27.09277], [94.2661, 27.09228], [94.26602690200008, 27.092229840000073], [94.26371, 27.09064], [94.26175, 27.0893], [94.25905, 27.08746], [94.25783, 27.08694], [94.25674363300004, 27.086476839000056], [94.25335, 27.08503], [94.25307791300008, 27.084821353000052], [94.25305604600004, 27.084811478000063], [94.24640308800008, 27.07970988200003], [94.24601, 27.07941], [94.24327, 27.07731], [94.23808, 27.07334], [94.2378, 27.07283], [94.23773, 27.0727], [94.23727, 27.07188], [94.23715, 27.07167], [94.23676, 27.07096], [94.23642020000005, 27.07033949500004], [94.2363, 27.07012], [94.23555, 27.06878], [94.23541, 27.06853], [94.23533, 27.06838], [94.23529, 27.06831], [94.23229, 27.06291], [94.23037, 27.05945], [94.23028, 27.05928], [94.22997, 27.05836], [94.22512641000009, 27.043893620000063], [94.2232, 27.03814], [94.22556221000008, 27.03585189900008], [94.22575, 27.03567], [94.22522, 27.0342], [94.22492, 27.03339], [94.2244, 27.03195], [94.22428259200007, 27.03191275100005], [94.22151932800006, 27.031036081000025], [94.22046, 27.0307], [94.21875, 27.03016], [94.21631, 27.03], [94.20493, 27.02925], [94.20242, 27.02909], [94.20228395200007, 27.02926841200008], [94.19847, 27.03427], [94.19782, 27.03513], [94.19778081700008, 27.035154431000024], [94.19766205800005, 27.035228482000036], [94.19527, 27.03672], [94.19445, 27.03723], [94.19435432800003, 27.03720039800004], [94.19262857600006, 27.036666420000074], [94.19222, 27.03654], [94.18981, 27.0358], [94.18787, 27.03096], [94.18676, 27.0282], [94.18789543400004, 27.02444433200003], [94.18868488500004, 27.02183307100006], [94.18871, 27.02175], [94.18897389400007, 27.021222212000055], [94.19139, 27.01639], [94.19154, 27.01608], [94.19181493800005, 27.011772644000075], [94.19186806600004, 27.010940298000037], [94.19187, 27.01091], [94.19159623400003, 27.010229352000067], [94.19092820600008, 27.00856847400007], [94.19078, 27.0082], [94.18854569000007, 27.004886404000047], [94.18724, 27.00295], [94.18625, 27.00149], [94.18565, 27.00059], [94.18544847400005, 27.00045565000005], [94.18541, 27.00043], [94.18467, 26.99991], [94.18203, 26.99806], [94.18087, 26.99725], [94.17949124700004, 26.998295287000076], [94.17872, 26.99888], [94.1783, 26.9992], [94.17806, 26.99938], [94.17782887800007, 26.999386403000074], [94.17451220300006, 26.999478277000037], [94.17445, 26.99948], [94.1738, 26.99919], [94.17280681200003, 26.998733670000036], [94.17232, 26.99851], [94.16994, 26.99742], [94.16982, 26.99736], [94.16365, 26.99925], [94.1634, 26.99933], [94.16252, 26.99928], [94.15978587600006, 26.999126945000057], [94.15859, 26.99906], [94.15748, 26.99774], [94.15727979500008, 26.997500866000053], [94.1546, 26.9943], [94.15424, 26.99387], [94.15045, 26.99291], [94.14956, 26.99268], [94.14824, 26.99235], [94.14572, 26.99171], [94.1427, 26.99095], [94.13727399900006, 26.989578593000033], [94.13724, 26.98957], [94.13761, 26.98789], [94.13778827500005, 26.987069933000043], [94.13871, 26.98283], [94.1397, 26.97832], [94.14013, 26.97633], [94.13972909000006, 26.97528186900007], [94.1386, 26.97233], [94.13393456100005, 26.969365606000054], [94.13391, 26.96935], [94.13105, 26.96961], [94.12693, 26.96999], [94.12473, 26.97019], [94.12169, 26.97047], [94.11924087200003, 26.970691841000075], [94.11893, 26.97072], [94.11837, 26.97068], [94.11108, 26.97022], [94.11082014600004, 26.970142663000047], [94.11024, 26.96997], [94.11021569000008, 26.97010324200005], [94.11001409800008, 26.97120812000003], [94.10972, 26.97282], [94.10954, 26.97479], [94.10941, 26.97622], [94.10932, 26.97725], [94.10928, 26.97769], [94.10814300400006, 26.980147068000065], [94.1081, 26.98024], [94.10762299900006, 26.98087214700007], [94.10315, 26.9868], [94.1011, 26.98855], [94.09859342200008, 26.990700364000077], [94.09343, 26.99513], [94.0832, 26.99918], [94.07806714500003, 26.99518988400007], [94.07507, 26.99286], [94.07387, 26.99193], [94.07226, 26.9907], [94.0685, 26.98441], [94.06718, 26.97801], [94.06712062000008, 26.978029356000036], [94.06622537600003, 26.978321176000065], [94.06537, 26.9786], [94.06414, 26.979], [94.05985, 26.98041], [94.05938, 26.98034], [94.05823245600004, 26.980164656000056], [94.05277, 26.97933], [94.05258877800009, 26.979224044000034], [94.04781, 26.97643], [94.04539, 26.97502], [94.04492, 26.97475], [94.04352, 26.97392], [94.04165, 26.96975], [94.04075, 26.96772], [94.04071838900006, 26.967692794000072], [94.03178, 26.96], [94.03158, 26.95983], [94.03075, 26.95911], [94.02756, 26.95636], [94.02736740500006, 26.95463049500006], [94.02656651400008, 26.94743849400004], [94.02656, 26.94738], [94.02758, 26.9424], [94.02909, 26.93495], [94.02912291300004, 26.93478543300006], [94.02913, 26.93475], [94.02891, 26.93445], [94.02859, 26.93403], [94.02679608200003, 26.931697907000057], [94.02659, 26.93143], [94.0263, 26.93105], [94.02561462800008, 26.930158077000044], [94.02557, 26.9301], [94.01483, 26.9281], [94.01301, 26.92776], [94.01251, 26.92767], [94.01243792100007, 26.927762312000027], [94.01194, 26.9284], [94.00704, 26.9347], [94.00701140300004, 26.934718885000052], [94.00689298100008, 26.934791973000074], [93.99852, 26.94003], [93.99847764000003, 26.939985815000057], [93.99527, 26.93664], [93.99340949300006, 26.934699984000076], [93.99176, 26.93298], [93.98953, 26.93065], [93.98666, 26.92766], [93.97525515500007, 26.923633006000045], [93.97519, 26.92361], [93.97242247500009, 26.924166914000068], [93.96545, 26.92557], [93.96257, 26.92615], [93.96449, 26.92202], [93.96465001100006, 26.921675691000075], [93.96561, 26.91961], [93.96903, 26.91225], [93.95771, 26.90437], [93.95769526400005, 26.90436533700006], [93.95432199300006, 26.90487132800007], [93.94961160000008, 26.90556833100004], [93.94933, 26.90561], [93.94763731400008, 26.905425612000045], [93.94474, 26.90511], [93.94403, 26.90503], [93.94291, 26.9038], [93.94242053200009, 26.90326435600008], [93.94238, 26.90322], [93.94251877900007, 26.902150884000037], [93.94265, 26.90114], [93.94353261800006, 26.90019280100006], [93.94388, 26.89982], [93.94448929300006, 26.899557119000065], [93.94636, 26.89875], [93.94669, 26.89861], [93.94657384600004, 26.89856695700007], [93.94302, 26.89725], [93.93509, 26.89431], [93.92484, 26.89051], [93.92179170100007, 26.888522585000032], [93.89015825100006, 26.86789837300006], [93.8899, 26.86773], [93.88781655600008, 26.865897288000042], [93.86788, 26.84836], [93.86169612000003, 26.84201932800005], [93.85802, 26.83825], [93.85608543600006, 26.839844081000024], [93.85427, 26.84134], [93.85747, 26.85048], [93.85735674900008, 26.85052530100006], [93.85727836200005, 26.850554501000033], [93.85657849700004, 26.850566780000065], [93.85525649600004, 26.850579740000057], [93.85523, 26.85058], [93.85427, 26.8501], [93.85398038200003, 26.849898030000077], [93.85351, 26.84957], [93.85304637400009, 26.849112770000033], [93.85208463300006, 26.84816429400007], [93.85206, 26.84814], [93.85135, 26.84761], [93.85004, 26.84674], [93.85002105700005, 26.84672992800006], [93.84975446800007, 26.846588170000075], [93.84878, 26.84607], [93.84812430500006, 26.846136400000034], [93.84799, 26.84615], [93.84734326700004, 26.846008528000027], [93.84706316200004, 26.845947254000066], [93.84661221700009, 26.84571021900007], [93.84563, 26.84517], [93.84666, 26.84627], [93.84850490000008, 26.84822965400008], [93.84875, 26.84849], [93.84927695500005, 26.849159272000065], [93.85012, 26.85023], [93.85016, 26.85033], [93.85032242800008, 26.85092895500003], [93.85047362000006, 26.85151104600004], [93.84999906600007, 26.85158884200007], [93.84987, 26.85161], [93.84985354200006, 26.85160416000008], [93.84964714300008, 26.85153092200005], [93.84956, 26.8515], [93.84939938400004, 26.8515], [93.84898, 26.8515], [93.84889703100004, 26.851820564000036], [93.84876, 26.85235], [93.84869460300007, 26.852349124000057], [93.84267711200005, 26.85226853300003], [93.84203888700006, 26.852258429000074], [93.84092, 26.85068], [93.83947, 26.84861], [93.83865259600003, 26.84595592100004], [93.837, 26.84059], [93.83623, 26.83959], [93.83316613900007, 26.83563842500007], [93.82834529400009, 26.829420807000076], [93.82522, 26.82539], [93.82027, 26.82338], [93.81641, 26.82328], [93.81537143200006, 26.82325356800004], [93.80698, 26.82304], [93.80680516200005, 26.82309194000004], [93.80082, 26.82487], [93.79868, 26.8259], [93.7972, 26.82662], [93.79378, 26.82826], [93.79262, 26.82651], [93.79253752200003, 26.82611642200004], [93.79205, 26.82379], [93.79156, 26.82283], [93.79152125500008, 26.82279826900003], [93.79057818000007, 26.82202592300007], [93.79041842800007, 26.821895091000044], [93.78948640100003, 26.820487134000075], [93.78794882700004, 26.81816441600006], [93.78789114500006, 26.818100325000046], [93.78766, 26.8179], [93.78766113600005, 26.81784476000007], [93.78773661900004, 26.81417435000003], [93.78773770000004, 26.814121844000056], [93.78774, 26.81401], [93.78767472500004, 26.813649535000025], [93.78758026600008, 26.81312791600004], [93.78752662700003, 26.812840118000054], [93.78704128900006, 26.810236092000025], [93.78675439900007, 26.808696816000065], [93.78529649300003, 26.80657143700006], [93.78506367100005, 26.806183848000046], [93.78446, 26.80529], [93.78155363300004, 26.80034054300006], [93.78143, 26.80013], [93.78142011400007, 26.800118269000052], [93.77489288200007, 26.792372752000063], [93.77484, 26.79231], [93.77374684500006, 26.791041939000024], [93.77316841300006, 26.790631779000023], [93.76412863800005, 26.784511549000058], [93.76376818800009, 26.784269691000077], [93.76356, 26.78413], [93.76344, 26.78406], [93.76344409900008, 26.784036357000048], [93.76355561100007, 26.783393190000027], [93.76393745900003, 26.78119081500006], [93.76403712600006, 26.780615969000053], [93.76433753000003, 26.778883336000035], [93.76443, 26.77835], [93.77235554500004, 26.77177646000007], [93.77293, 26.7713], [93.77478402400004, 26.769623943000056], [93.78116, 26.76386], [93.7839, 26.76138], [93.79193, 26.75412], [93.79200708300004, 26.754112254000063], [93.80251059800008, 26.753056807000064], [93.80377027200007, 26.752930228000025], [93.80636, 26.75267], [93.80701, 26.75258], [93.81261958300007, 26.751744406000057], [93.81640028300006, 26.75118123900006], [93.81661, 26.75115], [93.82110975100005, 26.74899021600004], [93.83534, 26.74216], [93.84433, 26.73786], [93.84496, 26.73757], [93.8569, 26.73215], [93.85984, 26.73081], [93.86213, 26.72977], [93.87272936200009, 26.724974812000028], [93.87274, 26.72497], [93.87319, 26.72477], [93.87638, 26.72333], [93.87682760400008, 26.72312454200005], [93.87699, 26.72305], [93.88074, 26.7235], [93.88581, 26.72411], [93.89548, 26.72526], [93.89598, 26.72532], [93.89622, 26.72541], [93.89767, 26.72599], [93.90489, 26.72886], [93.90534, 26.72904], [93.91449, 26.73264], [93.91732, 26.73376], [93.91734982300005, 26.733805519000043], [93.91735752900007, 26.733817282000075], [93.9177, 26.73434], [93.91773, 26.73438], [93.92126, 26.73524], [93.92188359800008, 26.735390605000077], [93.92391, 26.73588], [93.9264, 26.73649], [93.93205, 26.73786], [93.93246, 26.73795], [93.94631455800004, 26.74085530600007], [93.94648, 26.74089], [93.95283, 26.74376], [93.95569, 26.74505], [93.95618, 26.74527], [93.96035, 26.74716], [93.96335, 26.74851], [93.96795, 26.75059], [93.97003, 26.75153], [93.97017043400007, 26.751628434000054], [93.97710772400006, 26.756490960000065], [93.98083, 26.7591], [93.98985, 26.76543], [93.99123994000007, 26.766400218000058], [93.99124710000007, 26.766410746000076], [93.99145111300004, 26.76671099200007], [93.99659847900006, 26.770836743000075], [93.99430904700006, 26.77254852200008], [93.99036696100006, 26.777944956000056], [93.99382279300005, 26.784392128000036], [93.99642911900008, 26.786584746000074], [94.00287252100009, 26.79200537400004], [94.00328492400007, 26.793602847000045], [94.00404893200005, 26.796562282000025], [94.00428561100006, 26.79747907600006], [94.00513821900006, 26.80078171400004], [94.00760252600008, 26.808807881000064], [94.01312138300005, 26.818793864000043], [94.01319627400005, 26.819206958000052], [94.01527943900004, 26.830697634000046], [94.01836276200004, 26.832062379000035], [94.02329756900008, 26.83340824100003], [94.03428865200004, 26.83722148100003], [94.04326105100006, 26.839015965000044], [94.05043904900003, 26.841259087000026], [94.05902438400005, 26.84302665000007], [94.07331863900004, 26.845969585000034], [94.07812242400007, 26.846124546000055], [94.08722591400004, 26.846418262000043], [94.09731984100006, 26.846418262000043], [94.10380912900007, 26.84716727500006], [94.10387304500006, 26.847156402000053], [94.10398957700005, 26.847136566000074], [94.10694993000004, 26.84663267600007], [94.11035523300006, 26.846053050000023], [94.11062524200008, 26.84606804400005], [94.12289023400007, 26.84674943600004], [94.13077071000004, 26.847936894000043], [94.13282357200006, 26.848246236000023], [94.13305759500008, 26.848281502000077], [94.13998652000004, 26.85013746000004], [94.14085726300004, 26.850370689000044], [94.14609737300003, 26.85092783300007], [94.14614250500006, 26.850932632000024], [94.15008855000008, 26.85135219400007], [94.15882706500008, 26.852623237000046], [94.17074335800004, 26.854370965000044], [94.17510559400006, 26.85565818200007], [94.18043518100006, 26.857230902000026], [94.18837928800008, 26.860567451000065], [94.19457578700008, 26.86390399900006], [94.20093107200006, 26.867081642000073], [94.20696871400008, 26.86978263700007], [94.21641612600007, 26.871152645000052], [94.22415255500005, 26.872274505000064], [94.23097361200007, 26.872156894000057], [94.23198104100004, 26.871854666000047], [94.23567772000007, 26.870745661000058], [94.23976853100004, 26.870667715000025], [94.24365638000006, 26.870593668000026], [94.24802637100004, 26.87051045900006], [94.25023050000004, 26.87041795300007], [94.25333791100007, 26.87028758100007], [94.25523147600006, 26.870280911000066], [94.25684666600006, 26.87027525900004], [94.26024175200007, 26.870450834000053], [94.26366766100006, 26.870628036000028], [94.26679226500005, 26.870802153000056], [94.27097821200005, 26.871035457000062], [94.28108739900006, 26.871598740000024], [94.28585076300004, 26.87275743500004], [94.28603201100003, 26.87279897600007], [94.28616031600006, 26.872828424000033], [94.28964350100006, 26.873627844000055], [94.29370380700004, 26.874559730000044], [94.29657864700005, 26.871672034000028], [94.29856085800009, 26.88152980800004], [94.30076694500008, 26.884505510000054], [94.30100292100008, 26.885036201000048], [94.30120801900006, 26.88549745100005], [94.30217539100005, 26.886463953000032], [94.30253162800005, 26.886819898000056], [94.30385518100007, 26.88781178000005], [94.30881881300007, 26.888362829000073], [94.31444417400007, 26.889685388000032], [94.32501721200003, 26.892767681000066], [94.33861733900005, 26.89908170500007], [94.34306824900005, 26.90061650100006], [94.34361447300006, 26.900804854000057], [94.35387039200003, 26.90434134000003], [94.36074471500007, 26.90961539700004], [94.36223912200006, 26.91254329700007], [94.36489892000009, 26.91520309400005], [94.36769175500007, 26.916931987000055], [94.36927515500008, 26.918666318000078], [94.37048446300008, 26.91999079900006], [94.37129872500003, 26.92108648900006], [94.37189602900008, 26.921890140000073], [94.37207172900008, 26.922487793000073], [94.37232839700005, 26.923360462000062], [94.37272098200003, 26.924695254000028], [94.37296319000006, 26.925518513000043], [94.37403035200003, 26.929893970000023], [94.37442294300007, 26.931178981000073], [94.37517081800007, 26.933626573000026], [94.37518588100005, 26.93367587000006], [94.37520432500008, 26.933735847000037], [94.37733864800003, 26.93757772400005], [94.37840577300005, 26.93875165000003], [94.37976938400004, 26.939456963000055], [94.38150071300004, 26.940352435000023], [94.38933134600006, 26.94100032700004], [94.39026053500004, 26.943380046000073], [94.39867353200003, 26.954336269000066], [94.40052129500003, 26.956351451000046], [94.40057267300006, 26.955716379000023], [94.40067296900008, 26.954200796000066], [94.40069421000004, 26.954214071000024], [94.40088866900004, 26.951810402000035], [94.40115492600006, 26.951104348000058], [94.40202616700003, 26.948794], [94.40214773700006, 26.948471624000035], [94.4009, 26.95179], [94.40076, 26.95354], [94.40072, 26.95405], [94.40063, 26.9551], [94.40055963000003, 26.955913475000045], [94.40038, 26.95799], [94.40140393200005, 26.959309175000044]]], [[[94.40214773700006, 26.948471624000035], [94.40213476700006, 26.948474987000054], [94.40236601300006, 26.947795702000064], [94.40242059000008, 26.947745206000036], [94.40214773700006, 26.948471624000035]]]]}}]}