{"type": "FeatureCollection", "features": [{"type": "Feature", "properties": {"Name": "Morigaon"}, "geometry": {"type": "Polygon", "coordinates": [[[92.44144, 26.48476], [92.42651, 26.48129], [92.42513, 26.48097], [92.42432, 26.48078], [92.41636, 26.4791], [92.40933, 26.47761], [92.40783, 26.47729], [92.40109, 26.47586], [92.39759, 26.47512], [92.3962, 26.47483], [92.39527, 26.47444], [92.39522, 26.47442], [92.39151, 26.47285], [92.39115, 26.4696], [92.39115, 26.46822], [92.39115, 26.46617], [92.39115, 26.46564], [92.39115, 26.46507], [92.39115, 26.46293], [92.39073, 26.46127], [92.3905, 26.46034], [92.39047, 26.46023], [92.39025, 26.45933], [92.3894, 26.45856], [92.38854, 26.45777], [92.38826, 26.45752], [92.38429, 26.45792], [92.38308, 26.45804], [92.37832, 26.45851], [92.37727, 26.45861], [92.37675, 26.45881], [92.37457, 26.45967], [92.37241, 26.46052], [92.37132, 26.46095], [92.36809, 26.4631], [92.36699, 26.46383], [92.36014, 26.46798], [92.35221, 26.4705], [92.345, 26.47104], [92.33671, 26.47086], [92.32643, 26.46347], [92.31598, 26.45608], [92.31251, 26.45337], [92.31021, 26.45158], [92.30566, 26.44672], [92.30498, 26.44599], [92.30484, 26.4452], [92.30427, 26.44195], [92.30401, 26.44049], [92.30383, 26.43945], [92.30243, 26.43142], [92.30227, 26.43051], [92.3009, 26.43068], [92.30065, 26.43071], [92.2999, 26.43081], [92.29831, 26.43102], [92.29438, 26.43098], [92.29297, 26.43075], [92.29291, 26.43074], [92.29194, 26.43217], [92.29189, 26.43366], [92.29212, 26.43524], [92.29053, 26.43787], [92.29034, 26.43802], [92.29007, 26.43823], [92.28992, 26.43968], [92.28963, 26.44158], [92.28973, 26.44235], [92.28983, 26.44244], [92.29012, 26.44275], [92.29044, 26.44334], [92.29085, 26.44369], [92.29164, 26.44414], [92.29227, 26.44429], [92.29365, 26.44463], [92.29771, 26.44587], [92.29952, 26.44618], [92.30063, 26.44618], [92.30074, 26.4461], [92.30099, 26.44672], [92.30153, 26.44807], [92.3014, 26.45119], [92.30132, 26.45361], [92.30103, 26.4544], [92.30092, 26.45469], [92.30295, 26.45662], [92.3049, 26.45806], [92.30657, 26.45934], [92.3081, 26.46008], [92.30932, 26.46021], [92.30877, 26.46198], [92.30761, 26.46712], [92.30715, 26.46784], [92.30595, 26.4673], [92.29724, 26.46519], [92.29567, 26.46463], [92.29502, 26.46437], [92.29336, 26.46277], [92.29247, 26.46193], [92.29009, 26.4597], [92.28097, 26.45408], [92.27278, 26.45164], [92.27007, 26.45172], [92.26114, 26.452], [92.25721, 26.45159], [92.25614, 26.45147], [92.24861, 26.44784], [92.24237, 26.44176], [92.24092, 26.43797], [92.23938, 26.43398], [92.23935, 26.43388], [92.23818, 26.43083], [92.22878, 26.4222], [92.22681, 26.42077], [92.22131, 26.41702], [92.21628, 26.41495], [92.21579, 26.41496], [92.21247, 26.41508], [92.20909, 26.41669], [92.20776, 26.41733], [92.20592, 26.41954], [92.20321, 26.42108], [92.20213, 26.42128], [92.18832, 26.42372], [92.18371, 26.42342], [92.1809, 26.42323], [92.18027, 26.42319], [92.17445, 26.42101], [92.17165, 26.41997], [92.17132, 26.41985], [92.16525, 26.41758], [92.16394, 26.41709], [92.16012, 26.41433], [92.15989, 26.41416], [92.15932, 26.41375], [92.15738, 26.41235], [92.15523, 26.41079], [92.15384, 26.40943], [92.15057, 26.40625], [92.14979, 26.40632], [92.14882, 26.40633], [92.14673, 26.4057], [92.14585, 26.40544], [92.1437, 26.4046], [92.14299, 26.4035], [92.14247, 26.40269], [92.14223, 26.40228], [92.14159, 26.40121], [92.13925, 26.39922], [92.13829, 26.39748], [92.13962, 26.3981], [92.14083, 26.39872], [92.14395, 26.40032], [92.14512, 26.40093], [92.14288, 26.39875], [92.14141, 26.39642], [92.13932, 26.3931], [92.13749, 26.3902], [92.13488, 26.38606], [92.12986, 26.38019], [92.12776, 26.37531], [92.12593, 26.37105], [92.11628, 26.36311], [92.11419, 26.3614], [92.11278, 26.36024], [92.11137, 26.35908], [92.10757, 26.35674], [92.10693, 26.35576], [92.1053, 26.35331], [92.10526, 26.35323], [92.10368, 26.34726], [92.10291, 26.34432], [92.10264, 26.34333], [92.09676, 26.34054], [92.09013, 26.33863], [92.08499, 26.33715], [92.08391, 26.33473], [92.07746, 26.32036], [92.07483, 26.31449], [92.0716, 26.31187], [92.06846, 26.31127], [92.06769, 26.31112], [92.06417, 26.30826], [92.06311, 26.30343], [92.05746, 26.29298], [92.05027, 26.28198], [92.04964, 26.28101], [92.04678, 26.27808], [92.0444, 26.27564], [92.04368, 26.27532], [92.04072, 26.27401], [92.03897, 26.27324], [92.03169, 26.27002], [92.03133, 26.27008], [92.02987, 26.27032], [92.02759, 26.2707], [92.0234, 26.27302], [92.01923, 26.27629], [92.0165, 26.27972], [92.01634, 26.27992], [92.0162, 26.2801], [92.0121, 26.279], [92.00375, 26.27383], [92.00207, 26.27315], [91.99881, 26.27183], [91.99875, 26.27181], [91.99087, 26.26913], [91.98783, 26.27147], [91.98565, 26.27315], [91.98319, 26.27505], [91.97543, 26.26927], [91.97009, 26.26529], [91.96991, 26.26516], [91.96779, 26.26358], [91.95945, 26.25737], [91.95482, 26.25392], [91.95531, 26.25319], [91.95884, 26.24803], [91.95892, 26.24674], [91.95909, 26.24389], [91.95908, 26.24386], [91.95868, 26.24273], [91.95735, 26.23896], [91.9571, 26.23545], [91.95799, 26.23166], [91.95961, 26.2295], [91.95986, 26.22916], [91.96014, 26.22879], [91.96079, 26.22793], [91.96831, 26.22483], [91.97105, 26.22276], [91.9776, 26.21779], [91.97781, 26.21766], [91.98731, 26.21176], [91.98934, 26.2105], [91.99874, 26.20465], [92.00043, 26.20427], [92.00416, 26.20344], [92.00707, 26.20384], [92.00939, 26.20464], [92.01565, 26.20542], [92.01584, 26.20544], [92.01777, 26.2041], [92.02131, 26.20192], [92.02155, 26.20177], [92.02168, 26.20168], [92.02309, 26.20123], [92.02461, 26.20147], [92.02799, 26.20518], [92.02954, 26.20689], [92.03069, 26.2075], [92.03167, 26.20803], [92.03331, 26.20791], [92.03583, 26.20626], [92.03767, 26.20506], [92.03779, 26.20498], [92.03949, 26.20175], [92.0396, 26.20154], [92.04175, 26.1996], [92.04256, 26.19959], [92.04404, 26.19956], [92.04486, 26.19955], [92.04712, 26.20439], [92.04734, 26.21358], [92.04797, 26.21289], [92.04905, 26.21171], [92.05249, 26.20798], [92.05725, 26.2028], [92.05935, 26.20051], [92.06223, 26.19738], [92.06448, 26.19649], [92.06458, 26.19649], [92.06572, 26.1965], [92.06646, 26.19651], [92.06865, 26.19652], [92.07291, 26.19655], [92.07415, 26.19628], [92.07458, 26.19618], [92.07836, 26.19511], [92.07844, 26.19493], [92.07927, 26.19361], [92.0819, 26.18763], [92.08269, 26.18585], [92.08312, 26.18573], [92.0846, 26.18529], [92.08518, 26.18512], [92.09123, 26.18868], [92.09319, 26.18802], [92.09328, 26.18799], [92.09437, 26.18543], [92.09457, 26.18496], [92.09292, 26.1829], [92.08507, 26.17843], [92.0835, 26.17803], [92.08299, 26.17769], [92.0827, 26.17745], [92.08413, 26.17725], [92.09471, 26.17609], [92.10187, 26.17378], [92.10549, 26.17262], [92.10745, 26.17199], [92.10849, 26.17166], [92.10969, 26.17127], [92.11022, 26.17168], [92.11111, 26.17236], [92.11185, 26.17293], [92.11356, 26.17423], [92.11595, 26.17606], [92.11608, 26.17616], [92.1168, 26.17638], [92.11699, 26.17644], [92.1238, 26.17854], [92.12543, 26.17857], [92.12796, 26.17861], [92.12982, 26.17863], [92.13077, 26.17865], [92.13091, 26.17857], [92.13239, 26.17765], [92.13268, 26.17652], [92.13339, 26.17369], [92.14091, 26.16818], [92.14198, 26.16739], [92.14276, 26.16681], [92.14829, 26.16275], [92.14863, 26.16265], [92.15032, 26.16216], [92.15134, 26.16186], [92.15173, 26.16175], [92.15203, 26.16166], [92.1529, 26.16141], [92.15501, 26.16307], [92.15545, 26.16561], [92.15561, 26.16649], [92.15608, 26.16671], [92.15741, 26.16734], [92.15821, 26.16706], [92.15991, 26.16648], [92.16035, 26.16617], [92.16393, 26.16363], [92.16479, 26.16362], [92.16675, 26.1636], [92.16772, 26.16359], [92.16919, 26.16357], [92.16871, 26.16042], [92.16846, 26.15874], [92.16825, 26.15734], [92.16824, 26.15726], [92.16801, 26.15681], [92.16723, 26.15522], [92.16388, 26.1484], [92.16449, 26.14331], [92.16564, 26.13379], [92.16598, 26.13246], [92.16623, 26.13146], [92.167, 26.12843], [92.16827, 26.12345], [92.16874, 26.12162], [92.16923, 26.1197], [92.16938, 26.11911], [92.16966, 26.11802], [92.17093, 26.11563], [92.1716, 26.11116], [92.17161, 26.11106], [92.17162, 26.11095], [92.17164, 26.11087], [92.17166, 26.11075], [92.17173, 26.11026], [92.172, 26.10845], [92.17252, 26.10497], [92.17307, 26.10126], [92.17086, 26.09689], [92.16923, 26.09368], [92.1691, 26.09188], [92.17472, 26.08192], [92.17923, 26.07811], [92.18186, 26.07478], [92.18071, 26.07092], [92.17978, 26.06781], [92.18056, 26.06746], [92.18133, 26.0671], [92.18316, 26.06887], [92.18323, 26.06894], [92.18347, 26.06882], [92.18436, 26.06836], [92.18549, 26.06778], [92.18616, 26.06772], [92.18893, 26.06749], [92.18923, 26.06746], [92.19024, 26.06547], [92.20269, 26.0686], [92.20913, 26.06714], [92.21019, 26.06774], [92.20974, 26.06925], [92.21091, 26.06957], [92.21128, 26.06967], [92.21286, 26.06953], [92.21364, 26.06889], [92.21368, 26.06886], [92.21442, 26.06825], [92.21696, 26.06785], [92.21922, 26.06871], [92.22224, 26.06794], [92.22314, 26.06771], [92.2262, 26.06693], [92.2272, 26.06668], [92.22849, 26.06635], [92.22917, 26.06618], [92.23491, 26.06389], [92.23859, 26.06242], [92.23964, 26.062], [92.24199, 26.06107], [92.24212, 26.06109], [92.25051, 26.06256], [92.25124, 26.06269], [92.25226, 26.06287], [92.25716, 26.06322], [92.25897, 26.06335], [92.26092, 26.06349], [92.26511, 26.0638], [92.26114475900005, 26.063506629000074], [92.26641976300004, 26.063921863000076], [92.26935622500008, 26.066447466000056], [92.26942035946861, 26.066424517190203], [92.26945, 26.06645], [92.27088, 26.06592], [92.27232, 26.06539], [92.2731, 26.0651], [92.27321, 26.06504], [92.27376, 26.06476], [92.27403, 26.06462], [92.2741, 26.06459], [92.27451, 26.06438], [92.27451, 26.06428], [92.27447, 26.06351], [92.27825, 26.06574], [92.28151, 26.06766], [92.28199, 26.06771], [92.28325, 26.06785], [92.28493, 26.06804], [92.28502, 26.06805], [92.28712, 26.06828], [92.28883, 26.06847], [92.28924, 26.06903], [92.28957, 26.06948], [92.2907, 26.071], [92.29074257300005, 26.071057473000053], [92.29083837000007, 26.07119004900005], [92.29078567400006, 26.072279087000027], [92.29356, 26.07509], [92.29376, 26.0753], [92.29469, 26.07626], [92.29675, 26.07735], [92.29753118280723, 26.077508585983423], [92.29808, 26.07762], [92.29856, 26.07712], [92.29882, 26.07685], [92.30014, 26.07548], [92.30042, 26.07519], [92.30232374600007, 26.074937316000046], [92.30372041100009, 26.075730876000023], [92.30373026900008, 26.075742845000036], [92.30803572100007, 26.078167794000024], [92.30807, 26.07818], [92.30901, 26.07794], [92.30942475700004, 26.07783442500005], [92.31009413500004, 26.07767377500005], [92.31009879090449, 26.077662853224314], [92.31011, 26.07766], [92.31127, 26.07492], [92.31298262000007, 26.074505360000046], [92.31371, 26.07562], [92.31318717900007, 26.080490948000033], [92.31304929400005, 26.081739007000067], [92.31304, 26.08182], [92.31449, 26.08573], [92.31453, 26.08583], [92.31498, 26.08705], [92.31676, 26.08908], [92.31754696600007, 26.089976265000075], [92.31896, 26.09158], [92.32237, 26.09374], [92.32278, 26.094], [92.3268, 26.09654], [92.33186, 26.09719], [92.33342, 26.09785], [92.34154, 26.10127], [92.34542113600008, 26.102906516000075], [92.34587592800005, 26.103098283000065], [92.34489, 26.10595], [92.34485898400004, 26.10603978300003], [92.34451, 26.10705], [92.34707907900008, 26.108088749000046], [92.35037405800006, 26.10819877600005], [92.35145560500007, 26.108234891000052], [92.35640896900009, 26.110430531000077], [92.35971135100004, 26.113032408000038], [92.36036, 26.11355], [92.36039, 26.11357], [92.36932333100003, 26.120686720000037], [92.37247776200007, 26.130918050000048], [92.37817215500007, 26.131912675000024], [92.37904741900007, 26.132558044000064], [92.38052, 26.13365], [92.38122, 26.13417], [92.38362, 26.13595], [92.38666649000004, 26.139567132000025], [92.38690202000004, 26.13985211000005], [92.38693, 26.13988], [92.38772607297847, 26.1401045904213], [92.38772354600007, 26.14015388000007], [92.38899699400008, 26.140463147000048], [92.39051, 26.14089], [92.39248691200004, 26.14042276300006], [92.39935891600004, 26.138839508000046], [92.40113, 26.13838], [92.4013, 26.13878], [92.40155822913422, 26.13940627985425], [92.40217, 26.14089], [92.4024, 26.14145], [92.40319, 26.1434], [92.40482, 26.1473], [92.40493, 26.14756], [92.40618, 26.15057], [92.40711, 26.15363], [92.40746, 26.15479], [92.40811, 26.15693], [92.40828, 26.15751], [92.40882, 26.15928], [92.41008, 26.16342], [92.41042, 26.16455], [92.41203, 26.16988], [92.41257, 26.17164], [92.41407, 26.17661], [92.41533, 26.18076], [92.41555, 26.18148], [92.41583, 26.1824], [92.41603, 26.18314], [92.4163, 26.18412], [92.41647, 26.18474], [92.41664, 26.18532], [92.41668, 26.18547], [92.41669, 26.1855], [92.41867, 26.19281], [92.42017, 26.19806], [92.42032, 26.19859], [92.42034, 26.19866], [92.42101, 26.20102], [92.42103, 26.20109], [92.42107, 26.20122], [92.42113, 26.20141], [92.42119, 26.20162], [92.4217, 26.20335], [92.42224, 26.20528], [92.42281, 26.20731], [92.42296, 26.20783], [92.42338, 26.20929], [92.42533, 26.21614], [92.42568, 26.21735], [92.42612, 26.21892], [92.42633, 26.21965], [92.42634, 26.21967], [92.42647, 26.22007], [92.42692, 26.22143], [92.42697, 26.22157], [92.42724, 26.2224], [92.42892, 26.22752], [92.42894, 26.22761], [92.42917, 26.2283], [92.42983, 26.23034], [92.43106, 26.2341], [92.43115, 26.23438], [92.4314, 26.23513], [92.43394, 26.23863], [92.43519, 26.24036], [92.43605, 26.24155], [92.43723, 26.24318], [92.43836, 26.24331], [92.43946, 26.24343], [92.43951, 26.24344], [92.44539, 26.2441], [92.44927, 26.24454], [92.45328, 26.24545], [92.45658, 26.24619], [92.45998, 26.24697], [92.46105, 26.24721], [92.46505, 26.24811], [92.46978, 26.24918], [92.47148, 26.24934], [92.47663, 26.24982], [92.47687, 26.24984], [92.47828, 26.24998], [92.4864, 26.25073], [92.48812, 26.25089], [92.49436, 26.25147], [92.4948, 26.25166], [92.49803, 26.25302], [92.50162, 26.25453], [92.50188, 26.25464], [92.50555, 26.25619], [92.50703, 26.25815], [92.50787, 26.25927], [92.50812, 26.2596], [92.51084, 26.26323], [92.51132, 26.26387], [92.51654, 26.27057], [92.51784, 26.269], [92.5211, 26.26566], [92.5217, 26.26566], [92.52229, 26.26584], [92.52303, 26.26606], [92.52747, 26.268], [92.53197, 26.27078], [92.53446, 26.27232], [92.53626, 26.27368], [92.54033, 26.27676], [92.54113, 26.27684], [92.54203, 26.2764], [92.54321, 26.27581], [92.54544, 26.27452], [92.54508, 26.27777], [92.54485, 26.27987], [92.54447, 26.2833], [92.54445, 26.28345], [92.54482, 26.28529], [92.54484, 26.28538], [92.54502, 26.286], [92.54558, 26.28786], [92.54706, 26.2903], [92.54876, 26.29137], [92.54894, 26.29149], [92.54959, 26.29318], [92.55084, 26.29401], [92.55147, 26.29442], [92.55142, 26.29544], [92.55282, 26.29651], [92.55398, 26.29665], [92.55291, 26.2979], [92.55128, 26.29833], [92.55091, 26.29975], [92.54881, 26.29988], [92.54819, 26.30001], [92.54809, 26.30003], [92.5479, 26.30076], [92.54768, 26.3016], [92.54614, 26.30204], [92.54401, 26.30223], [92.54081, 26.30269], [92.53643, 26.30295], [92.53527, 26.30306], [92.53612, 26.30803], [92.5366, 26.31065], [92.53699, 26.31274], [92.53734, 26.3146], [92.53749, 26.31543], [92.53757, 26.31584], [92.53926, 26.32419], [92.54035, 26.32528], [92.54193, 26.32686], [92.54265, 26.32759], [92.54347, 26.32842], [92.5449, 26.32986], [92.54567, 26.33063], [92.54708, 26.33205], [92.54753, 26.3325], [92.5476, 26.33257], [92.54952, 26.3345], [92.55034, 26.33532], [92.55037, 26.33536], [92.55357, 26.33857], [92.55374, 26.33874], [92.55386, 26.33908], [92.5543, 26.34028], [92.55559, 26.34382], [92.5559, 26.34466], [92.55701, 26.34769], [92.55701, 26.35023], [92.55701, 26.35119], [92.55701, 26.35252], [92.5553, 26.35458], [92.55689, 26.35558], [92.56012, 26.35646], [92.56295, 26.35709], [92.56349, 26.35777], [92.56535, 26.35998], [92.56619, 26.36146], [92.56676, 26.36111], [92.57101, 26.35871], [92.57358, 26.35726], [92.57492, 26.35773], [92.57596, 26.35877], [92.57697, 26.35977], [92.57858, 26.36138], [92.5786, 26.3614], [92.57888, 26.36232], [92.57878, 26.36353], [92.57878, 26.36359], [92.58015, 26.36665], [92.58117, 26.368], [92.58151, 26.36845], [92.58167, 26.36866], [92.58243, 26.37033], [92.58282, 26.37282], [92.58255, 26.37288], [92.57967, 26.37328], [92.57694, 26.37374], [92.5713, 26.37435], [92.57082, 26.3744], [92.56927, 26.37582], [92.56837, 26.37758], [92.56776, 26.37876], [92.56858, 26.3792], [92.55465, 26.38064], [92.55442, 26.3806], [92.55215, 26.38024], [92.54563, 26.3792], [92.52451, 26.37641], [92.52068, 26.3759], [92.51755, 26.37726], [92.51604, 26.37791], [92.51502, 26.37835], [92.51344, 26.37904], [92.51203, 26.37965], [92.51136, 26.37994], [92.50813, 26.38134], [92.50599, 26.38226], [92.50562, 26.38242], [92.50544, 26.38248], [92.50437, 26.38284], [92.50315, 26.38324], [92.50228, 26.38353], [92.50136, 26.38384], [92.50089, 26.38399], [92.5002, 26.38422], [92.498, 26.38495], [92.49726, 26.3852], [92.49436, 26.38617], [92.49165, 26.38708], [92.49041, 26.38749], [92.49035, 26.38751], [92.48942, 26.38783], [92.48749, 26.38851], [92.48667, 26.3888], [92.48447, 26.38959], [92.4843, 26.38965], [92.48346, 26.38995], [92.4832, 26.39004], [92.48104, 26.39081], [92.47848, 26.39171], [92.47771, 26.39199], [92.47577, 26.39268], [92.47445, 26.39315], [92.47273, 26.39376], [92.4673, 26.39574], [92.4671, 26.39581], [92.46557, 26.39637], [92.46278, 26.39738], [92.46221, 26.39759], [92.45981, 26.39846], [92.45798, 26.39913], [92.45709, 26.39946], [92.45567, 26.39998], [92.4533, 26.40085], [92.45298, 26.40096], [92.4529, 26.40099], [92.45276, 26.40104], [92.45249, 26.40114], [92.44925, 26.40233], [92.44874, 26.40252], [92.44681, 26.40323], [92.44083, 26.40527], [92.4405, 26.40583], [92.44045, 26.40591], [92.43985, 26.40692], [92.43944, 26.4076], [92.43896, 26.40841], [92.43805, 26.40993], [92.4335, 26.41754], [92.43294, 26.41848], [92.43347, 26.42231], [92.43437, 26.4289], [92.43465, 26.43092], [92.43519, 26.43482], [92.43527, 26.43537], [92.43549, 26.43702], [92.43551, 26.43716], [92.43579, 26.43928], [92.4358, 26.43932], [92.436, 26.44075], [92.43639, 26.44366], [92.43689, 26.44735], [92.43694, 26.44769], [92.4374, 26.45113], [92.43741, 26.45121], [92.43761, 26.45264], [92.43776, 26.45377], [92.43784, 26.45433], [92.43811, 26.45634], [92.4385, 26.45924], [92.43885, 26.46186], [92.43957, 26.46803], [92.43975, 26.46965], [92.43997, 26.4716], [92.44055, 26.47687], [92.44085, 26.47954], [92.44117, 26.4824], [92.44126, 26.48323], [92.44144, 26.48476]], [[92.40155822913422, 26.13940627985425], [92.40150309600006, 26.139396995000027], [92.40207064000003, 26.140775038000072], [92.40618008900003, 26.15075310800006], [92.40155822913422, 26.13940627985425]]]}}]}