{"type": "FeatureCollection", "features": [{"type": "Feature", "properties": {"Name": "Nagaon"}, "geometry": {"type": "MultiPolygon", "coordinates": [[[[93.29716, 26.69854], [93.29361, 26.69669], [93.29089, 26.69528], [93.29057094300003, 26.693867287000046], [93.28909, 26.68731], [93.28890772900007, 26.68725323600006], [93.27488681500006, 26.682886694000047], [93.27448, 26.68276], [93.26518, 26.68185], [93.26501012600005, 26.68185787300007], [93.25808829300007, 26.682178640000075], [93.25698, 26.68223], [93.25517109700007, 26.682558113000027], [93.25064, 26.68338], [93.24556, 26.68388], [93.24550849000008, 26.683815038000034], [93.23832698000007, 26.67475797700007], [93.23817, 26.67456], [93.23651535200008, 26.671258243000068], [93.23398023900006, 26.666199564000067], [93.23378, 26.6658], [93.23122716700004, 26.65202124500007], [93.22988, 26.64475], [93.22526681700003, 26.63704621200003], [93.22382617800008, 26.634640416000025], [93.22379, 26.63458], [93.22300291100004, 26.633572018000052], [93.22069, 26.63061], [93.22041, 26.63025], [93.21956, 26.62916], [93.21685, 26.62566], [93.21659721000003, 26.625545659000068], [93.21318, 26.624], [93.19509, 26.61582], [93.19437, 26.61549], [93.19074, 26.61473], [93.18288826200006, 26.61310370800004], [93.17867, 26.61223], [93.17239, 26.60987], [93.17230685200008, 26.60979184000007], [93.17027839100007, 26.607885088000046], [93.16989, 26.60752], [93.16892, 26.60661], [93.16854971300006, 26.606262556000047], [93.16584, 26.60372], [93.16077, 26.59897], [93.15923, 26.59813], [93.15644, 26.59661], [93.14559, 26.5907], [93.1341, 26.58445], [93.13065, 26.58229], [93.12453, 26.57846], [93.12312, 26.57758], [93.11426, 26.57469], [93.11417, 26.57466], [93.11096, 26.57516], [93.10607, 26.57591], [93.10309, 26.57756], [93.09926, 26.57968], [93.09455, 26.58228], [93.08783, 26.58692], [93.08431, 26.58935], [93.07813, 26.59231], [93.07307, 26.59474], [93.06765, 26.59424], [93.06756, 26.59423], [93.0667, 26.59416], [93.0655, 26.59425], [93.05592, 26.59501], [93.05576, 26.595], [93.04706, 26.5946], [93.04033, 26.59429], [93.03655, 26.59472], [93.02832, 26.59566], [93.01971, 26.59665], [93.00777, 26.59843], [92.99864, 26.6034], [92.99502, 26.60697], [92.99469, 26.6073], [92.99372, 26.60825], [92.99272, 26.60924], [92.99164, 26.6106], [92.9899, 26.61254], [92.98933, 26.61318], [92.98284, 26.61522], [92.96959, 26.61759], [92.96443, 26.61851], [92.9625, 26.61853], [92.95496, 26.6186], [92.95235, 26.61862], [92.9499, 26.61827], [92.94302, 26.61729], [92.93943, 26.61567], [92.93592, 26.61284], [92.93519, 26.61225], [92.93465, 26.61295], [92.93375, 26.6141], [92.93333, 26.61465], [92.93211, 26.61692], [92.93123, 26.61685], [92.93025, 26.61676], [92.92811, 26.61657], [92.92776, 26.61589], [92.92719, 26.61477], [92.92721, 26.61205], [92.92871, 26.60892], [92.92927, 26.60777], [92.9294, 26.60749], [92.92967, 26.60693], [92.92973, 26.60681], [92.92924, 26.60542], [92.92904, 26.60519], [92.9271, 26.60296], [92.92657, 26.60235], [92.9262, 26.60195], [92.9248, 26.60034], [92.92304, 26.59831], [92.92285, 26.59823], [92.9227, 26.59816], [92.92128441200003, 26.59751880300007], [92.91813, 26.59609], [92.91277, 26.59337], [92.90706, 26.59436], [92.90676, 26.59439], [92.90478, 26.59461], [92.89677, 26.59534], [92.89501, 26.5955], [92.89418, 26.59519], [92.89243, 26.59452], [92.88969, 26.59347], [92.88963, 26.59343], [92.88518, 26.59106], [92.88438, 26.59063], [92.87883, 26.58766], [92.87868, 26.58756], [92.87822, 26.58721], [92.87639, 26.58587], [92.87636, 26.58585], [92.87295, 26.58334], [92.871, 26.58275], [92.86992, 26.58242], [92.8644, 26.58308], [92.86405296500004, 26.58312337900003], [92.864, 26.58313], [92.86355, 26.58319], [92.86296, 26.58326], [92.86147, 26.58373], [92.85967, 26.5843], [92.85914, 26.58447], [92.85784, 26.58489], [92.85206, 26.58388], [92.85106, 26.58201], [92.84762, 26.57948], [92.84698, 26.57902], [92.84346, 26.57651], [92.84098, 26.57463], [92.83723, 26.57272], [92.83414, 26.56973], [92.83371, 26.56932], [92.83142, 26.56649], [92.83076, 26.56534], [92.8301, 26.56418], [92.82906, 26.56281], [92.82902, 26.56278], [92.82746, 26.56176], [92.82575, 26.55885], [92.82553, 26.55847], [92.82502, 26.55741], [92.82494, 26.55685], [92.825, 26.55626], [92.82607, 26.55641], [92.82757, 26.557], [92.83123, 26.55845], [92.83296, 26.55913], [92.8365, 26.56052], [92.83773, 26.56093], [92.83865, 26.56123], [92.83997, 26.56167], [92.84059, 26.56187], [92.84093, 26.56196], [92.8405, 26.56146], [92.8399, 26.5605], [92.8384, 26.55811], [92.8377, 26.557], [92.83637, 26.55487], [92.83582, 26.55405], [92.83387, 26.55116], [92.83224, 26.54875], [92.83218, 26.54871], [92.83176, 26.54842], [92.82933, 26.54671], [92.82888, 26.5464], [92.82664, 26.54482], [92.82585, 26.54427], [92.825, 26.54367], [92.82224, 26.54267], [92.82204, 26.54521], [92.82196, 26.54623], [92.82195, 26.54631], [92.82178, 26.54845], [92.82182, 26.54941], [92.82196, 26.55246], [92.82189, 26.55276], [92.82172, 26.55354], [92.82106, 26.55369], [92.81924, 26.55309], [92.8166, 26.55289], [92.81584, 26.55283], [92.81538, 26.5528], [92.81536, 26.55379], [92.81503, 26.55441], [92.81377, 26.55421], [92.81162, 26.55315], [92.80983, 26.5521], [92.8065, 26.55015], [92.80483, 26.54917], [92.80471, 26.5491], [92.79973, 26.54631], [92.79541, 26.54236], [92.79431, 26.54263], [92.79334, 26.54287], [92.79148, 26.54284], [92.78815, 26.54261], [92.78739, 26.54264], [92.78386, 26.54279], [92.78167, 26.5428], [92.77677, 26.54283], [92.77627, 26.54281], [92.77019, 26.54257], [92.77066, 26.5432], [92.7737, 26.54547], [92.77525, 26.54837], [92.77414, 26.54842], [92.77305, 26.54923], [92.77274, 26.54856], [92.77156, 26.54903], [92.77032, 26.54755], [92.76819, 26.54594], [92.76716, 26.54507], [92.76644, 26.54063], [92.76616, 26.53894], [92.76485, 26.53479], [92.76476, 26.53451], [92.76466, 26.53421], [92.76431, 26.5331], [92.76398, 26.53204], [92.7611, 26.52951], [92.76074, 26.5292], [92.75967, 26.52737], [92.75836, 26.52513], [92.75838, 26.5237], [92.75839, 26.52308], [92.75844, 26.51931], [92.75837, 26.51906], [92.75708, 26.51471], [92.75674, 26.51357], [92.75437, 26.51191], [92.75146, 26.51223], [92.74818, 26.51259], [92.74101, 26.51481], [92.73485, 26.51727], [92.73382, 26.5179], [92.72884, 26.52095], [92.72791, 26.52272], [92.72768, 26.53222], [92.7269, 26.53474], [92.72635731600008, 26.535027858000035], [92.72575, 26.53535], [92.71594, 26.53348], [92.71099, 26.53079], [92.70418, 26.52586], [92.69038, 26.51083], [92.68649, 26.50879], [92.68297, 26.50941], [92.67873, 26.5128], [92.67654, 26.51455], [92.67508, 26.51572], [92.67503, 26.51576], [92.67356, 26.51693], [92.66925, 26.51927], [92.66639, 26.52], [92.6649, 26.52038], [92.66065, 26.51932], [92.65573, 26.51808], [92.65562, 26.51805], [92.65549, 26.51805], [92.65487, 26.51803], [92.6545, 26.51802], [92.6536, 26.51798], [92.65339, 26.51797], [92.65173, 26.51791], [92.65137, 26.5179], [92.65016, 26.51785], [92.64875, 26.5178], [92.64843, 26.51779], [92.64431309604751, 26.51763829705893], [92.64119251500006, 26.517523307000033], [92.64056, 26.5175], [92.63901, 26.51721], [92.63791, 26.517], [92.63778, 26.51697], [92.63687, 26.5168], [92.6356, 26.51655], [92.63449, 26.51634], [92.63168, 26.51547], [92.62838, 26.51445], [92.62785, 26.51429], [92.62411, 26.51313], [92.6198, 26.5118], [92.61933, 26.51166], [92.6191, 26.51159], [92.61781, 26.51132], [92.61659, 26.51107], [92.61424, 26.51059], [92.61293, 26.51032], [92.60739, 26.50918], [92.60561, 26.50882], [92.60499, 26.50869], [92.60194, 26.50767], [92.59816, 26.5064], [92.59813, 26.50639], [92.5958, 26.50561], [92.59388, 26.50496], [92.59137, 26.50412], [92.58454, 26.50182], [92.58306, 26.50132], [92.58130909200008, 26.500731106000046], [92.57973, 26.5002], [92.57965, 26.50021], [92.57777, 26.50041], [92.57583, 26.50061], [92.56806, 26.50144], [92.56567, 26.503], [92.55747, 26.50513], [92.55581, 26.50529], [92.55357, 26.5055], [92.54698, 26.50612], [92.546, 26.50621], [92.54251, 26.50717], [92.54243, 26.50719], [92.54053, 26.50771], [92.53896, 26.50814], [92.5355, 26.50909], [92.53476, 26.50912], [92.52773, 26.50938], [92.52506, 26.50901], [92.5169, 26.50787], [92.51108, 26.50706], [92.50919, 26.50659], [92.5069, 26.50603], [92.5042, 26.50536], [92.50355, 26.5052], [92.4952, 26.50313], [92.49482, 26.50304], [92.49365, 26.50276], [92.49092, 26.50175], [92.488, 26.50068], [92.48767, 26.50056], [92.48084, 26.49677], [92.479, 26.49645], [92.47414, 26.49559], [92.4725, 26.49601], [92.46608, 26.49766], [92.46588, 26.49771], [92.46214, 26.49969], [92.4606, 26.50107], [92.45875, 26.50273], [92.45506, 26.50755], [92.45487, 26.50894], [92.45459, 26.51101], [92.45426, 26.51342], [92.45549372800008, 26.51318062100006], [92.45627, 26.51303], [92.46051, 26.51293], [92.46254, 26.51315], [92.46654, 26.51266], [92.46786, 26.51405], [92.46858, 26.51537], [92.46777, 26.51711], [92.46269, 26.51818], [92.45938, 26.51891], [92.45298, 26.52051], [92.45046, 26.52026], [92.44711, 26.52064], [92.44529, 26.52055], [92.44393, 26.52032], [92.4432, 26.52036], [92.43698, 26.51977], [92.43398, 26.51913], [92.43344, 26.51901], [92.43197, 26.5187], [92.42451, 26.51712], [92.42366, 26.51694], [92.4243, 26.51681], [92.42762, 26.51615], [92.42979, 26.5154], [92.43176, 26.51392], [92.43379, 26.51181], [92.43437, 26.51061], [92.43288, 26.50863], [92.43011, 26.5084], [92.43026, 26.50824], [92.43083, 26.50763], [92.43409, 26.50423], [92.4389, 26.49919], [92.43967, 26.49481], [92.44019, 26.49188], [92.44046, 26.49032], [92.44068, 26.48907], [92.44144, 26.48476], [92.44126, 26.48323], [92.44117, 26.4824], [92.44085, 26.47954], [92.44055, 26.47687], [92.43997, 26.4716], [92.43975, 26.46965], [92.43957, 26.46803], [92.43885, 26.46186], [92.4385, 26.45924], [92.43811, 26.45634], [92.43784, 26.45433], [92.43776, 26.45377], [92.43761, 26.45264], [92.43741, 26.45121], [92.4374, 26.45113], [92.43694, 26.44769], [92.43689, 26.44735], [92.43639, 26.44366], [92.436, 26.44075], [92.4358, 26.43932], [92.43579, 26.43928], [92.43551, 26.43716], [92.43549, 26.43702], [92.43527, 26.43537], [92.43519, 26.43482], [92.43465, 26.43092], [92.43437, 26.4289], [92.43347, 26.42231], [92.43294, 26.41848], [92.4335, 26.41754], [92.43805, 26.40993], [92.43896, 26.40841], [92.43944, 26.4076], [92.43985, 26.40692], [92.44045, 26.40591], [92.4405, 26.40583], [92.44083, 26.40527], [92.44681, 26.40323], [92.44874, 26.40252], [92.44925, 26.40233], [92.45249, 26.40114], [92.45276, 26.40104], [92.4529, 26.40099], [92.45298, 26.40096], [92.4533, 26.40085], [92.45567, 26.39998], [92.45709, 26.39946], [92.45798, 26.39913], [92.45981, 26.39846], [92.46221, 26.39759], [92.46278, 26.39738], [92.46557, 26.39637], [92.4671, 26.39581], [92.4673, 26.39574], [92.47273, 26.39376], [92.47445, 26.39315], [92.47577, 26.39268], [92.47771, 26.39199], [92.47848, 26.39171], [92.48104, 26.39081], [92.4832, 26.39004], [92.48346, 26.38995], [92.4843, 26.38965], [92.48447, 26.38959], [92.48667, 26.3888], [92.48749, 26.38851], [92.48942, 26.38783], [92.49035, 26.38751], [92.49041, 26.38749], [92.49165, 26.38708], [92.49436, 26.38617], [92.49726, 26.3852], [92.498, 26.38495], [92.5002, 26.38422], [92.50089, 26.38399], [92.50136, 26.38384], [92.50228, 26.38353], [92.50315, 26.38324], [92.50437, 26.38284], [92.50544, 26.38248], [92.50562, 26.38242], [92.50599, 26.38226], [92.50813, 26.38134], [92.51136, 26.37994], [92.51203, 26.37965], [92.51344, 26.37904], [92.51502, 26.37835], [92.51604, 26.37791], [92.51755, 26.37726], [92.52068, 26.3759], [92.52451, 26.37641], [92.54563, 26.3792], [92.55215, 26.38024], [92.55442, 26.3806], [92.55465, 26.38064], [92.56858, 26.3792], [92.56776, 26.37876], [92.56837, 26.37758], [92.56927, 26.37582], [92.57082, 26.3744], [92.5713, 26.37435], [92.57694, 26.37374], [92.57967, 26.37328], [92.58255, 26.37288], [92.58282, 26.37282], [92.58243, 26.37033], [92.58167, 26.36866], [92.58151, 26.36845], [92.58117, 26.368], [92.58015, 26.36665], [92.57878, 26.36359], [92.57878, 26.36353], [92.57888, 26.36232], [92.5786, 26.3614], [92.57858, 26.36138], [92.57697, 26.35977], [92.57596, 26.35877], [92.57492, 26.35773], [92.57358, 26.35726], [92.57101, 26.35871], [92.56676, 26.36111], [92.56619, 26.36146], [92.56535, 26.35998], [92.56349, 26.35777], [92.56295, 26.35709], [92.56012, 26.35646], [92.55689, 26.35558], [92.5553, 26.35458], [92.55701, 26.35252], [92.55701, 26.35119], [92.55701, 26.35023], [92.55701, 26.34769], [92.5559, 26.34466], [92.55559, 26.34382], [92.5543, 26.34028], [92.55386, 26.33908], [92.55374, 26.33874], [92.55357, 26.33857], [92.55037, 26.33536], [92.55034, 26.33532], [92.54952, 26.3345], [92.5476, 26.33257], [92.54753, 26.3325], [92.54708, 26.33205], [92.54567, 26.33063], [92.5449, 26.32986], [92.54347, 26.32842], [92.54265, 26.32759], [92.54193, 26.32686], [92.54035, 26.32528], [92.53926, 26.32419], [92.53757, 26.31584], [92.53749, 26.31543], [92.53734, 26.3146], [92.53699, 26.31274], [92.5366, 26.31065], [92.53612, 26.30803], [92.53527, 26.30306], [92.53643, 26.30295], [92.54081, 26.30269], [92.54401, 26.30223], [92.54614, 26.30204], [92.54768, 26.3016], [92.5479, 26.30076], [92.54809, 26.30003], [92.54819, 26.30001], [92.54881, 26.29988], [92.55091, 26.29975], [92.55128, 26.29833], [92.55291, 26.2979], [92.55398, 26.29665], [92.55282, 26.29651], [92.55142, 26.29544], [92.55147, 26.29442], [92.55084, 26.29401], [92.54959, 26.29318], [92.54894, 26.29149], [92.54876, 26.29137], [92.54706, 26.2903], [92.54558, 26.28786], [92.54502, 26.286], [92.54484, 26.28538], [92.54482, 26.28529], [92.54445, 26.28345], [92.54447, 26.2833], [92.54485, 26.27987], [92.54508, 26.27777], [92.54544, 26.27452], [92.54321, 26.27581], [92.54203, 26.2764], [92.54113, 26.27684], [92.54033, 26.27676], [92.53626, 26.27368], [92.53446, 26.27232], [92.53197, 26.27078], [92.52747, 26.268], [92.52303, 26.26606], [92.52229, 26.26584], [92.5217, 26.26566], [92.5211, 26.26566], [92.51784, 26.269], [92.51654, 26.27057], [92.51132, 26.26387], [92.51084, 26.26323], [92.50812, 26.2596], [92.50787, 26.25927], [92.50703, 26.25815], [92.50555, 26.25619], [92.50188, 26.25464], [92.50162, 26.25453], [92.49803, 26.25302], [92.4948, 26.25166], [92.49436, 26.25147], [92.48812, 26.25089], [92.4864, 26.25073], [92.47828, 26.24998], [92.47687, 26.24984], [92.47663, 26.24982], [92.47148, 26.24934], [92.46978, 26.24918], [92.46505, 26.24811], [92.46105, 26.24721], [92.45998, 26.24697], [92.45658, 26.24619], [92.45328, 26.24545], [92.44927, 26.24454], [92.44539, 26.2441], [92.43951, 26.24344], [92.43946, 26.24343], [92.43836, 26.24331], [92.43723, 26.24318], [92.43605, 26.24155], [92.43519, 26.24036], [92.43394, 26.23863], [92.4314, 26.23513], [92.43115, 26.23438], [92.43106, 26.2341], [92.42983, 26.23034], [92.42917, 26.2283], [92.42894, 26.22761], [92.42892, 26.22752], [92.42724, 26.2224], [92.42697, 26.22157], [92.42692, 26.22143], [92.42647, 26.22007], [92.42634, 26.21967], [92.42633, 26.21965], [92.42612, 26.21892], [92.42568, 26.21735], [92.42533, 26.21614], [92.42338, 26.20929], [92.42296, 26.20783], [92.42281, 26.20731], [92.42224, 26.20528], [92.4217, 26.20335], [92.42119, 26.20162], [92.42113, 26.20141], [92.42107, 26.20122], [92.42103, 26.20109], [92.42101, 26.20102], [92.42034, 26.19866], [92.42032, 26.19859], [92.42017, 26.19806], [92.41867, 26.19281], [92.41669, 26.1855], [92.41668, 26.18547], [92.41664, 26.18532], [92.41647, 26.18474], [92.4163, 26.18412], [92.41603, 26.18314], [92.41583, 26.1824], [92.41555, 26.18148], [92.41533, 26.18076], [92.41407, 26.17661], [92.41257, 26.17164], [92.41203, 26.16988], [92.41042, 26.16455], [92.41008, 26.16342], [92.40882, 26.15928], [92.40828, 26.15751], [92.40811, 26.15693], [92.40746, 26.15479], [92.40711, 26.15363], [92.40618, 26.15057], [92.40493, 26.14756], [92.40482, 26.1473], [92.40319, 26.1434], [92.4024, 26.14145], [92.40217, 26.14089], [92.40155822913422, 26.13940627985425], [92.40157848100006, 26.139409692000072], [92.40122263400008, 26.138422502000026], [92.41228584000004, 26.135808300000065], [92.41313437800005, 26.134514627000044], [92.4137, 26.13366], [92.41379, 26.13352], [92.41312567111682, 26.13227438334403], [92.41153271200005, 26.129243874000053], [92.40952700700007, 26.127750264000042], [92.40932, 26.12759], [92.40815, 26.12668], [92.40713, 26.12589], [92.40639102300008, 26.12531208200005], [92.40665838500007, 26.12398863800007], [92.40692186800004, 26.122684399000036], [92.40467133700008, 26.119281156000056], [92.40482122200007, 26.118189135000023], [92.40485667995716, 26.117930801312735], [92.42066, 26.11869], [92.42504310900006, 26.115103821000048], [92.42517, 26.115], [92.433540786654, 26.11548774341825], [92.43372, 26.11953], [92.43372, 26.11959], [92.43374, 26.12009], [92.43374995300007, 26.12009918700005], [92.43375156200005, 26.120142259000033], [92.43542402300005, 26.12177183600005], [92.4424976215563, 26.122062571159795], [92.44281, 26.12208], [92.44302, 26.12381], [92.44462, 26.12485], [92.44662, 26.12614], [92.44901945600003, 26.129177609000067], [92.45303031200007, 26.13434873800003], [92.45607, 26.13517], [92.45895854100007, 26.134732975000077], [92.46027592500008, 26.137559862000046], [92.46497106200007, 26.141282959000023], [92.46714, 26.14302], [92.46996, 26.14649], [92.47165006200004, 26.14660563600006], [92.47361443900007, 26.14678155000007], [92.47368205779439, 26.146744667112248], [92.47376, 26.14675], [92.47543, 26.1458], [92.47549, 26.14554], [92.47628936100006, 26.142072770000027], [92.47719, 26.14187], [92.47744, 26.142], [92.48574182900006, 26.14660067400007], [92.48640404400004, 26.146973669000033], [92.49252439000009, 26.14927909100004], [92.49772374800006, 26.149102092000078], [92.49781, 26.1491], [92.4988, 26.14908], [92.49895388800007, 26.149060215000077], [92.49897408400005, 26.149059527000077], [92.50144418000008, 26.148785073000056], [92.50173065000007, 26.148625711000022], [92.50443813825476, 26.147119558646438], [92.50539, 26.14662], [92.50557, 26.14652], [92.50803, 26.14283], [92.5085, 26.14249], [92.50897152900006, 26.14215850100004], [92.51011695800008, 26.141374787000075], [92.51056805100006, 26.141674110000054], [92.51548583100003, 26.144937310000046], [92.51583, 26.14517], [92.517, 26.14621], [92.52052, 26.14932], [92.52076, 26.14953], [92.52167, 26.15033], [92.52171, 26.15037], [92.52172035600006, 26.15034411000005], [92.52272635300005, 26.149931499000047], [92.52383661700009, 26.149467421000054], [92.52682, 26.14826], [92.52684, 26.14822], [92.52684493600003, 26.148209975000043], [92.52691360600005, 26.148181271000055], [92.52918287500006, 26.14346425100007], [92.52938, 26.14307], [92.52891, 26.14089], [92.52876, 26.14018], [92.52703, 26.1367], [92.52644, 26.13553], [92.52491, 26.13243], [92.52449, 26.12883], [92.52434, 26.12757], [92.52327, 26.12645], [92.52311, 26.12601], [92.52258, 26.1246], [92.52291, 26.12281], [92.52323, 26.12109], [92.52332, 26.12058], [92.52285, 26.11918], [92.52215, 26.11709], [92.52196, 26.11652], [92.52144596700003, 26.11497790100003], [92.52108956300003, 26.113886415000024], [92.52107, 26.11283], [92.52101150600004, 26.109972133000042], [92.52093391700004, 26.104661281000062], [92.52155007099721, 26.10324640830293], [92.52217, 26.1019], [92.52441934000007, 26.101246039000046], [92.5253, 26.10099], [92.52536, 26.10097], [92.52614, 26.10095], [92.53118, 26.10079], [92.53265, 26.10074], [92.53278, 26.10045], [92.533, 26.09997], [92.53428174900006, 26.09712557100005], [92.53490473400007, 26.09584622600005], [92.54099, 26.10039], [92.5413416696617, 26.10087843008571], [92.54254725000004, 26.10260286700003], [92.54532757313508, 26.104490740659664], [92.54602615700009, 26.104997214000036], [92.54628, 26.1069], [92.5464, 26.10784], [92.54708, 26.10827], [92.54939464300008, 26.109740246000058], [92.55519791200004, 26.113495301000057], [92.55530438600005, 26.11349643400007], [92.55546455900009, 26.113498138000068], [92.55922897000005, 26.113538186000028], [92.56553916890581, 26.114944262180114], [92.56711955200007, 26.115296413000067], [92.56834080800007, 26.11508340300003], [92.56956233200003, 26.11487034700008], [92.57227581200004, 26.11439706500005], [92.57293, 26.11428], [92.57450203000008, 26.114002583000058], [92.57451508100007, 26.11398788100007], [92.57788333500008, 26.11019326400003], [92.57788333500008, 26.105606845009266], [92.57788, 26.10525], [92.57824516800008, 26.104994775000023], [92.57878389100006, 26.104661281000062], [92.57909539200006, 26.10425188000005], [92.57969406395472, 26.10346505303111], [92.58029, 26.1027], [92.58048, 26.10244], [92.58095, 26.1015], [92.58111, 26.10119], [92.58107270100004, 26.101195803000053], [92.58109960500008, 26.101144825000063], [92.58050793800004, 26.10117596500004], [92.58028, 26.10105], [92.5797, 26.09996], [92.57949, 26.09922], [92.57897, 26.09741], [92.5789, 26.09697], [92.57855, 26.09658], [92.57835092900007, 26.096352490000072], [92.5782, 26.09618], [92.57733, 26.09546], [92.57724, 26.0954], [92.57773, 26.0944], [92.57936845400008, 26.092723619000026], [92.57989, 26.09219], [92.58147, 26.09057], [92.58236, 26.08966], [92.58681, 26.08655], [92.58859, 26.08531], [92.58900430400007, 26.08501855800006], [92.59006227700007, 26.08429157200004], [92.59117788000003, 26.084125418000042], [92.59207780600008, 26.083991386000037], [92.59486, 26.08042], [92.59602, 26.07893], [92.59804, 26.07634], [92.5979, 26.07549], [92.59683, 26.06904], [92.59677, 26.06865], [92.59576, 26.06743], [92.59278, 26.06381], [92.59031, 26.0608], [92.58923, 26.0595], [92.58812, 26.05815], [92.58695, 26.05568], [92.58627, 26.05423], [92.5854, 26.04591], [92.58514, 26.04343], [92.58509, 26.04291], [92.58505, 26.04253], [92.58495, 26.04228], [92.58441, 26.04093], [92.58406, 26.04007], [92.58395, 26.03979], [92.58358, 26.03885], [92.58202, 26.03496], [92.58214, 26.03452], [92.58329705200003, 26.03042210800004], [92.58334, 26.03027], [92.58449, 26.02947], [92.58507, 26.02907], [92.58693677398384, 26.027769216000625], [92.58695, 26.02776], [92.58822, 26.0277], [92.59038, 26.02759], [92.59163813200007, 26.02707994700006], [92.59435063600006, 26.02588411100004], [92.59396595700008, 26.02396071100003], [92.59355, 26.02207], [92.59244, 26.02161], [92.58836, 26.01991], [92.58516, 26.01858], [92.58463, 26.01836], [92.58422, 26.01819], [92.58270175700005, 26.017772900000068], [92.57876, 26.01669], [92.57330358700005, 26.013100655000073], [92.5716, 26.01198], [92.56845, 26.00674], [92.57001, 26.00463], [92.57012133700005, 26.004573036000068], [92.57183674700008, 26.003756174000046], [92.57170692600005, 26.002016557000047], [92.5717, 26.00104], [92.57162606400004, 26.00093300700007], [92.56896425443524, 25.997081130095452], [92.56792, 25.99557], [92.56377, 25.98956], [92.56359, 25.98926], [92.56269, 25.98774], [92.56036, 25.98383], [92.56027, 25.98368], [92.55931, 25.98207], [92.55611, 25.9767], [92.55594, 25.97622], [92.5558, 25.97585], [92.55561, 25.97531], [92.55418, 25.97361], [92.55391, 25.97334], [92.551, 25.97036], [92.55412, 25.968], [92.55695, 25.96586], [92.558, 25.96506], [92.55888, 25.9644], [92.55909, 25.96424], [92.56278, 25.9633], [92.56345, 25.96313], [92.56469, 25.96281], [92.5652, 25.96268], [92.56758, 25.96207], [92.5689, 25.96173], [92.56898, 25.96171], [92.57199, 25.96094], [92.57206, 25.96092], [92.57222271600006, 25.96094515200008], [92.57523, 25.96141], [92.57581, 25.96211], [92.57622144192425, 25.962608477715918], [92.57717843600005, 25.96394143400005], [92.57875479200004, 25.964444526000023], [92.57994, 25.96488], [92.58023, 25.96499], [92.58172, 25.96487], [92.58183, 25.96486], [92.58401124000005, 25.96468340800004], [92.5885, 25.96432], [92.58874956500006, 25.964344957000037], [92.5894, 25.96441], [92.59016, 25.96448], [92.59046, 25.96451], [92.59076, 25.96454], [92.59152, 25.96461], [92.59251, 25.96471], [92.59333, 25.96599], [92.5936, 25.9664], [92.59394, 25.96692], [92.59437, 25.9676], [92.59475, 25.96819], [92.59552, 25.96938], [92.59651, 25.97092], [92.59699, 25.97167], [92.59961141000008, 25.975735658000076], [92.60264719273924, 25.975806258342825], [92.6042, 25.97582], [92.60498, 25.97583], [92.60546, 25.97584], [92.60616, 25.9755], [92.60706, 25.97506], [92.61036, 25.97626], [92.611, 25.97649], [92.61223, 25.97694], [92.61421, 25.97766], [92.6218, 25.98377], [92.62185, 25.98381], [92.62284, 25.98461], [92.62288776730641, 25.98462592243547], [92.62307728700006, 25.984780182000065], [92.62811311438033, 25.986389570162842], [92.62843, 25.9865], [92.62963, 25.98697], [92.62989, 25.98717], [92.63104581800008, 25.98809130400008], [92.63125197300008, 25.98826447400006], [92.63126731400007, 25.988267859000075], [92.63139409700005, 25.98829582600007], [92.63497, 25.98904], [92.63594, 25.98924], [92.63607, 25.98995], [92.63639, 25.99162], [92.63648, 25.99212], [92.64079, 25.99689], [92.64244, 25.99725], [92.64636, 25.9981], [92.64751, 25.99818], [92.64797, 25.99821], [92.64892, 25.99828], [92.64944, 25.99831], [92.64947323200005, 25.99831229600005], [92.65704913700006, 25.998918369000023], [92.65836715200004, 26.000447266000037], [92.65873076799325, 26.00094374091386], [92.65876564864797, 26.00138555854068], [92.65892529500007, 26.00340774500006], [92.65946581808032, 26.004562499035185], [92.66042, 26.00639], [92.66037323400008, 26.006501069000024], [92.65994, 26.00753], [92.65841, 26.01118], [92.65842476473206, 26.01127069763979], [92.65832224400003, 26.011515425000027], [92.65892485400008, 26.014250349000065], [92.65913, 26.01546], [92.65782, 26.01845], [92.65755, 26.01907], [92.65738, 26.01945], [92.65745740300008, 26.019541477000075], [92.65793, 26.0201], [92.66106, 26.02186], [92.66256, 26.0227], [92.6652454053883, 26.024533015475726], [92.66612, 26.02513], [92.66814, 26.02692], [92.66948509200006, 26.028119676000074], [92.67058509500004, 26.027757481000037], [92.67415644500005, 26.026581548000024], [92.67493963900006, 26.026323667000042], [92.67496673400007, 26.026281089000065], [92.67512, 26.02623], [92.67560973000008, 26.02527066700003], [92.67585, 26.0248], [92.6785, 26.02559], [92.67956, 26.02591], [92.68277411798309, 26.024806357078095], [92.68272855600009, 26.02501594200004], [92.68244426800004, 26.026323667000042], [92.68289590974146, 26.02661107556276], [92.68318133000008, 26.026792707000027], [92.68418692200004, 26.026418533000026], [92.68596, 26.02576], [92.68654498600006, 26.02472741200006], [92.68728, 26.02343], [92.69129, 26.02282], [92.69241, 26.02111], [92.69323, 26.02054], [92.69524234200009, 26.019154066000056], [92.69588, 26.01951], [92.69755, 26.02047], [92.69876, 26.02038], [92.69984460600006, 26.019883655000058], [92.70053, 26.01957], [92.70273, 26.01856], [92.70353, 26.01898], [92.70488, 26.01969], [92.70571, 26.02013], [92.70673, 26.02066], [92.70872401200006, 26.018493430000035], [92.70881, 26.0184], [92.70952198400005, 26.019048541000075], [92.70982, 26.01932], [92.71017, 26.01963], [92.71083, 26.01929], [92.71259479500009, 26.01838450400004], [92.71274, 26.01831], [92.71595975396295, 26.021491078239666], [92.71608109100004, 26.023978471000078], [92.71601986700006, 26.024168943000063], [92.71472, 26.02762], [92.71594726200004, 26.029071126000076], [92.71776728700007, 26.031346158000076], [92.71724190300006, 26.033570448000035], [92.71668414100009, 26.035637449000035], [92.71279781500004, 26.038250669000035], [92.71152470800007, 26.043410101000063], [92.71277398700005, 26.047514875000047], [92.71323, 26.04926], [92.71337108500006, 26.04947677000007], [92.71340086500004, 26.049574618000065], [92.71755521400007, 26.056007159000046], [92.71809125900006, 26.057079248000036], [92.71899567911879, 26.057461887204102], [92.71959156900004, 26.05771399500003], [92.72204, 26.05799], [92.72512, 26.05833], [92.72904, 26.05877], [92.72912763700003, 26.058859942000026], [92.73173760800006, 26.06153857700008], [92.73121358500003, 26.064876407000042], [92.73331761300005, 26.06947111100004], [92.73622768600006, 26.073536041000068], [92.73602037200004, 26.075873772000023], [92.73480831000006, 26.078289019000067], [92.73325567600006, 26.079624351000064], [92.73256956400007, 26.080214437000052], [92.72818488500008, 26.082132173000048], [92.72731519200005, 26.083639753000057], [92.72704372700008, 26.085190623000074], [92.72947401900007, 26.08494365200005], [92.73483714500009, 26.084063102000073], [92.73531912000004, 26.084232585000052], [92.73743215900004, 26.084975592000035], [92.73947936800005, 26.087539752000055], [92.73950352300005, 26.087849576000053], [92.73971799300006, 26.090600421000033], [92.73822387200005, 26.093910996000034], [92.73610199900008, 26.097009413000023], [92.73231728600007, 26.099070364000056], [92.72601154100005, 26.098852219000037], [92.72649254700008, 26.09923040800004], [92.73254630400004, 26.10398981700007], [92.73152653400007, 26.10798580200003], [92.73114821300004, 26.109468181000068], [92.72773674900009, 26.112514200000078], [92.72497511000006, 26.114336182000045], [92.72074043900005, 26.11712999100007], [92.71682628200006, 26.119767184000068], [92.71492078400007, 26.121051027000078], [92.71448878000007, 26.12134207400004], [92.71119707000008, 26.125311087000057], [92.71067085600004, 26.129974326000024], [92.71040864600008, 26.131346618000066], [92.70970602600005, 26.13502362400004], [92.70893790300005, 26.13809450100007], [92.70890568500005, 26.138223305000054], [92.70639217200005, 26.14123802900008], [92.70599471200006, 26.141714725000043], [92.70912268400008, 26.141659598000047], [92.70933249300003, 26.14165525100003], [92.71517174800005, 26.141534156000034], [92.72037197800006, 26.142605831000026], [92.72079433800008, 26.142692872000055], [92.72406675500008, 26.144526847000066], [92.72507141400007, 26.148451435000027], [92.72608716700006, 26.151200264000067], [92.72649821500005, 26.15231260300004], [92.73004530600008, 26.14636858600005], [92.73261506200004, 26.14439360600005], [92.73326401900005, 26.14435726800008], [92.73774157300005, 26.144106554000075], [92.73861955500007, 26.144032690000074], [92.74434932100007, 26.14355051800004], [92.74726631700008, 26.142351951000023], [92.75161066200008, 26.140316879000068], [92.75291664700006, 26.139720015000023], [92.75356349900005, 26.139424390000045], [92.75664599800007, 26.141056006000042], [92.76264996400005, 26.14496504400006], [92.76504597900004, 26.14729854600006], [92.76603248700007, 26.148866086000055], [92.76678010800003, 26.150054039000054], [92.76892405800004, 26.15414497100005], [92.76918497900004, 26.15464282000005], [92.76939641200005, 26.155930195000053], [92.76979393000005, 26.158350609000024], [92.76927456900006, 26.160498821000033], [92.76674111600005, 26.164939839000056], [92.76553356700003, 26.167056476000027], [92.76604895700007, 26.16879559000006], [92.76634483600009, 26.169793970000057], [92.76533682600007, 26.175770758000056], [92.76611313200004, 26.17727897800006], [92.76639932500007, 26.17783498800003], [92.76965003400005, 26.181245141000034], [92.77427652100005, 26.18327878200006], [92.77998905800007, 26.18368995900005], [92.78478818700006, 26.185905715000047], [92.78671820300008, 26.18859519700004], [92.78801275800004, 26.190882225000053], [92.78867478500007, 26.192051760000027], [92.79000572500007, 26.195123228000057], [92.79596674000004, 26.197713520000036], [92.803284, 26.202095], [92.80265457800004, 26.202534938000042], [92.80202, 26.20232], [92.80047, 26.2034], [92.79608, 26.20647], [92.7969, 26.21207], [92.79777, 26.21803], [92.79796, 26.21935], [92.79809, 26.22024], [92.79827, 26.22146], [92.79831, 26.22172], [92.79969, 26.22122], [92.80022, 26.22103], [92.80637, 26.21883], [92.80873, 26.21751], [92.81094, 26.21627], [92.81436, 26.21651], [92.81958, 26.21529], [92.82782, 26.22375], [92.82799, 26.22727], [92.82658, 26.23053], [92.81799, 26.23405], [92.81747, 26.23658], [92.81718, 26.23795], [92.81705, 26.23857], [92.81802, 26.24473], [92.81804, 26.24484], [92.81811, 26.24531], [92.81841, 26.24722], [92.8203, 26.25921], [92.82021, 26.26075], [92.82017, 26.26144], [92.82013, 26.26206], [92.82008, 26.26301], [92.82066, 26.26539], [92.82314, 26.26485], [92.82338, 26.26884], [92.82351, 26.27098], [92.82351, 26.27103], [92.82357, 26.27104], [92.82591, 26.27143], [92.8266, 26.27155], [92.84015, 26.28069], [92.84074, 26.28228], [92.84098, 26.28291], [92.8413, 26.28378], [92.84134, 26.2839], [92.84205, 26.2858], [92.8439, 26.29649], [92.848, 26.30295], [92.84897, 26.30449], [92.8527, 26.30249], [92.85524, 26.30247], [92.85661, 26.30089], [92.85612, 26.30024], [92.85544, 26.29931], [92.8574, 26.29699], [92.85867, 26.29622], [92.86217, 26.29408], [92.86685, 26.29221], [92.87102, 26.29054], [92.8719, 26.29019], [92.88019, 26.28585], [92.88311, 26.28573], [92.89285, 26.28949], [92.89454, 26.29085], [92.89688, 26.29632], [92.89622, 26.3], [92.89473, 26.30175], [92.89749, 26.30538], [92.90061, 26.30791], [92.90993, 26.3135], [92.91309, 26.31478], [92.91566, 26.31581], [92.91705, 26.31589], [92.91845, 26.31598], [92.92054, 26.31348], [92.9218, 26.31333], [92.92922, 26.31807], [92.936, 26.32241], [92.93609, 26.32246], [92.9371, 26.32294], [92.93778, 26.32327], [92.94, 26.32433], [92.94053, 26.32458], [92.94282, 26.32686], [92.94364, 26.32902], [92.94465, 26.33168], [92.94635, 26.33616], [92.94392, 26.34233], [92.94213, 26.351], [92.94002, 26.35167], [92.93874, 26.35208], [92.93622, 26.35151], [92.9336, 26.35211], [92.9305, 26.35411], [92.92431, 26.35567], [92.91862, 26.35469], [92.9171, 26.35443], [92.91507, 26.35468], [92.91372, 26.35552], [92.91284, 26.35746], [92.91284, 26.3576], [92.91279, 26.35971], [92.91393, 26.3625], [92.91533, 26.36405], [92.91914, 26.36825], [92.91917, 26.36841], [92.91927, 26.36889], [92.92021, 26.37357], [92.92545, 26.37747], [92.92766, 26.38056], [92.9249, 26.38201], [92.92302, 26.38223], [92.92197, 26.38236], [92.92115, 26.3811], [92.92056, 26.3802], [92.91835, 26.37941], [92.91614, 26.37922], [92.91259, 26.37893], [92.9118, 26.37886], [92.91094, 26.37879], [92.90841, 26.37858], [92.90494, 26.38289], [92.9001, 26.38296], [92.89894, 26.38298], [92.89465, 26.38304], [92.89108, 26.38095], [92.88812, 26.38015], [92.88748, 26.37998], [92.88588, 26.37954], [92.88559, 26.37946], [92.88407, 26.37955], [92.88461, 26.38143], [92.88477, 26.38198], [92.88575, 26.38242], [92.8876, 26.38325], [92.88783, 26.38335], [92.88836, 26.38359], [92.89007, 26.38436], [92.89068, 26.38464], [92.89071, 26.38475], [92.89074, 26.38484], [92.89103, 26.3857], [92.89129, 26.3865], [92.89186, 26.38821], [92.89222, 26.38933], [92.8932, 26.38958], [92.89398, 26.38977], [92.89557, 26.38823], [92.89589, 26.38793], [92.89607, 26.38775], [92.89685, 26.387], [92.89828, 26.38836], [92.89986, 26.39141], [92.90063, 26.3929], [92.90068, 26.393], [92.90074, 26.39312], [92.90357, 26.3986], [92.90399, 26.39941], [92.90614, 26.39934], [92.90753, 26.39455], [92.9078, 26.3936], [92.91044, 26.39532], [92.912, 26.39634], [92.91327, 26.39607], [92.91348, 26.39251], [92.91827, 26.39391], [92.9213, 26.39479], [92.92757, 26.39824], [92.93481, 26.40029], [92.94113, 26.40209], [92.9433, 26.40212], [92.9449, 26.40041], [92.94525, 26.40003], [92.95092, 26.39651], [92.95188, 26.39762], [92.95203, 26.3978], [92.95205, 26.39812], [92.95206, 26.39836], [92.95226, 26.40342], [92.95227, 26.40379], [92.96117, 26.40925], [92.96273, 26.4115], [92.9643, 26.41375], [92.96569, 26.41441], [92.96733, 26.41439], [92.96938, 26.41436], [92.97092, 26.41501], [92.97259, 26.4157], [92.97273, 26.41583], [92.97539, 26.41824], [92.97641, 26.41917], [92.97706, 26.41976], [92.97731, 26.4199], [92.97933, 26.42106], [92.98007, 26.42148], [92.98185, 26.42135], [92.9863, 26.41849], [92.99357, 26.42029], [92.99865, 26.42328], [93.00502, 26.42592], [93.01248, 26.42302], [93.01753, 26.42106], [93.0235, 26.42159], [93.03135, 26.42426], [93.0438, 26.43561], [93.04601, 26.43763], [93.0481, 26.43467], [93.05314, 26.43412], [93.05561, 26.4244], [93.05567, 26.42403], [93.05617, 26.42142], [93.05505, 26.41958], [93.05082, 26.42105], [93.05025, 26.41742], [93.0507, 26.41624], [93.05125, 26.41479], [93.05481, 26.41503], [93.05972, 26.41644], [93.06073, 26.41673], [93.06083, 26.41676], [93.06143, 26.41676], [93.06174, 26.41676], [93.06656, 26.41676], [93.06903, 26.42209], [93.06993, 26.42403], [93.07154, 26.42313], [93.07153, 26.42032], [93.07577, 26.42061], [93.0762, 26.42064], [93.077, 26.42069], [93.07923, 26.42264], [93.08039, 26.42365], [93.08936, 26.43149], [93.09494, 26.4329], [93.09637, 26.43471], [93.09204, 26.4344], [93.07994, 26.42917], [93.07978, 26.4291], [93.07948, 26.42912], [93.0751, 26.42943], [93.07487, 26.42945], [93.07379, 26.42953], [93.07192, 26.43111], [93.07465, 26.43356], [93.07511, 26.43397], [93.07646, 26.43446], [93.084, 26.43721], [93.08727, 26.4384], [93.08955, 26.43923], [93.09098, 26.43997], [93.09825, 26.44375], [93.10053, 26.44543], [93.10222, 26.44668], [93.10363, 26.44578], [93.10488, 26.44498], [93.10504, 26.44488], [93.10736, 26.44339], [93.10814, 26.44289], [93.10803, 26.44209], [93.10791, 26.44122], [93.1062, 26.44017], [93.10604, 26.44007], [93.10243, 26.43785], [93.10031, 26.43518], [93.10074, 26.43347], [93.101, 26.43244], [93.1102, 26.4384], [93.11761, 26.44076], [93.11521, 26.44261], [93.11286, 26.44228], [93.11273, 26.44311], [93.11252, 26.4444], [93.11432, 26.44639], [93.11278, 26.44762], [93.10972, 26.44694], [93.10828, 26.44942], [93.11271, 26.45212], [93.12253, 26.45812], [93.12465, 26.4612], [93.12708, 26.46039], [93.12792, 26.46333], [93.13025, 26.46459], [93.12415, 26.46843], [93.1177, 26.46859], [93.11516, 26.46929], [93.11427, 26.46954], [93.11342, 26.46977], [93.1142, 26.47214], [93.11563, 26.47252], [93.13249, 26.477], [93.13373, 26.47733], [93.13923, 26.48415], [93.13892, 26.48713], [93.13447, 26.48341], [93.13357, 26.48266], [93.13125, 26.48073], [93.13104, 26.4812], [93.13101, 26.48127], [93.12961, 26.48448], [93.13405, 26.4895], [93.13113, 26.48807], [93.12513, 26.49261], [93.1266, 26.49382], [93.12834, 26.49525], [93.12722, 26.49735], [93.12344, 26.49566], [93.12014, 26.49417], [93.12145, 26.4905], [93.12168, 26.48986], [93.12355, 26.48462], [93.12368, 26.48426], [93.12302, 26.482], [93.12163, 26.48085], [93.12069, 26.48007], [93.12046, 26.48073], [93.11963, 26.48312], [93.11902, 26.48485], [93.11624, 26.48426], [93.11578, 26.48416], [93.1121, 26.47962], [93.10738, 26.47649], [93.1071, 26.47442], [93.1043, 26.47408], [93.10282, 26.47338], [93.10114, 26.47258], [93.10328, 26.4719], [93.10366, 26.47178], [93.10607, 26.47101], [93.10859, 26.469], [93.10905, 26.46757], [93.10912, 26.46736], [93.1092, 26.46711], [93.10893, 26.46697], [93.1066, 26.4658], [93.10517, 26.46406], [93.10552, 26.46188], [93.10459, 26.46008], [93.10424, 26.46032], [93.10268, 26.46141], [93.10228, 26.46169], [93.10083, 26.4627], [93.1008, 26.46272], [93.10029, 26.46243], [93.09467, 26.45928], [93.09175, 26.45928], [93.0917, 26.4596], [93.09156, 26.46069], [93.0913, 26.46265], [93.09394, 26.46505], [93.09228, 26.46846], [93.08953, 26.46918], [93.08731, 26.46977], [93.08648, 26.46999], [93.08529, 26.4703], [93.08185, 26.4712], [93.08007, 26.47026], [93.07902, 26.46971], [93.07886, 26.47014], [93.07819, 26.47193], [93.07774, 26.47313], [93.07788, 26.47652], [93.07454, 26.47771], [93.07133, 26.47771], [93.067, 26.4777], [93.06665, 26.4777], [93.06667, 26.47778], [93.06769, 26.4831], [93.08169, 26.48788], [93.08611, 26.49365], [93.09447, 26.4969], [93.09187, 26.50023], [93.08196, 26.49421], [93.08115, 26.49372], [93.07788, 26.49446], [93.0765, 26.49363], [93.07473, 26.49257], [93.07445, 26.4936], [93.07424, 26.49436], [93.07364, 26.49651], [93.07051, 26.50053], [93.06906, 26.49958], [93.06893, 26.49869], [93.06861, 26.49642], [93.07005, 26.49464], [93.07095, 26.49353], [93.07094, 26.49331], [93.07077, 26.48946], [93.06446, 26.48952], [93.05972, 26.48906], [93.04913, 26.48805], [93.04617, 26.48629], [93.04082, 26.48585], [93.0392, 26.48515], [93.03808, 26.48467], [93.03218, 26.48213], [93.03089, 26.48158], [93.02779, 26.48064], [93.02533, 26.47991], [93.02411, 26.47954], [93.02255, 26.47848], [93.0222, 26.47825], [93.02135, 26.47768], [93.02052, 26.47771], [93.01632, 26.47786], [93.01606, 26.47787], [93.01119, 26.4823], [93.01098, 26.48741], [93.00877, 26.49161], [93.00755, 26.49392], [93.00778, 26.49406], [93.00827, 26.49437], [93.01144, 26.49637], [93.01316, 26.49745], [93.01412, 26.50429], [93.0164, 26.50524], [93.01899, 26.50633], [93.01906, 26.50635], [93.03511, 26.51305], [93.04096, 26.51746], [93.04623, 26.52603], [93.05119, 26.52662], [93.05082, 26.52692], [93.04686, 26.53007], [93.04672, 26.53075], [93.04575, 26.53561], [93.06252, 26.54191], [93.06355, 26.54188], [93.06385, 26.54187], [93.07184, 26.54165], [93.078, 26.54308], [93.08646, 26.54203], [93.08738, 26.54191], [93.09214, 26.54355], [93.09723, 26.54042], [93.10362, 26.53945], [93.10544, 26.53787], [93.10391, 26.53411], [93.10645, 26.53106], [93.11973, 26.52925], [93.12274, 26.53252], [93.12006, 26.53625], [93.12367, 26.53805], [93.13239, 26.53891], [93.13681, 26.54089], [93.13854, 26.54747], [93.14488, 26.55391], [93.14786, 26.55511], [93.14835, 26.55531], [93.14906, 26.5556], [93.14985, 26.55433], [93.15279, 26.54959], [93.15365, 26.54918], [93.15592, 26.5481], [93.15677, 26.5477], [93.16791, 26.55238], [93.17096, 26.55366], [93.17356, 26.55581], [93.17757, 26.55911], [93.17974, 26.5609], [93.18192, 26.5627], [93.18196, 26.56274], [93.18713, 26.56703], [93.18794, 26.56766], [93.18994, 26.56735], [93.19325, 26.56683], [93.19411, 26.56669], [93.19906, 26.56592], [93.2016, 26.56464], [93.20323, 26.56382], [93.20527, 26.5628], [93.20596, 26.56245], [93.20751, 26.56167], [93.20768, 26.56159], [93.21075, 26.55826], [93.2114, 26.55756], [93.21262, 26.55623], [93.21187, 26.55493], [93.21184, 26.55488], [93.20982, 26.55141], [93.20567, 26.54818], [93.20401, 26.54615], [93.20275, 26.5446], [93.20142, 26.54298], [93.19799, 26.54051], [93.19789, 26.54045], [93.1941, 26.54198], [93.18985, 26.54087], [93.18764, 26.53976], [93.18582, 26.53884], [93.18543, 26.53865], [93.18281, 26.53482], [93.17895, 26.53343], [93.17664, 26.53095], [93.17644, 26.53074], [93.16265, 26.52456], [93.16543, 26.52186], [93.18531, 26.52981], [93.19077, 26.531], [93.19624, 26.5357], [93.20074, 26.53407], [93.20564, 26.52571], [93.20896, 26.51808], [93.21018, 26.51338], [93.21011, 26.50982], [93.21468, 26.50726], [93.21806, 26.50739], [93.21301, 26.51953], [93.21483, 26.52134], [93.2197, 26.51988], [93.22004, 26.5227], [93.21696, 26.52351], [93.21347, 26.52683], [93.214, 26.52908], [93.22065, 26.52805], [93.22292, 26.53676], [93.22294, 26.53682], [93.2248, 26.53641], [93.22649, 26.53603], [93.22773, 26.53575], [93.22863, 26.53555], [93.23235, 26.53383], [93.23615, 26.53539], [93.24643, 26.53064], [93.24645, 26.52874], [93.24807, 26.52745], [93.24823, 26.52702], [93.24825, 26.52696], [93.25047, 26.52094], [93.25888, 26.52138], [93.26547, 26.52037], [93.26787, 26.52], [93.26857, 26.51989], [93.26882, 26.51985], [93.27465, 26.51896], [93.27418, 26.51708], [93.27316, 26.51296], [93.2683, 26.50977], [93.26804, 26.50598], [93.27644, 26.50686], [93.27477, 26.51236], [93.27829, 26.51494], [93.28029, 26.51538], [93.28591, 26.51662], [93.28803, 26.51574], [93.28809, 26.51458], [93.28822, 26.51196], [93.28691, 26.50935], [93.29025, 26.50854], [93.29245, 26.506], [93.29384, 26.50251], [93.29829, 26.50385], [93.29885, 26.50828], [93.29631, 26.5118], [93.29527, 26.5143], [93.29392, 26.51757], [93.29082, 26.52067], [93.28438, 26.52114], [93.2837, 26.52102], [93.27961, 26.52031], [93.27677, 26.52184], [93.27485, 26.52287], [93.27107, 26.52746], [93.27644, 26.53117], [93.27758, 26.53585], [93.2778, 26.54217], [93.27503, 26.54361], [93.27234, 26.5407], [93.26918, 26.53431], [93.26758, 26.53107], [93.26673, 26.53102], [93.26393, 26.53088], [93.26363, 26.53086], [93.26342, 26.53085], [93.25962, 26.53064], [93.25933, 26.53215], [93.2592, 26.53288], [93.26582, 26.53351], [93.26455, 26.53769], [93.25821, 26.54178], [93.25546, 26.54356], [93.25191, 26.54281], [93.25137, 26.54382], [93.2506, 26.54525], [93.25686, 26.54761], [93.26086, 26.54911], [93.25931, 26.55069], [93.25217, 26.55046], [93.2512, 26.55037], [93.25066, 26.55032], [93.24914, 26.55019], [93.24871, 26.55015], [93.24533, 26.54985], [93.244, 26.54973], [93.2439, 26.54972], [93.24182, 26.54953], [93.24161, 26.54951], [93.23979, 26.54935], [93.23842, 26.55185], [93.23851, 26.55216], [93.23926, 26.55484], [93.23939, 26.55531], [93.23979, 26.55561], [93.24214, 26.55735], [93.24702, 26.56097], [93.25067, 26.56367], [93.25158, 26.5658], [93.25176, 26.56623], [93.25235, 26.56762], [93.25264, 26.5683], [93.25351, 26.56835], [93.25658, 26.56852], [93.25825, 26.56862], [93.26084, 26.56814], [93.26335, 26.56767], [93.2672, 26.56927], [93.27546, 26.5727], [93.28042, 26.57211], [93.28681, 26.57134], [93.29036, 26.57335], [93.29448, 26.57682], [93.29634, 26.57839], [93.29955, 26.57842], [93.30256, 26.57844], [93.30317, 26.57844], [93.30338, 26.57869], [93.30509, 26.58077], [93.30473, 26.58097], [93.30292, 26.58196], [93.30287, 26.58199], [93.30219, 26.58235], [93.29925, 26.58399], [93.29789, 26.58474], [93.29746, 26.58498], [93.29532, 26.58615], [93.2952, 26.58622], [93.29513, 26.58626], [93.29512, 26.58631], [93.29465, 26.58861], [93.29677, 26.59226], [93.30008, 26.60216], [93.30104, 26.60503], [93.2973, 26.61207], [93.29475, 26.61688], [93.29095, 26.62592], [93.29073, 26.62644], [93.28709, 26.6351], [93.29094, 26.63699], [93.29133, 26.63718], [93.30487, 26.63689], [93.31002, 26.63677], [93.31241, 26.63838], [93.31526, 26.6403], [93.31604, 26.64173], [93.32017, 26.64929], [93.32107, 26.65717], [93.3123, 26.66294], [93.31168, 26.66335], [93.31032, 26.66896], [93.31703, 26.67463], [93.31808, 26.67552], [93.31958, 26.67779], [93.32038, 26.67901], [93.31906, 26.68002], [93.31767, 26.68109], [93.31755, 26.68557], [93.31572, 26.68696], [93.31401, 26.68826], [93.30955, 26.69166], [93.30844, 26.69617], [93.30792, 26.6983], [93.30667145400008, 26.698098462000075], [93.30500326000003, 26.697829187000025], [93.30284, 26.69748], [93.30029863000004, 26.697954270000025], [93.29716, 26.69854]]], [[[92.433540786654, 26.11548774341825], [92.43090934000008, 26.111063863000027], [92.43062105900003, 26.110579217000065], [92.42517, 26.115], [92.42657, 26.11385], [92.43064, 26.11051], [92.43266, 26.11396], [92.43354, 26.11547], [92.433540786654, 26.11548774341825]]]]}}]}