{"type": "FeatureCollection", "features": [{"type": "Feature", "properties": {"Name": "Nalbari"}, "geometry": {"type": "Polygon", "coordinates": [[[91.29249, 26.56195], [91.28878, 26.55996], [91.28379, 26.55729], [91.28333, 26.55695], [91.28041, 26.55479], [91.27853, 26.5534], [91.27778, 26.55284], [91.27529, 26.55099], [91.27517, 26.551], [91.27221, 26.55116], [91.27006, 26.55128], [91.27009, 26.55099], [91.27011, 26.55082], [91.27025, 26.54951], [91.27052, 26.5469], [91.26753, 26.54687], [91.26739, 26.54687], [91.26742, 26.54675], [91.26782, 26.54518], [91.26831, 26.54324], [91.26675, 26.54343], [91.26669, 26.54344], [91.26435, 26.54373], [91.26255, 26.54204], [91.26069, 26.54167], [91.25944, 26.54142], [91.25756, 26.54104], [91.25697, 26.53951], [91.25685, 26.53919], [91.25624, 26.5376], [91.25535, 26.53689], [91.25359, 26.53549], [91.25257, 26.53471], [91.25237, 26.5334], [91.25235, 26.53325], [91.25188, 26.53008], [91.25132, 26.52627], [91.25128, 26.52449], [91.25125, 26.52335], [91.25112, 26.51829], [91.25109, 26.51735], [91.25093, 26.51649], [91.25074, 26.5155], [91.25026, 26.51298], [91.25004, 26.51182], [91.24967, 26.50989], [91.2512, 26.50895], [91.25129, 26.50889], [91.25225, 26.50832], [91.2542, 26.50713], [91.25494, 26.50668], [91.25695, 26.50546], [91.26045, 26.50335], [91.26377, 26.49946], [91.2642, 26.49896], [91.2646, 26.49849], [91.26505, 26.49794], [91.26757, 26.49441], [91.26843, 26.4932], [91.26826, 26.49012], [91.26825, 26.49005], [91.26822, 26.48946], [91.2681, 26.48729], [91.26718, 26.48602], [91.26656, 26.48517], [91.26313, 26.48048], [91.26266, 26.47983], [91.26187, 26.47875], [91.26115, 26.47776], [91.2586, 26.47427], [91.2576, 26.4729], [91.25711, 26.47223], [91.25703, 26.47212], [91.256, 26.47071], [91.25326, 26.46695], [91.25185, 26.46568], [91.25048, 26.46444], [91.24721, 26.46148], [91.24547, 26.4599], [91.24506, 26.45953], [91.24286, 26.45754], [91.24093, 26.4558], [91.24031, 26.45523], [91.24015, 26.45209], [91.24013, 26.45173], [91.24004, 26.45013], [91.23998, 26.44891], [91.23882, 26.44693], [91.23765, 26.44495], [91.23525, 26.44088], [91.23466, 26.43987], [91.23462, 26.43798], [91.2346, 26.43693], [91.23457, 26.43562], [91.2345, 26.43179], [91.23437, 26.42517], [91.23434, 26.42406], [91.23615, 26.42445], [91.23588, 26.42583], [91.2374, 26.42871], [91.23777, 26.42941], [91.24078, 26.43344], [91.2409, 26.43361], [91.24363, 26.43545], [91.24408, 26.43576], [91.24503, 26.43603], [91.24637, 26.43641], [91.24671, 26.43638], [91.24787, 26.43628], [91.24811, 26.43598], [91.24935, 26.43444], [91.24958, 26.43373], [91.24965, 26.43351], [91.24996, 26.43259], [91.25064, 26.42917], [91.25065, 26.42912], [91.25218, 26.4269], [91.25396, 26.42535], [91.25496, 26.42492], [91.2559, 26.4245], [91.25602, 26.42445], [91.25517, 26.42383], [91.25402, 26.42267], [91.25375, 26.42201], [91.25449, 26.4196], [91.25521, 26.41757], [91.25452, 26.41641], [91.25211, 26.41564], [91.24816, 26.41465], [91.24522, 26.41468], [91.24023, 26.41604], [91.23901, 26.41561], [91.23956, 26.41209], [91.23981, 26.41049], [91.24017, 26.40819], [91.24027, 26.40757], [91.24073, 26.40457], [91.24078, 26.40427], [91.24093, 26.40329], [91.24029, 26.40205], [91.23987, 26.40124], [91.2397, 26.40092], [91.23904, 26.39964], [91.23811, 26.39784], [91.23761, 26.39688], [91.2375, 26.39639], [91.23703, 26.39439], [91.23654, 26.39229], [91.2355, 26.39042], [91.23309, 26.38848], [91.23247, 26.38804], [91.22943, 26.38574], [91.22601, 26.38348], [91.22515, 26.38291], [91.22459, 26.38254], [91.22427, 26.38231], [91.22324, 26.38155], [91.22397, 26.37949], [91.22439, 26.37919], [91.22521, 26.37862], [91.22579, 26.37888], [91.2279, 26.3771], [91.22915, 26.37603], [91.22909, 26.37526], [91.22904, 26.37466], [91.22901, 26.37425], [91.22876, 26.37123], [91.22863, 26.36961], [91.22858, 26.36909], [91.22857, 26.36895], [91.22859, 26.36875], [91.22871, 26.36696], [91.22875, 26.36642], [91.22741, 26.36444], [91.23187, 26.36496], [91.23633, 26.36585], [91.23678, 26.36594], [91.23784, 26.36597], [91.2389, 26.366], [91.24071, 26.36606], [91.24164, 26.36657], [91.24171, 26.36662], [91.24283, 26.36745], [91.24369, 26.36796], [91.24538, 26.36895], [91.24597, 26.3693], [91.24685, 26.36978], [91.24692, 26.36884], [91.24864, 26.36963], [91.24934, 26.36924], [91.25005, 26.36885], [91.25005, 26.36868], [91.25007, 26.36771], [91.25008, 26.36731], [91.25048, 26.36733], [91.25491, 26.3675], [91.25684, 26.36758], [91.26201, 26.36779], [91.26391, 26.36787], [91.26412, 26.36472], [91.26422, 26.36322], [91.26429, 26.36227], [91.26437, 26.36112], [91.26254, 26.35985], [91.25993, 26.35734], [91.25998, 26.35661], [91.26006, 26.35541], [91.26045, 26.35233], [91.26062, 26.35221], [91.25944, 26.3505], [91.25741, 26.34744], [91.25601, 26.34366], [91.2556, 26.34095], [91.2563, 26.34066], [91.25822, 26.33866], [91.25992, 26.33593], [91.26032, 26.33308], [91.26049, 26.33252], [91.26082, 26.33144], [91.25984, 26.33147], [91.25856, 26.33024], [91.25847, 26.33004], [91.25772, 26.3284], [91.25805, 26.32618], [91.2583, 26.32483], [91.25876, 26.32239], [91.25892, 26.32184], [91.25936, 26.32032], [91.25952, 26.3194], [91.25845, 26.31749], [91.25843, 26.31571], [91.25843, 26.31566], [91.25879, 26.31527], [91.25746, 26.31387], [91.25458, 26.31153], [91.25267, 26.31045], [91.25304, 26.30825], [91.25296, 26.30741], [91.25258, 26.30369], [91.25159, 26.30276], [91.25143, 26.30253], [91.25062, 26.30226], [91.24837, 26.30038], [91.24632, 26.29922], [91.24498, 26.29846], [91.24365, 26.29771], [91.24051, 26.29589], [91.23963, 26.29529], [91.24003, 26.29434], [91.23994, 26.29324], [91.23991, 26.29292], [91.24034, 26.29187], [91.23996, 26.28975], [91.24064, 26.28818], [91.24084, 26.28664], [91.24168, 26.28515], [91.24252, 26.28375], [91.24373, 26.28367], [91.24583, 26.28354], [91.24592, 26.28353], [91.24875, 26.28104], [91.24696, 26.28033], [91.24515, 26.27961], [91.24191, 26.27832], [91.23964, 26.27741], [91.23868, 26.27682], [91.23755, 26.2759], [91.23786, 26.27808], [91.23457, 26.27914], [91.22923, 26.28095], [91.23032, 26.27908], [91.23071, 26.27826], [91.23146, 26.27684], [91.23298, 26.27478], [91.23279, 26.27382], [91.23259, 26.2729], [91.23191, 26.27037], [91.23186, 26.27017], [91.23171, 26.26668], [91.23125, 26.26568], [91.23059, 26.26423], [91.23039, 26.26379], [91.22983, 26.26355], [91.22808, 26.26281], [91.22684, 26.26249], [91.22692, 26.26234], [91.23196, 26.26236], [91.23558, 26.26238], [91.23599, 26.26225], [91.23806, 26.26157], [91.23887, 26.26131], [91.2396, 26.26007], [91.24064, 26.25832], [91.24156, 26.25674], [91.24016, 26.25169], [91.23454, 26.24674], [91.23499, 26.24619], [91.2434, 26.23986], [91.24611, 26.23821], [91.24557, 26.23718], [91.24494, 26.23574], [91.24407, 26.23377], [91.2423, 26.23037], [91.22701, 26.21533], [91.23039, 26.21491], [91.23554, 26.21273], [91.23718, 26.21203], [91.23898, 26.20973], [91.24376, 26.20363], [91.24858, 26.20055], [91.24921, 26.20015], [91.24959, 26.19991], [91.25052, 26.19931], [91.2428, 26.19202], [91.2424, 26.18934], [91.24115, 26.18093], [91.23569, 26.18237], [91.23156, 26.17723], [91.23653, 26.17463], [91.24098, 26.17986], [91.25053, 26.18193], [91.25182, 26.18153], [91.25582, 26.18039], [91.26153, 26.17974], [91.26575, 26.18027], [91.26722, 26.18059], [91.27244, 26.18174], [91.27607, 26.18215], [91.28194, 26.18342], [91.29236, 26.18715], [91.29629, 26.18835], [91.30053, 26.18135], [91.30139, 26.18036], [91.308, 26.17284], [91.31563, 26.1662], [91.31628, 26.1667], [91.321, 26.1695], [91.32543, 26.17134], [91.33007, 26.17188], [91.33246, 26.17257], [91.33408, 26.17304], [91.33458, 26.17318], [91.33625, 26.1738], [91.33833, 26.17569], [91.34054, 26.17881], [91.34208, 26.18049], [91.34351, 26.18131], [91.34466, 26.18152], [91.34694, 26.17938], [91.34982, 26.1792], [91.35026, 26.17917], [91.35336, 26.18015], [91.35742, 26.18226], [91.35961, 26.18349], [91.36031, 26.18363], [91.36116, 26.18381], [91.36343, 26.18313], [91.3657, 26.18095], [91.36598, 26.18089], [91.36652, 26.18078], [91.36839, 26.18042], [91.36909, 26.18001], [91.36934, 26.17998], [91.3759, 26.17929], [91.38464, 26.17856], [91.38734, 26.1773], [91.38987, 26.17451], [91.39203, 26.16788], [91.39501, 26.15874], [91.39825, 26.15171], [91.40159, 26.14783], [91.40384, 26.14666], [91.41303, 26.14702], [91.43106, 26.15044], [91.4334, 26.15216], [91.44728, 26.16234], [91.45216, 26.18476], [91.45521, 26.19876], [91.45521, 26.19887], [91.45519, 26.19922], [91.45518, 26.19945], [91.455, 26.20403], [91.45485, 26.20786], [91.45505, 26.21413], [91.45534, 26.22298], [91.45582, 26.23778], [91.45588, 26.23977], [91.4559, 26.24029], [91.45333, 26.24622], [91.45311, 26.25172], [91.45305, 26.2532], [91.45317, 26.25869], [91.45319, 26.26004], [91.45319, 26.26012], [91.45321, 26.26109], [91.45337, 26.2689], [91.45346, 26.27308], [91.45365, 26.28218], [91.45377, 26.28817], [91.46138, 26.30685], [91.46253, 26.30947], [91.4633, 26.31095], [91.46333, 26.31114], [91.46618, 26.31629], [91.4664, 26.31692], [91.46704, 26.31813], [91.47, 26.31809], [91.47021, 26.31809], [91.47174, 26.31807], [91.47212, 26.31807], [91.47222, 26.31807], [91.47675, 26.31802], [91.47697, 26.31802], [91.47951, 26.31803], [91.47991, 26.31807], [91.48096, 26.31815], [91.48334, 26.31835], [91.48597, 26.31857], [91.48789, 26.31873], [91.48818, 26.31875], [91.48904, 26.31882], [91.49313, 26.31916], [91.49391, 26.31975], [91.49723, 26.32227], [91.49847, 26.32318], [91.49991, 26.32277], [91.50285, 26.32193], [91.50693, 26.32194], [91.50921, 26.32633], [91.51142, 26.32701], [91.51258, 26.32736], [91.51286, 26.32745], [91.51481, 26.32745], [91.51891, 26.32744], [91.52055, 26.32797], [91.52565, 26.3296], [91.52613, 26.32977], [91.52656, 26.3299], [91.52685, 26.32999], [91.53026, 26.33254], [91.53084, 26.33267], [91.5314, 26.3328], [91.53538, 26.33374], [91.5342, 26.33536], [91.53325, 26.33665], [91.52835, 26.33716], [91.52628, 26.33774], [91.5247, 26.33819], [91.52258, 26.33879], [91.52187, 26.33993], [91.52184, 26.33998], [91.52174, 26.34014], [91.52061, 26.34198], [91.52026, 26.34255], [91.52031, 26.34305], [91.52077, 26.34728], [91.52093, 26.34875], [91.52155, 26.35021], [91.52187, 26.35096], [91.52204, 26.35136], [91.52292, 26.35337], [91.52312, 26.35383], [91.52327, 26.35417], [91.52353, 26.35477], [91.524, 26.35585], [91.52435, 26.3564], [91.52497, 26.35738], [91.52593, 26.35891], [91.52766, 26.36167], [91.52892, 26.36266], [91.53189, 26.36499], [91.5321, 26.36516], [91.53331, 26.36611], [91.53372, 26.36643], [91.53554, 26.36859], [91.53668, 26.36994], [91.53725, 26.37075], [91.53413, 26.37344], [91.53319, 26.37356], [91.5325, 26.37364], [91.53198, 26.3737], [91.52883, 26.37407], [91.52862, 26.37409], [91.52764, 26.37421], [91.52742, 26.3752], [91.52733, 26.37559], [91.52675, 26.37813], [91.52731, 26.37885], [91.52868, 26.38063], [91.52933, 26.38147], [91.53304, 26.38628], [91.53498, 26.38879], [91.53498, 26.38885], [91.53495, 26.38969], [91.53489, 26.39097], [91.53486, 26.39166], [91.53486, 26.39178], [91.53485, 26.39195], [91.53479, 26.39322], [91.53618, 26.39463], [91.53772, 26.39619], [91.54199, 26.40054], [91.54223, 26.40079], [91.54359, 26.40315], [91.54562, 26.40667], [91.54553, 26.40698], [91.54522, 26.40804], [91.54507, 26.40856], [91.54483, 26.40939], [91.54396, 26.41063], [91.54158, 26.41403], [91.54334, 26.4167], [91.54469, 26.41674], [91.54914, 26.41686], [91.54964, 26.4166], [91.55197, 26.41536], [91.55213, 26.41528], [91.55265, 26.415], [91.55345, 26.41458], [91.55362, 26.41462], [91.55552, 26.41516], [91.5566, 26.41546], [91.55761, 26.41574], [91.55844, 26.41597], [91.56056, 26.41656], [91.56058, 26.4211], [91.56058, 26.42208], [91.56354, 26.42452], [91.56365, 26.42495], [91.5639, 26.42595], [91.56453, 26.42845], [91.56458, 26.42865], [91.56468, 26.42907], [91.56577, 26.43336], [91.56507, 26.43472], [91.56481, 26.43522], [91.56445, 26.43593], [91.56442, 26.43598], [91.5639, 26.437], [91.56249, 26.44191], [91.56221, 26.44292], [91.56211, 26.44325], [91.56191, 26.44395], [91.56187, 26.44406], [91.56183, 26.44421], [91.5607, 26.44634], [91.55817, 26.45112], [91.55575, 26.45568], [91.55549, 26.4575], [91.55516, 26.45993], [91.55478, 26.46265], [91.55464, 26.4636], [91.55431, 26.46599], [91.55426, 26.46639], [91.55394, 26.46865], [91.55393, 26.46874], [91.55371, 26.47035], [91.55366, 26.47065], [91.55634, 26.47574], [91.55638, 26.47581], [91.55693, 26.47686], [91.55715, 26.47727], [91.55766, 26.47824], [91.55776, 26.47844], [91.55834, 26.47954], [91.55838, 26.47962], [91.56272, 26.48365], [91.56247, 26.48674], [91.56243, 26.48718], [91.56237, 26.48788], [91.56214, 26.49076], [91.56173, 26.49578], [91.56146, 26.49912], [91.56145, 26.49918], [91.56136, 26.50035], [91.56093, 26.50208], [91.56071, 26.50297], [91.56067, 26.50314], [91.55998, 26.50598], [91.55982, 26.50662], [91.55948, 26.50747], [91.55902, 26.50986], [91.55863, 26.51149], [91.55832, 26.51278], [91.55816, 26.51344], [91.55797, 26.51419], [91.55805, 26.51439], [91.55909, 26.51682], [91.55937, 26.51746], [91.55971, 26.51828], [91.56012, 26.51922], [91.56035, 26.51976], [91.56068, 26.52055], [91.56333, 26.52139], [91.56523, 26.52199], [91.56592, 26.52203], [91.5693, 26.52222], [91.57021, 26.52227], [91.57352, 26.52316], [91.57381, 26.52323], [91.5745, 26.52342], [91.57495, 26.52354], [91.57543, 26.52378], [91.57568, 26.52391], [91.57627, 26.52421], [91.57695, 26.52455], [91.57717, 26.52466], [91.57747, 26.52482], [91.57797, 26.52507], [91.58048, 26.52635], [91.58342, 26.5312], [91.58358, 26.53459], [91.5836, 26.5351], [91.5836, 26.53518], [91.58369, 26.53708], [91.5837, 26.53712], [91.58706, 26.53923], [91.5884, 26.54006], [91.58766, 26.54523], [91.58666, 26.55221], [91.58721, 26.55276], [91.58749, 26.55304], [91.58663, 26.55913], [91.58624, 26.56172], [91.58608, 26.56285], [91.58598, 26.56354], [91.58631, 26.56593], [91.58664, 26.56828], [91.58685, 26.56978], [91.58614, 26.57137], [91.5856, 26.57174], [91.58533, 26.57192], [91.58481, 26.5719], [91.58339, 26.57183], [91.5826, 26.57195], [91.58226, 26.572], [91.58247, 26.57318], [91.58331, 26.57533], [91.58338, 26.5755], [91.58363, 26.57726], [91.58314, 26.57811], [91.58132, 26.5783], [91.5797, 26.5779], [91.57909, 26.57775], [91.57868, 26.57754], [91.57609, 26.57622], [91.57533, 26.57583], [91.57395, 26.5753], [91.56922, 26.57346], [91.5689, 26.57334], [91.56855, 26.5732], [91.56509, 26.57221], [91.56113, 26.57108], [91.55914, 26.57052], [91.55817, 26.57025], [91.55782, 26.57015], [91.5526, 26.56908], [91.5513, 26.56881], [91.5506, 26.56867], [91.54737, 26.56764], [91.5453, 26.56726], [91.54437, 26.56709], [91.54374, 26.56697], [91.54369, 26.56696], [91.54339, 26.56691], [91.54216, 26.56669], [91.53575, 26.56521], [91.53386, 26.56479], [91.5328, 26.56456], [91.53188, 26.56436], [91.53172, 26.56432], [91.53068, 26.5641], [91.52862, 26.56397], [91.52285, 26.56361], [91.51874, 26.5633], [91.51443, 26.56298], [91.51023, 26.56235], [91.50693, 26.56185], [91.50152, 26.56064], [91.49992, 26.56005], [91.49835, 26.55947], [91.49658, 26.55882], [91.49322, 26.5576], [91.49262, 26.55727], [91.48775, 26.55465], [91.4865, 26.55413], [91.48504, 26.55353], [91.48442, 26.55324], [91.4843, 26.55318], [91.48172, 26.55195], [91.47959, 26.55094], [91.4773, 26.54985], [91.47405, 26.54854], [91.46835, 26.54624], [91.45991, 26.54256], [91.4571, 26.54133], [91.45354, 26.53952], [91.44802, 26.53671], [91.44611, 26.53581], [91.44244, 26.53407], [91.43987, 26.53285], [91.43808, 26.53182], [91.43469, 26.52987], [91.43168, 26.5283], [91.42927, 26.52786], [91.42702, 26.52745], [91.42692, 26.52754], [91.42662, 26.52778], [91.42669, 26.52952], [91.42722, 26.53141], [91.42749, 26.53179], [91.42946, 26.53456], [91.42924, 26.53559], [91.42828, 26.53573], [91.42767, 26.53567], [91.42699, 26.5356], [91.4232, 26.53524], [91.42248, 26.53513], [91.41959, 26.53469], [91.41788, 26.53448], [91.41459, 26.53407], [91.41261, 26.53382], [91.41092, 26.53361], [91.4083, 26.53323], [91.40462, 26.53271], [91.40447, 26.53269], [91.40018, 26.53209], [91.39998, 26.53206], [91.39175, 26.53121], [91.39033, 26.53106], [91.38609, 26.53076], [91.38466, 26.53066], [91.38308, 26.53055], [91.379, 26.52777], [91.37846, 26.52705], [91.37828, 26.52681], [91.37692, 26.525], [91.37637, 26.52427], [91.37484, 26.52083], [91.37481, 26.52069], [91.37477, 26.52051], [91.37475, 26.5204], [91.37416, 26.51742], [91.37463, 26.51533], [91.37468, 26.51512], [91.37649, 26.5122], [91.37721, 26.51143], [91.37816, 26.51043], [91.37834, 26.50956], [91.37879, 26.50732], [91.37917, 26.50563], [91.37935, 26.50479], [91.38024, 26.50398], [91.38112, 26.50318], [91.38139, 26.50292], [91.38341, 26.50129], [91.38431, 26.49901], [91.38488, 26.49544], [91.38457, 26.4938], [91.38438, 26.49275], [91.38379, 26.49118], [91.38304, 26.48918], [91.38269, 26.48838], [91.38193, 26.48667], [91.37947, 26.48443], [91.37818, 26.48319], [91.37794, 26.48265], [91.37679, 26.48007], [91.37606, 26.47719], [91.37592, 26.47664], [91.37495, 26.47576], [91.37404, 26.47542], [91.37392, 26.47538], [91.37312, 26.47507], [91.37134, 26.47449], [91.37054, 26.47423], [91.37002, 26.47406], [91.36742, 26.47285], [91.36691, 26.47208], [91.36622, 26.47102], [91.36593, 26.46937], [91.36591, 26.46928], [91.36552, 26.46701], [91.36555, 26.46629], [91.36313, 26.46695], [91.36183, 26.46731], [91.36154, 26.46739], [91.35922, 26.46939], [91.35744, 26.46928], [91.35551, 26.46929], [91.35329, 26.4705], [91.35265, 26.47126], [91.3522, 26.47258], [91.35286, 26.47384], [91.35317, 26.47448], [91.35374, 26.47565], [91.35388, 26.47724], [91.3539, 26.47741], [91.35078, 26.47722], [91.34778, 26.47726], [91.34424, 26.4773], [91.34388, 26.47802], [91.34304, 26.47972], [91.34273, 26.48088], [91.34251, 26.48172], [91.34235, 26.48293], [91.34267, 26.48317], [91.34213, 26.48321], [91.34148, 26.48326], [91.34011, 26.48336], [91.33635, 26.48381], [91.33362, 26.48432], [91.33293, 26.48445], [91.33088, 26.48483], [91.32823, 26.48526], [91.32659, 26.48552], [91.326, 26.48562], [91.32555, 26.48575], [91.3253, 26.48583], [91.32218, 26.48676], [91.32066, 26.48605], [91.32017, 26.48626], [91.32009, 26.48629], [91.31355, 26.489], [91.31186, 26.4897], [91.30929, 26.49077], [91.30918, 26.49081], [91.30876, 26.49099], [91.30104, 26.49334], [91.29967, 26.49376], [91.29845, 26.49505], [91.29545, 26.49824], [91.29539, 26.4983], [91.29296, 26.50087], [91.29292, 26.50113], [91.2903, 26.51715], [91.29028, 26.51728], [91.29019, 26.51786], [91.29164, 26.53128], [91.29177, 26.53248], [91.29206, 26.53647], [91.29294, 26.54885], [91.29296, 26.54908], [91.29299, 26.55074], [91.293, 26.55108], [91.29311, 26.55887], [91.29316, 26.56189], [91.29249, 26.56195]]]}}]}