{"type": "FeatureCollection", "features": [{"type": "Feature", "properties": {"Name": "Sivasagar"}, "geometry": {"type": "Polygon", "coordinates": [[[94.83234065600004, 27.094826134000073], [94.82941, 27.09558], [94.82797, 27.09725], [94.82623, 27.09926], [94.82544, 27.10016], [94.82516, 27.09986], [94.82271, 27.09725], [94.82344, 27.09563], [94.82645, 27.0941], [94.82932, 27.09352], [94.8318, 27.09122], [94.82324, 27.08772], [94.81905, 27.08698], [94.81542, 27.08679], [94.81569, 27.08743], [94.81596, 27.08928], [94.81618, 27.09084], [94.81657, 27.09353], [94.81671, 27.09452], [94.81659, 27.09655], [94.81862, 27.10008], [94.81266, 27.09899], [94.81283, 27.10084], [94.81305, 27.10329], [94.81311, 27.10398], [94.81328, 27.1059], [94.81526, 27.10728], [94.81628, 27.108], [94.81727, 27.10869], [94.81896, 27.11379], [94.81913, 27.1143], [94.81895, 27.11433], [94.81761, 27.11453], [94.81677, 27.11466], [94.81641, 27.11471], [94.81327, 27.11519], [94.81268, 27.11528], [94.81074, 27.11557], [94.81, 27.1162], [94.80902, 27.11703], [94.80826, 27.11768], [94.80817, 27.11776], [94.80742, 27.11802], [94.80706, 27.11814], [94.8042, 27.11913], [94.80291, 27.11958], [94.80156, 27.12005], [94.80078, 27.11991], [94.79964, 27.1197], [94.79876, 27.11954], [94.79631, 27.11908], [94.79493, 27.11945], [94.79298, 27.11997], [94.79102, 27.1205], [94.79097, 27.12051], [94.79004, 27.12076], [94.78845, 27.12119], [94.78754, 27.12143], [94.78306, 27.12264], [94.78185, 27.12297], [94.78178, 27.12299], [94.78062, 27.1233], [94.7786, 27.12385], [94.77606, 27.12453], [94.77602, 27.12454], [94.77222, 27.12557], [94.77199, 27.12563], [94.76626, 27.12933], [94.76609, 27.12968], [94.76571, 27.13045], [94.76451, 27.13286], [94.76413, 27.13362], [94.76394, 27.13401], [94.76345, 27.13499], [94.76227, 27.13651], [94.76077, 27.13844], [94.76047, 27.13882], [94.76015, 27.13923], [94.75997, 27.14042], [94.75893, 27.1426], [94.75902, 27.14294], [94.75925, 27.14376], [94.75936, 27.14414], [94.75998, 27.14637], [94.76018, 27.14708], [94.76029, 27.14746], [94.7608, 27.14929], [94.76084, 27.14942], [94.75648, 27.15106], [94.76201, 27.15264], [94.76246, 27.15277], [94.76311, 27.15295], [94.76345, 27.15304], [94.76443, 27.15472], [94.76446, 27.15477], [94.766, 27.1574], [94.76645, 27.15765], [94.77134, 27.16039], [94.7713, 27.16115], [94.77124, 27.16236], [94.7712, 27.16327], [94.77243, 27.16447], [94.77367, 27.16567], [94.77375, 27.16579], [94.77424, 27.16659], [94.77429, 27.16668], [94.77538, 27.16845], [94.7764, 27.1701], [94.77794, 27.17087], [94.7789, 27.17136], [94.7797, 27.17176], [94.77436, 27.17453], [94.77459, 27.17967], [94.77462, 27.18041], [94.77343, 27.18423], [94.77564, 27.18894], [94.77997, 27.19092], [94.77994, 27.19122], [94.77978, 27.19287], [94.7797, 27.19366], [94.7797, 27.19371], [94.77953, 27.19542], [94.77922, 27.1985], [94.77894, 27.19938], [94.77886, 27.19961], [94.77773, 27.20311], [94.77756, 27.20364], [94.77726, 27.20562], [94.77708, 27.20678], [94.77681, 27.20854], [94.7766, 27.20994], [94.77659, 27.20999], [94.77641, 27.21121], [94.7762, 27.21257], [94.7753, 27.21315], [94.77428, 27.21381], [94.77361, 27.21424], [94.77305, 27.21459], [94.77273, 27.2148], [94.77014, 27.21647], [94.77011, 27.21649], [94.7709, 27.2205], [94.77138, 27.22295], [94.77666, 27.23563], [94.77726, 27.23707], [94.77784, 27.23845], [94.77797, 27.23877], [94.77794, 27.23879], [94.77385, 27.2418], [94.77045, 27.24335], [94.76898, 27.24402], [94.7672, 27.24483], [94.76611, 27.24532], [94.76568, 27.24459], [94.76414, 27.24197], [94.76286, 27.23981], [94.76234, 27.23937], [94.7623, 27.23931], [94.76174, 27.23835], [94.75974, 27.2361], [94.75852, 27.23403], [94.75635, 27.23172], [94.75567, 27.23099], [94.75541, 27.23071], [94.75513, 27.23005], [94.75497, 27.22945], [94.75483, 27.2289], [94.75431, 27.22839], [94.75347, 27.22758], [94.75243, 27.22684], [94.75064, 27.22412], [94.75168, 27.22391], [94.75479, 27.22415], [94.75785, 27.22349], [94.76009, 27.22295], [94.76109, 27.22259], [94.76364, 27.22166], [94.76221, 27.22032], [94.76201, 27.22008], [94.76105, 27.2189], [94.7604, 27.21812], [94.7565, 27.21461], [94.75586, 27.21446], [94.75514, 27.21424], [94.75347, 27.21356], [94.75285, 27.21307], [94.75245, 27.21259], [94.75224, 27.21231], [94.75179, 27.21163], [94.75129, 27.21129], [94.74837, 27.21033], [94.74652, 27.2096], [94.74607, 27.20942], [94.74512, 27.20923], [94.74454, 27.20911], [94.74397, 27.20882], [94.74342, 27.20845], [94.74292, 27.20814], [94.74222, 27.20792], [94.74052, 27.20786], [94.73858, 27.20748], [94.73777, 27.20841], [94.73613, 27.20893], [94.73523, 27.20921], [94.73243, 27.21019], [94.73357, 27.21232], [94.73361, 27.2124], [94.73524, 27.21489], [94.73709, 27.21787], [94.73911, 27.2202], [94.73967, 27.22107], [94.73978, 27.22124], [94.73947, 27.22181], [94.73935, 27.22277], [94.74008, 27.22342], [94.74016, 27.22348], [94.74136, 27.22488], [94.74113, 27.22608], [94.74112, 27.22611], [94.7411, 27.22624], [94.74149, 27.227], [94.74208, 27.22759], [94.74254, 27.22846], [94.74272, 27.22941], [94.74438, 27.23114], [94.74554, 27.2338], [94.74687, 27.23538], [94.74556, 27.23558], [94.74365, 27.23587], [94.74364, 27.23587], [94.74137, 27.23593], [94.73907, 27.23581], [94.73836, 27.23577], [94.73732, 27.23571], [94.73611, 27.23593], [94.73528, 27.23638], [94.7339, 27.23486], [94.73328, 27.23415], [94.73269, 27.23347], [94.7315, 27.23211], [94.73067, 27.2313], [94.72975, 27.23111], [94.72818, 27.23114], [94.7268, 27.23114], [94.72522, 27.23065], [94.72463, 27.23034], [94.72364, 27.22982], [94.71879, 27.22726], [94.71631, 27.22594], [94.71613, 27.22705], [94.71518, 27.22864], [94.71513, 27.22872], [94.71459, 27.22965], [94.714, 27.23081], [94.71376, 27.23128], [94.71297, 27.23282], [94.71246, 27.23332], [94.714, 27.23477], [94.71446, 27.23525], [94.71536, 27.23551], [94.7164, 27.23587], [94.71819, 27.2376], [94.71824, 27.23768], [94.71951, 27.23972], [94.71956, 27.23994], [94.71982, 27.24117], [94.71942, 27.24213], [94.7203, 27.2432], [94.7206, 27.24357], [94.72092, 27.24397], [94.72094, 27.24458], [94.72087, 27.24464], [94.72073, 27.24458], [94.71924, 27.24465], [94.71899, 27.24476], [94.71456, 27.24559], [94.7136, 27.24577], [94.71229, 27.24514], [94.71019, 27.24412], [94.70142, 27.23988], [94.69613, 27.23603], [94.69471, 27.235], [94.69307, 27.23381], [94.69262, 27.23353], [94.67484, 27.22241], [94.65855, 27.20559], [94.62851, 27.17457], [94.62578, 27.17124], [94.61269, 27.15528], [94.61148, 27.1542], [94.61141, 27.15387], [94.60415, 27.14476], [94.60033, 27.14005], [94.59884764439998, 27.13823074539998], [94.59813, 27.13735], [94.59617, 27.13551], [94.59448, 27.13392], [94.59432766900005, 27.133776883000053], [94.58704, 27.12693], [94.5834, 27.12352], [94.57584, 27.11637], [94.57547, 27.11602], [94.57241, 27.11314], [94.57209691300005, 27.11287782100004], [94.56995, 27.11108], [94.56929, 27.11052], [94.56371, 27.1008], [94.55802, 27.09862], [94.55358406500005, 27.09517975700004], [94.55107, 27.09323], [94.54859531900007, 27.08331301100003], [94.54836, 27.08237], [94.54599, 27.07643], [94.54509, 27.07418], [94.54439, 27.07363], [94.53842, 27.06892], [94.53813234600005, 27.068837359000042], [94.53299, 27.06736], [94.53059, 27.06667], [94.52979, 27.06643], [94.5293, 27.06585], [94.52274, 27.05823], [94.52110344400006, 27.05632245000004], [94.51501, 27.04922], [94.51371006800008, 27.04770341400007], [94.51363, 27.04761], [94.51292, 27.04652], [94.50953, 27.0413], [94.50769004900008, 27.04029393600007], [94.50408, 27.03832], [94.50152019300003, 27.03692023900004], [94.49810925900005, 27.035055064000062], [94.4981, 27.03505], [94.49685, 27.03468], [94.4936, 27.03372], [94.47959380600008, 27.02957480300006], [94.47951, 27.02955], [94.47792838200007, 27.02755984500004], [94.47414466300006, 27.02279878300004], [94.47409, 27.02273], [94.47361809200004, 27.021166411000024], [94.47259, 27.01776], [94.47154, 27.0142], [94.4704, 27.00805], [94.47038, 27.00795], [94.47017, 27.00683], [94.46963, 27.0039], [94.46947, 27.00303], [94.46921456900009, 27.001661153000043], [94.46908, 27.00094], [94.46742, 26.99883], [94.4636, 26.99396], [94.45929, 26.99096], [94.45905, 26.99085], [94.45669810400005, 26.98981560200008], [94.45257, 26.988], [94.45191, 26.98771], [94.44955, 26.98668], [94.44273, 26.98372], [94.44027067800005, 26.982602980000024], [94.44011, 26.98253], [94.43251716300006, 26.977588785000023], [94.42315872200004, 26.971684802000027], [94.42065, 26.97031], [94.41980257400007, 26.969845517000067], [94.40901, 26.96393], [94.40201, 26.96009], [94.40140393200005, 26.959309175000044], [94.40038, 26.95799], [94.40055963000003, 26.955913475000045], [94.40063, 26.9551], [94.40072, 26.95405], [94.40076, 26.95354], [94.4009, 26.95179], [94.40214773700006, 26.948471624000035], [94.40242059000008, 26.947745206000036], [94.40243, 26.94772], [94.40363, 26.94661], [94.40389, 26.94636], [94.40689, 26.94358], [94.41005, 26.94261], [94.41066, 26.94242], [94.41075, 26.94239], [94.4112, 26.94225], [94.41247, 26.94211], [94.41349, 26.942], [94.41395, 26.94194], [94.41406, 26.942], [94.41659, 26.94341], [94.41661, 26.94342], [94.41917, 26.93896], [94.42196, 26.93411], [94.42668, 26.92443], [94.44734, 26.90282], [94.4483, 26.90205], [94.45363, 26.89779], [94.46198, 26.89113], [94.46372, 26.89034], [94.4769, 26.88437], [94.47808, 26.88383], [94.47873, 26.88354], [94.48037, 26.88279], [94.48145, 26.8823], [94.48253, 26.88181], [94.49106, 26.875], [94.49241, 26.87392], [94.49353, 26.87303], [94.49376, 26.87284], [94.49452, 26.87224], [94.49649, 26.87066], [94.49799, 26.86795], [94.49831, 26.86738], [94.49891, 26.86631], [94.49993, 26.86446], [94.50086, 26.86279], [94.50142, 26.86177], [94.50177, 26.86114], [94.50351, 26.85659], [94.50366, 26.85619], [94.50393, 26.85509], [94.50445, 26.85302], [94.5046, 26.85242], [94.50484, 26.85146], [94.50486, 26.85132], [94.50556, 26.84736], [94.50623, 26.84354], [94.50649, 26.84202], [94.50822, 26.83895], [94.51188, 26.83246], [94.5152, 26.82659], [94.51604, 26.8251], [94.51995, 26.81817], [94.52086, 26.81593], [94.52153, 26.81428], [94.52261, 26.81162], [94.52269, 26.81141], [94.52277, 26.81121], [94.52304, 26.81056], [94.52329, 26.80994], [94.5237, 26.80893], [94.52396, 26.80827], [94.524, 26.80818], [94.52413, 26.80787], [94.52428, 26.8075], [94.525, 26.80571], [94.52542, 26.80469], [94.52656, 26.80189], [94.52731, 26.80004], [94.52792, 26.79853], [94.52849, 26.79713], [94.52851, 26.79709], [94.529, 26.79587], [94.52963, 26.79432], [94.53114, 26.79116], [94.53219, 26.78895], [94.53342, 26.78637], [94.53537, 26.78229], [94.53555, 26.78191], [94.53647, 26.77999], [94.53955, 26.77354], [94.54425, 26.77018], [94.54501, 26.76964], [94.5452, 26.7695], [94.55008, 26.76601], [94.55504, 26.76247], [94.55565, 26.76204], [94.55694, 26.76111], [94.55735, 26.76082], [94.55773, 26.76055], [94.55907, 26.75856], [94.5608, 26.75599], [94.56384, 26.75147], [94.56418, 26.75097], [94.56475, 26.75011], [94.56585, 26.74848], [94.56658, 26.74902], [94.56894, 26.75077], [94.57087, 26.75118], [94.5725, 26.75153], [94.57308, 26.75165], [94.5746, 26.75198], [94.57305, 26.74589], [94.57241, 26.74338], [94.57358, 26.74173], [94.57374, 26.74163], [94.57523, 26.74068], [94.57616, 26.74008], [94.57636, 26.73995], [94.57981, 26.73775], [94.58296, 26.73574], [94.58246, 26.73472], [94.58188, 26.73354], [94.58128, 26.73232], [94.58171, 26.73151], [94.58447, 26.72631], [94.58474, 26.7258], [94.59127, 26.72533], [94.59287, 26.72522], [94.59414, 26.72513], [94.59447, 26.72567], [94.59493, 26.72643], [94.59889, 26.73296], [94.60309, 26.73451], [94.60368, 26.73459], [94.60646, 26.73497], [94.60761, 26.73513], [94.60901, 26.73532], [94.60915, 26.73367], [94.60937, 26.73107], [94.60997, 26.72983], [94.6107, 26.72827], [94.61089, 26.72786], [94.61217, 26.72736], [94.61633, 26.72574], [94.61706, 26.72471], [94.61763, 26.72391], [94.61788, 26.72356], [94.61905, 26.72192], [94.61951, 26.71924], [94.61953, 26.71913], [94.61972, 26.71799], [94.62, 26.71634], [94.62011, 26.71624], [94.62022, 26.71613], [94.62162, 26.7147], [94.62333, 26.71442], [94.62376, 26.71435], [94.62718, 26.71378], [94.62903, 26.71429], [94.63087, 26.7148], [94.63118, 26.71496], [94.63295, 26.71588], [94.63328, 26.71605], [94.63351, 26.71617], [94.63472, 26.7168], [94.63614, 26.71754], [94.63707, 26.71802], [94.63825, 26.71851], [94.63925, 26.71882], [94.63958, 26.71887], [94.6451, 26.71964], [94.64827, 26.71924], [94.65025, 26.71899], [94.65225, 26.71874], [94.65741, 26.7199], [94.66363, 26.72268], [94.664, 26.72285], [94.66584, 26.72327], [94.66761, 26.72366], [94.66873, 26.72391], [94.6694, 26.72406], [94.67172, 26.72458], [94.6732, 26.72491], [94.67791, 26.72596], [94.68102, 26.72665], [94.6825, 26.72698], [94.68366, 26.72724], [94.68375, 26.72726], [94.68518, 26.72758], [94.68545, 26.72764], [94.68655, 26.72835], [94.69033, 26.73081], [94.69294, 26.73271], [94.69571, 26.73473], [94.70227, 26.74064], [94.70282, 26.74114], [94.70756, 26.74542], [94.71015, 26.74776], [94.71024, 26.74784], [94.71041, 26.74795], [94.71182, 26.74883], [94.71839, 26.75296], [94.71855, 26.75306], [94.72935, 26.75833], [94.73104, 26.75921], [94.73304, 26.7607], [94.73444, 26.76173], [94.73535, 26.7624], [94.73657, 26.76384], [94.73717, 26.76462], [94.73774, 26.76537], [94.73978, 26.76804], [94.74052, 26.76856], [94.74086, 26.77099], [94.74123, 26.77363], [94.74364, 26.77609], [94.74463, 26.77711], [94.74555, 26.77667], [94.74566, 26.77662], [94.74619, 26.77635], [94.74653, 26.77618], [94.74686, 26.77601], [94.74947, 26.7747], [94.74958, 26.77464], [94.75136, 26.77209], [94.75232, 26.77028], [94.75295, 26.76927], [94.75374, 26.76855], [94.7552, 26.76723], [94.75635, 26.76794], [94.75717, 26.76914], [94.75752, 26.76936], [94.75787, 26.76958], [94.75799, 26.77001], [94.75887, 26.77158], [94.76119, 26.77489], [94.76342, 26.77618], [94.76716, 26.77834], [94.76757, 26.78257], [94.76791, 26.78606], [94.76998, 26.78803], [94.77195, 26.78991], [94.78448, 26.7935], [94.78763, 26.79526], [94.78774, 26.79532], [94.78963, 26.79637], [94.79019, 26.79668], [94.7938, 26.79865], [94.80105, 26.80096], [94.80125, 26.80136], [94.8025, 26.8038], [94.80419, 26.80711], [94.80047, 26.80873], [94.79551, 26.81346], [94.79921, 26.81445], [94.80122, 26.81498], [94.80557, 26.81615], [94.80692, 26.81727], [94.80804, 26.81819], [94.80872, 26.81845], [94.80926, 26.81866], [94.80968, 26.81882], [94.81192, 26.81967], [94.81391, 26.82493], [94.81429, 26.83173], [94.81475, 26.83338], [94.81558, 26.83639], [94.81727, 26.83771], [94.81733, 26.83775], [94.81996, 26.83979], [94.82062, 26.84423], [94.8203, 26.84681], [94.81999, 26.8494], [94.82313, 26.85232], [94.82518, 26.85423], [94.8254, 26.85436], [94.82804, 26.85586], [94.83045, 26.85723], [94.83115, 26.85763], [94.83183, 26.85855], [94.83234, 26.85925], [94.83373, 26.86114], [94.83467, 26.86242], [94.83507, 26.86296], [94.83537, 26.86338], [94.83768, 26.86892], [94.83895, 26.86942], [94.83943, 26.86961], [94.84186, 26.87057], [94.84387, 26.87136], [94.84474, 26.8717], [94.84524, 26.8721], [94.84862, 26.87479], [94.84964, 26.8756], [94.84985, 26.87577], [94.85045, 26.87625], [94.85136, 26.87825], [94.85183, 26.87928], [94.85226, 26.88024], [94.85327, 26.88165], [94.85431, 26.88311], [94.85794, 26.88819], [94.85922, 26.89096], [94.85952, 26.89161], [94.86426, 26.90183], [94.86582, 26.90323], [94.86755, 26.9048], [94.86859, 26.90992], [94.8738, 26.91504], [94.87902, 26.92017], [94.8805, 26.92161], [94.88264, 26.92425], [94.88412, 26.92607], [94.88432, 26.92632], [94.88517, 26.92736], [94.88808, 26.92907], [94.89343, 26.93222], [94.8966, 26.93362], [94.89976, 26.93501], [94.9, 26.93512], [94.90024, 26.93522], [94.90171, 26.9356], [94.90776, 26.93714], [94.90888, 26.9372], [94.91157, 26.93736], [94.91281, 26.93743], [94.91476, 26.93864], [94.91502, 26.9388], [94.91626, 26.93957], [94.91694, 26.93999], [94.91827, 26.94119], [94.92271, 26.94518], [94.92352, 26.9455], [94.92427, 26.9458], [94.92507, 26.94612], [94.92532, 26.94622], [94.92711, 26.94695], [94.9277, 26.94547], [94.92818307800007, 26.944252924000068], [94.92735216600005, 26.946406272000047], [94.92734533200007, 26.946463682000058], [94.92742586100007, 26.946259113000053], [94.928642, 26.946749], [94.92989368100007, 26.948456259000068], [94.93061162000004, 26.949435510000058], [94.93209171900008, 26.95489165300006], [94.93262549700006, 26.95543602600003], [94.93873553400005, 26.961667343000045], [94.94577303500006, 26.963629446000027], [94.94859502900005, 26.96850169700008], [94.94768024700005, 26.976522833000047], [94.94739710100004, 26.977467846000025], [94.94576058200005, 26.982929815000034], [94.94585105500005, 26.983126612000035], [94.94746971800004, 26.986647453000046], [94.94612950700008, 26.99349537200004], [94.94565995500005, 26.993894794000028], [94.94333174100007, 26.99587520800003], [94.94313781900007, 26.99604015600005], [94.93802392000003, 26.992598438000073], [94.92976885700006, 26.987102735000065], [94.92219603300003, 26.981240408000076], [94.92119968400004, 26.980469107000033], [94.91822271200004, 26.978590774000054], [94.91770154300008, 26.978261906000057], [94.91180476500006, 26.974540920000038], [94.91010071200009, 26.973465532000034], [94.90690212000004, 26.971244212000045], [94.90194652300005, 26.96780270800008], [94.89675542200007, 26.964310365000074], [94.89576147500009, 26.963641636000034], [94.88498369100006, 26.959490333000076], [94.88453215600003, 26.95918436000005], [94.88090837700008, 26.956728784000063], [94.87015336600007, 26.94943968700005], [94.86747125900007, 26.945984010000075], [94.86538048400007, 26.943290037000054], [94.85651161600003, 26.939211280000052], [94.85036082100004, 26.93736816200004], [94.84687572100006, 26.936323834000063], [94.84572865100006, 26.936158066000075], [94.84223344300005, 26.93565278600005], [94.83373995800008, 26.934424935000038], [94.82827485200005, 26.93399165200003], [94.82381181300008, 26.93363765600003], [94.81959809700004, 26.933808768000063], [94.81009401700004, 26.934194715000046], [94.80579691900004, 26.934368937000045], [94.80350201400006, 26.934607323000023], [94.79772146600004, 26.935207599000023], [94.79699488200004, 26.935283050000066], [94.79373455900009, 26.935352997000052], [94.78977085800005, 26.935437382000032], [94.78095127500006, 26.935625979000065], [94.77835834600006, 26.935681196000075], [94.77125008900003, 26.93583314500006], [94.76894932300007, 26.93588227600003], [94.76826243800008, 26.935896882000065], [94.76263194500007, 26.93725078400007], [94.75798004700005, 26.938369374000047], [94.75267206400008, 26.94165474400006], [94.75082465100007, 26.942798198000048], [94.74993521400006, 26.943348714000024], [94.75053995100006, 26.949354535000055], [94.75417710700003, 26.953960592000044], [94.75652251300005, 26.95693078900007], [94.75663353100003, 26.95707136900006], [94.76402591000004, 26.964686030000053], [94.76429367000009, 26.964896318000058], [94.77282036200006, 26.971592160000057], [94.77813527600006, 26.978261513000064], [94.78025678400007, 26.980883065000057], [94.78110883700003, 26.981935905000057], [94.78737642100003, 26.988002280000046], [94.78846979200006, 26.99004098100005], [94.79005408000006, 26.992995101000076], [94.79129143600005, 26.995302138000056], [94.79566489400008, 26.997026592000054], [94.79781569600004, 26.997874654000043], [94.80079192700003, 27.002928988000065], [94.80406898900009, 27.008003247000033], [94.80634702300006, 27.00904635200004], [94.80825724000005, 27.008950411000058], [94.80927701600007, 27.003079168000056], [94.81110619100008, 27.002674373000048], [94.81226502300007, 27.002417911000066], [94.81395175600005, 27.00308724200005], [94.82141215600006, 27.002854679000052], [94.82187842900004, 27.004713752000043], [94.82234899700006, 27.00658988500004], [94.82558667400008, 27.008994965000056], [94.82452371000005, 27.013887487000034], [94.82533959100004, 27.016335129000026], [94.82533959100004, 27.020686494000074], [94.82316390800008, 27.028029421000042], [94.82425174900004, 27.033468627000047], [94.82397978900008, 27.04053959400005], [94.82425174900004, 27.045978799000068], [94.82350251400004, 27.052122530000076], [94.82289194800006, 27.057129171000042], [94.82523215400005, 27.06356474000006], [94.82615547100005, 27.066103860000055], [94.82697135200004, 27.072358947000055], [94.82914703400007, 27.078342073000044], [94.82972734200007, 27.080155536000063], [94.83132271600005, 27.085141080000028], [94.83497063000004, 27.094108868000035], [94.83495933500006, 27.094111948000034], [94.83496833600003, 27.094150203000027], [94.83234065600004, 27.094826134000073]]]}}]}