{"type": "FeatureCollection", "features": [{"type": "Feature", "properties": {"Name": "Sonitpur"}, "geometry": {"type": "Polygon", "coordinates": [[[92.36639, 26.93141], [92.36294, 26.92714], [92.3628, 26.92697], [92.3619, 26.92586], [92.36103, 26.92478], [92.35942, 26.92105], [92.35877, 26.91956], [92.35763, 26.91693], [92.35743, 26.91646], [92.35522, 26.91335], [92.35492, 26.91135], [92.35485, 26.91092], [92.35315, 26.90759], [92.35186, 26.90564], [92.35162, 26.90479], [92.3509, 26.90231], [92.35065, 26.90082], [92.35036, 26.89908], [92.35007, 26.89731], [92.34892, 26.89034], [92.34579, 26.88743], [92.34519, 26.88687], [92.34383, 26.8856], [92.34358, 26.88537], [92.34368, 26.8847], [92.34404, 26.88227], [92.34444, 26.87957], [92.34479, 26.87857], [92.3456, 26.87628], [92.34565, 26.87615], [92.34666, 26.87329], [92.34638, 26.8723], [92.34532, 26.86865], [92.34522, 26.86507], [92.34521, 26.86488], [92.34519, 26.86444], [92.34744, 26.86161], [92.34663, 26.85843], [92.3451, 26.8566], [92.34508, 26.85494], [92.34382, 26.85389], [92.34343, 26.85357], [92.34216, 26.85252], [92.34171, 26.85215], [92.34173, 26.85171], [92.34187, 26.84881], [92.33819, 26.84614], [92.33755, 26.84401], [92.33724, 26.84294], [92.33718, 26.84275], [92.33709, 26.84244], [92.33653, 26.84055], [92.33649, 26.84044], [92.33564, 26.83885], [92.33507, 26.83779], [92.33446, 26.83665], [92.33383, 26.83549], [92.33414, 26.834], [92.33422, 26.83359], [92.33428, 26.83332], [92.33352, 26.83082], [92.3354, 26.82894], [92.33546, 26.82887], [92.33631, 26.82802], [92.33662, 26.82771], [92.33823, 26.82609], [92.33914, 26.82518], [92.33981, 26.8245], [92.33869, 26.82398], [92.33859, 26.82394], [92.33763, 26.82349], [92.33642, 26.82293], [92.33617, 26.82281], [92.3346, 26.82274], [92.33401, 26.82271], [92.33382, 26.82239], [92.3336, 26.82203], [92.33334, 26.8216], [92.33368, 26.81873], [92.3329, 26.81577], [92.33264, 26.81479], [92.33359, 26.81418], [92.33517, 26.81317], [92.3365, 26.81124], [92.33581, 26.81048], [92.33531, 26.80992], [92.33442, 26.80894], [92.33149, 26.80571], [92.33206, 26.80174], [92.33265, 26.80086], [92.3337, 26.79929], [92.33655, 26.79504], [92.33658, 26.79499], [92.33615, 26.7941], [92.33565, 26.79305], [92.33508, 26.79184], [92.33618, 26.79077], [92.33732, 26.78967], [92.33959, 26.78746], [92.33962, 26.78715], [92.33979, 26.78522], [92.3391, 26.78459], [92.33742, 26.78307], [92.33705, 26.78274], [92.33716, 26.78225], [92.33722, 26.782], [92.33739, 26.78127], [92.33783, 26.77934], [92.3381, 26.77815], [92.33814, 26.77798], [92.3384, 26.7776], [92.33958, 26.77587], [92.34168, 26.7728], [92.34213, 26.77214], [92.34217, 26.77173], [92.34230184700004, 26.77048686300003], [92.34231, 26.77041], [92.33749826900004, 26.771382584000037], [92.33667, 26.77155], [92.33654, 26.77156], [92.33324, 26.7716], [92.33189, 26.77161], [92.33222, 26.77088], [92.33454, 26.76574], [92.33849, 26.76676], [92.33871, 26.76681], [92.3386, 26.76648], [92.33921, 26.7648], [92.3392, 26.76404], [92.3388, 26.76356], [92.33827, 26.7633], [92.338, 26.7628], [92.33929, 26.76134], [92.34047, 26.761], [92.34059, 26.76058], [92.34059, 26.76005], [92.34114, 26.7594], [92.34172, 26.75882], [92.34265, 26.75812], [92.3431, 26.7574], [92.34044, 26.75697], [92.33827, 26.75623], [92.33717, 26.75548], [92.33647, 26.75628], [92.33585, 26.75698], [92.33543, 26.75749], [92.33471, 26.75837], [92.33385780900005, 26.759256874000073], [92.33299, 26.76016], [92.33221, 26.75851], [92.33087, 26.75569], [92.33043, 26.75392], [92.33041, 26.75383], [92.33103, 26.75125], [92.33129, 26.75016], [92.33187, 26.74775], [92.33189, 26.74765], [92.33242, 26.74544], [92.33244, 26.74535], [92.33198, 26.74462], [92.3319, 26.7445], [92.3317, 26.74419], [92.33069, 26.74258], [92.3297, 26.74103], [92.33047, 26.73857], [92.33116, 26.73791], [92.33257, 26.73655], [92.33276, 26.73637], [92.33411, 26.73574], [92.33466, 26.73548], [92.33504, 26.73593], [92.33515, 26.73593], [92.33646, 26.73595], [92.33757, 26.73598], [92.33928, 26.7357], [92.33975, 26.73562], [92.34232, 26.73519], [92.34738, 26.73393], [92.34883, 26.73357], [92.35133, 26.73286], [92.35575, 26.73182], [92.35577, 26.73182], [92.35669, 26.7298], [92.35779, 26.72881], [92.35829, 26.72755], [92.35808, 26.72691], [92.35761, 26.72685], [92.35629, 26.72721], [92.35598, 26.72725], [92.35451, 26.72743], [92.3547, 26.72718], [92.35473, 26.72697], [92.35354, 26.72742], [92.35181, 26.72833], [92.35041, 26.72682], [92.34772, 26.72419], [92.34628, 26.72398], [92.34615, 26.72404], [92.34363, 26.72521], [92.34257, 26.72571], [92.33872, 26.72736], [92.33786854100003, 26.72707618100003], [92.33695, 26.72677], [92.33691, 26.72461], [92.33696, 26.72448], [92.33705, 26.72428], [92.33751, 26.72322], [92.33833, 26.72132], [92.33837, 26.72115], [92.33858, 26.72009], [92.33866, 26.71967], [92.3391, 26.71744], [92.33927, 26.71658], [92.33932, 26.71632], [92.33939, 26.71598], [92.3394, 26.71592], [92.33973, 26.71423], [92.33979, 26.71393], [92.3399, 26.71329], [92.33975, 26.71286], [92.33957, 26.71233], [92.33953, 26.71223], [92.33928, 26.71148], [92.33911, 26.711], [92.33906, 26.71086], [92.33846, 26.7091], [92.33819, 26.70831], [92.33813, 26.70813], [92.33744, 26.70612], [92.33791, 26.70365], [92.33805, 26.7029], [92.33815, 26.70242], [92.33827, 26.70179], [92.33838, 26.70119], [92.33841, 26.70101], [92.3384, 26.7008], [92.33838, 26.70058], [92.33828, 26.69918], [92.33826, 26.69896], [92.33823, 26.69854], [92.33818, 26.69796], [92.33762, 26.69591], [92.33743, 26.69524], [92.33733, 26.69488], [92.33732, 26.69484], [92.3373, 26.69477], [92.33729, 26.69471], [92.33727, 26.69466], [92.33726, 26.69461], [92.33714, 26.69419], [92.3371, 26.69404], [92.33698, 26.69359], [92.33654, 26.69201], [92.33651, 26.6919], [92.33613, 26.69049], [92.33605, 26.69021], [92.33564, 26.68873], [92.33585, 26.68645], [92.33593, 26.68557], [92.33593, 26.68554], [92.33701, 26.67408], [92.3356, 26.67198], [92.33545, 26.67176], [92.33401, 26.66963], [92.33442, 26.66912], [92.33533, 26.66798], [92.33732, 26.6655], [92.33807313200003, 26.664770520000047], [92.34337, 26.65964], [92.34814, 26.65815], [92.35242, 26.65681], [92.35579, 26.65849], [92.35921, 26.6602], [92.3604, 26.66532], [92.36041, 26.66537], [92.36442, 26.68259], [92.36487, 26.68454], [92.36618, 26.68845], [92.36829, 26.69479], [92.36852, 26.69547], [92.36921, 26.69754], [92.36997, 26.69982], [92.37676, 26.69925], [92.37833, 26.69768], [92.37929, 26.69672], [92.38185, 26.69416], [92.38188, 26.69366], [92.38202, 26.69098], [92.38221, 26.68732], [92.38229, 26.6859], [92.38242, 26.68341], [92.38326, 26.67918], [92.38414, 26.67481], [92.38464, 26.67231], [92.38468, 26.67209], [92.38502, 26.66985], [92.38531, 26.66798], [92.38534, 26.66776], [92.38679, 26.65836], [92.38694, 26.65737], [92.38808, 26.65481], [92.38834, 26.65423], [92.38921, 26.65228], [92.3926, 26.65172], [92.396, 26.65115], [92.40186, 26.65082], [92.40619, 26.65058], [92.40752, 26.65051], [92.41694, 26.65002], [92.4173, 26.64871], [92.41735, 26.64851], [92.41864, 26.64379], [92.41586, 26.63972], [92.41566, 26.63942], [92.41235, 26.63456], [92.41044, 26.63176], [92.41015, 26.63134], [92.40842, 26.6298], [92.40685, 26.62841], [92.40505, 26.62681], [92.4011, 26.62314], [92.39713, 26.61946], [92.39674, 26.61942], [92.39147, 26.61889], [92.39069, 26.6172], [92.39052, 26.61683], [92.38901, 26.61355], [92.38827, 26.61195], [92.38808, 26.61153], [92.38703, 26.60932], [92.38603, 26.60721], [92.38568, 26.60647], [92.38459, 26.60418], [92.38408, 26.6031], [92.3836, 26.60208], [92.38298, 26.60078], [92.38284, 26.60056], [92.38254, 26.60008], [92.38051, 26.59683], [92.37932, 26.59492], [92.37886, 26.59418], [92.37883, 26.59413], [92.37797, 26.59275], [92.37741, 26.59186], [92.37732, 26.59172], [92.37688, 26.59108], [92.37532, 26.58883], [92.37271, 26.58506], [92.37223, 26.58437], [92.3677, 26.5838], [92.36535269400008, 26.583157880000044], [92.36441, 26.5829], [92.36443, 26.58287], [92.36573, 26.58077], [92.36357, 26.58088], [92.36348, 26.58078], [92.36251, 26.57976], [92.36194, 26.57916], [92.36146, 26.57865], [92.36085, 26.57801], [92.35777, 26.57684], [92.3577, 26.57671], [92.35659, 26.57473], [92.3565, 26.57456], [92.35695, 26.57192], [92.35865, 26.57023], [92.36174, 26.56898], [92.36671, 26.56834], [92.3671, 26.56829], [92.36712570600008, 26.568258581000066], [92.36728, 26.56807], [92.36855, 26.56649], [92.36851, 26.56366], [92.36775, 26.56273], [92.36721, 26.56207], [92.36679, 26.56155], [92.3677, 26.55794], [92.36796, 26.55762], [92.36917, 26.55612], [92.36999, 26.55511], [92.37022, 26.55482], [92.37045, 26.55454], [92.37127, 26.55352], [92.37729, 26.54361], [92.37731273500003, 26.543625814000052], [92.38455, 26.54866], [92.38751, 26.54754], [92.38934, 26.54518], [92.38923, 26.54428], [92.38763, 26.54203], [92.38826, 26.54105], [92.39127, 26.54007], [92.40569, 26.53685], [92.41127, 26.53585], [92.42622, 26.53169], [92.43312, 26.53017], [92.44172, 26.52828], [92.44378, 26.52536], [92.44711, 26.52064], [92.45046, 26.52026], [92.45298, 26.52051], [92.45938, 26.51891], [92.46269, 26.51818], [92.46777, 26.51711], [92.46858, 26.51537], [92.46786, 26.51405], [92.46654, 26.51266], [92.46254, 26.51315], [92.46051, 26.51293], [92.45627, 26.51303], [92.45549372800008, 26.51318062100006], [92.45426, 26.51342], [92.45459, 26.51101], [92.45487, 26.50894], [92.45506, 26.50755], [92.45875, 26.50273], [92.4606, 26.50107], [92.46214, 26.49969], [92.46588, 26.49771], [92.46608, 26.49766], [92.4725, 26.49601], [92.47414, 26.49559], [92.479, 26.49645], [92.48084, 26.49677], [92.48767, 26.50056], [92.488, 26.50068], [92.49092, 26.50175], [92.49365, 26.50276], [92.49482, 26.50304], [92.4952, 26.50313], [92.50355, 26.5052], [92.5042, 26.50536], [92.5069, 26.50603], [92.50919, 26.50659], [92.51108, 26.50706], [92.5169, 26.50787], [92.52506, 26.50901], [92.52773, 26.50938], [92.53476, 26.50912], [92.5355, 26.50909], [92.53896, 26.50814], [92.54053, 26.50771], [92.54243, 26.50719], [92.54251, 26.50717], [92.546, 26.50621], [92.54698, 26.50612], [92.55357, 26.5055], [92.55581, 26.50529], [92.55747, 26.50513], [92.56567, 26.503], [92.56806, 26.50144], [92.57583, 26.50061], [92.57777, 26.50041], [92.57965, 26.50021], [92.57973, 26.5002], [92.58130909200008, 26.500731106000046], [92.58306, 26.50132], [92.58454, 26.50182], [92.59137, 26.50412], [92.59388, 26.50496], [92.5958, 26.50561], [92.59813, 26.50639], [92.59816, 26.5064], [92.60194, 26.50767], [92.60499, 26.50869], [92.60561, 26.50882], [92.60739, 26.50918], [92.61293, 26.51032], [92.61424, 26.51059], [92.61659, 26.51107], [92.61781, 26.51132], [92.6191, 26.51159], [92.61933, 26.51166], [92.6198, 26.5118], [92.62411, 26.51313], [92.62785, 26.51429], [92.62838, 26.51445], [92.63168, 26.51547], [92.63449, 26.51634], [92.6356, 26.51655], [92.63687, 26.5168], [92.63778, 26.51697], [92.63791, 26.517], [92.63901, 26.51721], [92.64056, 26.5175], [92.64119251500006, 26.517523307000033], [92.64431309604751, 26.51763829705893], [92.64843, 26.51779], [92.64875, 26.5178], [92.65016, 26.51785], [92.65137, 26.5179], [92.65173, 26.51791], [92.65339, 26.51797], [92.6536, 26.51798], [92.6545, 26.51802], [92.65487, 26.51803], [92.65549, 26.51805], [92.65562, 26.51805], [92.65573, 26.51808], [92.66065, 26.51932], [92.6649, 26.52038], [92.66639, 26.52], [92.66925, 26.51927], [92.67356, 26.51693], [92.67503, 26.51576], [92.67508, 26.51572], [92.67654, 26.51455], [92.67873, 26.5128], [92.68297, 26.50941], [92.68649, 26.50879], [92.69038, 26.51083], [92.70418, 26.52586], [92.71099, 26.53079], [92.71594, 26.53348], [92.72575, 26.53535], [92.72635731600008, 26.535027858000035], [92.7269, 26.53474], [92.72768, 26.53222], [92.72791, 26.52272], [92.72884, 26.52095], [92.73382, 26.5179], [92.73485, 26.51727], [92.74101, 26.51481], [92.74818, 26.51259], [92.75146, 26.51223], [92.75437, 26.51191], [92.75674, 26.51357], [92.75708, 26.51471], [92.75837, 26.51906], [92.75844, 26.51931], [92.75839, 26.52308], [92.75838, 26.5237], [92.75836, 26.52513], [92.75967, 26.52737], [92.76074, 26.5292], [92.7611, 26.52951], [92.76398, 26.53204], [92.76431, 26.5331], [92.76466, 26.53421], [92.76476, 26.53451], [92.76485, 26.53479], [92.76616, 26.53894], [92.76644, 26.54063], [92.76716, 26.54507], [92.76819, 26.54594], [92.77032, 26.54755], [92.77156, 26.54903], [92.77274, 26.54856], [92.77305, 26.54923], [92.77414, 26.54842], [92.77525, 26.54837], [92.7737, 26.54547], [92.77066, 26.5432], [92.77019, 26.54257], [92.77627, 26.54281], [92.77677, 26.54283], [92.78167, 26.5428], [92.78386, 26.54279], [92.78739, 26.54264], [92.78815, 26.54261], [92.79148, 26.54284], [92.79334, 26.54287], [92.79431, 26.54263], [92.79541, 26.54236], [92.79973, 26.54631], [92.80471, 26.5491], [92.80483, 26.54917], [92.8065, 26.55015], [92.80983, 26.5521], [92.81162, 26.55315], [92.81377, 26.55421], [92.81503, 26.55441], [92.81536, 26.55379], [92.81538, 26.5528], [92.81584, 26.55283], [92.8166, 26.55289], [92.81924, 26.55309], [92.82106, 26.55369], [92.82172, 26.55354], [92.82189, 26.55276], [92.82196, 26.55246], [92.82182, 26.54941], [92.82178, 26.54845], [92.82195, 26.54631], [92.82196, 26.54623], [92.82204, 26.54521], [92.82224, 26.54267], [92.825, 26.54367], [92.82585, 26.54427], [92.82664, 26.54482], [92.82888, 26.5464], [92.82933, 26.54671], [92.83176, 26.54842], [92.83218, 26.54871], [92.83224, 26.54875], [92.83387, 26.55116], [92.83582, 26.55405], [92.83637, 26.55487], [92.8377, 26.557], [92.8384, 26.55811], [92.8399, 26.5605], [92.8405, 26.56146], [92.84093, 26.56196], [92.84059, 26.56187], [92.83997, 26.56167], [92.83865, 26.56123], [92.83773, 26.56093], [92.8365, 26.56052], [92.83296, 26.55913], [92.83123, 26.55845], [92.82757, 26.557], [92.82607, 26.55641], [92.825, 26.55626], [92.82494, 26.55685], [92.82502, 26.55741], [92.82553, 26.55847], [92.82575, 26.55885], [92.82746, 26.56176], [92.82902, 26.56278], [92.82906, 26.56281], [92.8301, 26.56418], [92.83076, 26.56534], [92.83142, 26.56649], [92.83371, 26.56932], [92.83414, 26.56973], [92.83723, 26.57272], [92.84098, 26.57463], [92.84346, 26.57651], [92.84698, 26.57902], [92.84762, 26.57948], [92.85106, 26.58201], [92.85206, 26.58388], [92.85784, 26.58489], [92.85914, 26.58447], [92.85967, 26.5843], [92.86147, 26.58373], [92.86296, 26.58326], [92.86355, 26.58319], [92.864, 26.58313], [92.86405296500004, 26.58312337900003], [92.8644, 26.58308], [92.86992, 26.58242], [92.871, 26.58275], [92.87295, 26.58334], [92.87636, 26.58585], [92.87639, 26.58587], [92.87822, 26.58721], [92.87868, 26.58756], [92.87883, 26.58766], [92.88438, 26.59063], [92.88518, 26.59106], [92.88963, 26.59343], [92.88969, 26.59347], [92.89243, 26.59452], [92.89418, 26.59519], [92.89501, 26.5955], [92.89677, 26.59534], [92.90478, 26.59461], [92.90676, 26.59439], [92.90706, 26.59436], [92.91277, 26.59337], [92.91813, 26.59609], [92.92128441200003, 26.59751880300007], [92.9227, 26.59816], [92.92285, 26.59823], [92.92304, 26.59831], [92.9248, 26.60034], [92.9262, 26.60195], [92.92657, 26.60235], [92.9271, 26.60296], [92.92904, 26.60519], [92.92924, 26.60542], [92.92973, 26.60681], [92.92967, 26.60693], [92.9294, 26.60749], [92.92927, 26.60777], [92.92871, 26.60892], [92.92721, 26.61205], [92.92719, 26.61477], [92.92776, 26.61589], [92.92811, 26.61657], [92.93025, 26.61676], [92.93123, 26.61685], [92.93211, 26.61692], [92.93333, 26.61465], [92.93375, 26.6141], [92.93465, 26.61295], [92.93519, 26.61225], [92.93592, 26.61284], [92.93943, 26.61567], [92.94302, 26.61729], [92.9499, 26.61827], [92.95235, 26.61862], [92.95496, 26.6186], [92.9625, 26.61853], [92.96443, 26.61851], [92.96959, 26.61759], [92.98284, 26.61522], [92.98933, 26.61318], [92.9899, 26.61254], [92.99164, 26.6106], [92.99272, 26.60924], [92.99372, 26.60825], [92.99469, 26.6073], [92.99502, 26.60697], [92.99864, 26.6034], [93.00777, 26.59843], [93.01971, 26.59665], [93.02832, 26.59566], [93.03655, 26.59472], [93.04033, 26.59429], [93.04706, 26.5946], [93.05576, 26.595], [93.05592, 26.59501], [93.0655, 26.59425], [93.0667, 26.59416], [93.06756, 26.59423], [93.06765, 26.59424], [93.07307, 26.59474], [93.07813, 26.59231], [93.08431, 26.58935], [93.08783, 26.58692], [93.09455, 26.58228], [93.09926, 26.57968], [93.10309, 26.57756], [93.10607, 26.57591], [93.11096, 26.57516], [93.11417, 26.57466], [93.11426, 26.57469], [93.12312, 26.57758], [93.12453, 26.57846], [93.13065, 26.58229], [93.1341, 26.58445], [93.14559, 26.5907], [93.15644, 26.59661], [93.15923, 26.59813], [93.16077, 26.59897], [93.16076609000004, 26.598990266000044], [93.15998996900004, 26.600124013000027], [93.15613630200005, 26.60589465700008], [93.15568951900008, 26.606561122000073], [93.15828879800006, 26.606820886000037], [93.15827823400008, 26.60707018900007], [93.15799793500008, 26.613685342000053], [93.15665905200007, 26.617813950000027], [93.15411722000005, 26.628551361000063], [93.15246917400003, 26.634172154000055], [93.15092921900003, 26.642589955000062], [93.14942202800006, 26.645879854000043], [93.14782991400006, 26.649354896000034], [93.14310704000007, 26.65564992000003], [93.14000302300008, 26.659320858000058], [93.13999156700004, 26.65933440400005], [93.13893826300006, 26.66058001500005], [93.13851362200006, 26.66123383200005], [93.13491849300004, 26.66676886700003], [93.13179683400006, 26.669666991000042], [93.12501615200006, 26.67269419300004], [93.12065704700007, 26.675194727000076], [93.12012517700003, 26.67547406500006], [93.11571464900004, 26.677790344000073], [93.11389938800005, 26.677971539000055], [93.11129938800008, 26.678231063000055], [93.10867152900005, 26.680057301000033], [93.10834005000004, 26.68028766300006], [93.10768167400005, 26.68158940400008], [93.10660564400007, 26.68371693100005], [93.10517805000006, 26.692233286000032], [93.10435033800007, 26.69665229800006], [93.10411984400008, 26.697882796000044], [93.10406016900004, 26.698201375000053], [93.10263527700005, 26.70061783500006], [93.10217803100005, 26.701393248000045], [93.10119151600009, 26.705095554000025], [93.10106290300007, 26.705578227000046], [93.09915477400006, 26.70787923200004], [93.09807375100007, 26.708886834000054], [93.09537046900004, 26.71140646400005], [93.09474884900004, 26.711942032000024], [93.09408391100004, 26.71251490700007], [93.09318348100004, 26.71329066800007], [93.09137053000006, 26.715938495000046], [93.08943802800007, 26.72135527000006], [93.08835092100009, 26.72657267200003], [93.08800415200005, 26.728236932000073], [93.08675525500007, 26.731986083000038], [93.08673813500008, 26.732042383000078], [93.08572986700005, 26.735358012000063], [93.08471546600003, 26.73869381000003], [93.08412814200005, 26.74062519100005], [93.08373598500003, 26.741914655000073], [93.08360998800003, 26.74504552700006], [93.08348292400007, 26.74820268800005], [93.08459835300005, 26.75369758200003], [93.08568739200007, 26.755404915000042], [93.08683295200007, 26.757200831000034], [93.08672337100006, 26.758626106000065], [93.08627027400007, 26.764519152000048], [93.08556651600009, 26.768125646000044], [93.08498969400006, 26.771081554000034], [93.08432516100004, 26.77436383400004], [93.08410173900006, 26.77546736900007], [93.08347488000004, 26.77856335000007], [93.08203670400007, 26.785665661000053], [93.08171972000008, 26.786755027000027], [93.08101311200005, 26.789183399000024], [93.08028177200003, 26.791696622000075], [93.08025814900003, 26.799198982000064], [93.08026521000005, 26.800023907000025], [93.08027768900007, 26.801481886000033], [93.08030840200007, 26.805070370000067], [93.08031464600003, 26.805799988000047], [93.07917632800007, 26.811436074000028], [93.07867286000004, 26.813928673000078], [93.07507206100007, 26.819278306000058], [93.07466183100007, 26.81964300900006], [93.07157494600006, 26.822387309000078], [93.07022374800005, 26.82358848100006], [93.06799920000003, 26.82611945800005], [93.06402241500007, 26.82924225000005], [93.06262653400006, 26.831690434000052], [93.06251362000006, 26.83188846200005], [93.06200830000006, 26.832774692000044], [93.06130153400005, 26.838463447000038], [93.06125002400006, 26.840163645000075], [93.06514845000004, 26.842415989000074], [93.06743101700005, 26.845762233000073], [93.06797834900004, 26.846564588000035], [93.07171848300004, 26.85059894500006], [93.07240365700005, 26.85111647800005], [93.07499755700007, 26.853075661000048], [93.07802806000007, 26.858871661000023], [93.07842621000003, 26.860317464000047], [93.07917432200009, 26.863033984000026], [93.07885941700005, 26.86488439900006], [93.07773612000005, 26.869171533000042], [93.07597143500004, 26.874965683000028], [93.07345108800007, 26.880225694000046], [93.07225303200005, 26.883660192000036], [93.07067627500004, 26.89234796200003], [93.06692295400006, 26.90084184400007], [93.06564005600006, 26.90578475700005], [93.06449082200004, 26.90922679700003], [93.06327223500006, 26.912245471000062], [93.06319613300008, 26.91301022300007], [93.06317021200005, 26.91300906200007], [93.06253900400009, 26.918804699000077], [93.06252695900008, 26.918915294000044], [93.06244603200008, 26.919658355000024], [93.06243852300008, 26.919727306000027], [93.0571, 26.91882], [93.05341, 26.9182], [93.04637, 26.91702], [93.03933, 26.91583], [93.02605, 26.9151], [93.02147846900004, 26.91485154800006], [93.02053, 26.9148], [93.00572, 26.92396], [93.00311, 26.92558], [92.99935, 26.92792], [92.99918, 26.92802], [92.99893773900004, 26.92816976200004], [92.99863, 26.92836], [92.99754705300006, 26.92871142000007], [92.99712, 26.92885], [92.99561, 26.92934], [92.99523, 26.92962], [92.99497, 26.92981], [92.99355, 26.93022], [92.98809, 26.9318], [92.98791, 26.93185], [92.98616, 26.93278], [92.98563, 26.93307], [92.98523, 26.93329], [92.98449638700004, 26.933684416000062], [92.9843, 26.93379], [92.98417, 26.93386], [92.98396, 26.93397], [92.98278064300007, 26.933784091000064], [92.98193, 26.93365], [92.97971, 26.93515], [92.97936, 26.9354], [92.97824, 26.93615], [92.97422, 26.93887], [92.96639, 26.94238], [92.96288, 26.94395], [92.95266, 26.94699], [92.9341, 26.95504], [92.9298, 26.95758], [92.92776, 26.95878], [92.92667082100007, 26.959231827000053], [92.92236319400007, 26.96101876800003], [92.91913, 26.96236], [92.91631, 26.9679], [92.91784, 26.98081], [92.91807, 26.98279], [92.91734, 26.9833], [92.91578, 26.98437], [92.91501, 26.9849], [92.9012, 26.99444], [92.89143810100006, 26.998074643000052], [92.89137, 26.9981], [92.88838759600009, 26.999212701000033], [92.88483, 27.00054], [92.88446, 27.00072], [92.88258, 27.00165], [92.87392, 27.00592], [92.86487, 27.00741], [92.86198, 27.00789], [92.86111, 27.00803], [92.86021, 27.00818], [92.8403, 27.01146], [92.83814, 27.01181], [92.83744, 27.0121], [92.82598, 27.01675], [92.8078, 27.02246], [92.80652, 27.02286], [92.80157, 27.02441], [92.79553, 27.02631], [92.7869, 27.02901], [92.77322, 27.03102], [92.77190339100008, 27.031211120000023], [92.77074, 27.03138], [92.76562, 27.03081], [92.74662, 27.02871], [92.73828, 27.02779], [92.73664, 27.02761], [92.72919, 27.02679], [92.72833, 27.02665], [92.71538291400003, 27.024502143000063], [92.71537, 27.0245], [92.71145685000005, 27.025022273000047], [92.71035, 27.02517], [92.70996769500005, 27.02521955800006], [92.70927, 27.02531], [92.70402, 27.026], [92.69233, 27.02846], [92.68926, 27.0291], [92.68413, 27.03018], [92.66667, 27.03526], [92.66352, 27.03618], [92.66170135500005, 27.03670423600005], [92.66071, 27.03699], [92.6588, 27.03606], [92.65775, 27.03399], [92.65227, 27.02325], [92.64275, 27.01804], [92.64187, 27.01756], [92.64087, 27.01701], [92.64111, 27.01664], [92.6412, 27.0165], [92.64175, 27.01565], [92.64287, 27.01392], [92.64362, 27.01276], [92.64435, 27.0116], [92.64551, 27.00985], [92.64615, 27.00886], [92.64626, 27.00869], [92.64638, 27.00851], [92.64636, 27.00816], [92.64627, 27.00665], [92.64622, 27.0058], [92.64598, 27.00178], [92.64593, 27.00097], [92.64612, 26.99982], [92.64616, 26.99955], [92.64633, 26.99852], [92.64703, 26.99421], [92.64705, 26.99406], [92.64718, 26.9859], [92.62837, 26.97792], [92.62778, 26.97767], [92.62073, 26.97468], [92.59987, 26.96583], [92.59793, 26.96501], [92.59772, 26.96492], [92.59721, 26.9647], [92.59387, 26.96376], [92.5933, 26.96352], [92.59147, 26.96274], [92.58687, 26.96079], [92.58422, 26.96055], [92.58392, 26.96053], [92.581, 26.95984], [92.57757, 26.95954], [92.57482, 26.9593], [92.57367, 26.9592], [92.56917, 26.95881], [92.56814, 26.95872], [92.56268, 26.95824], [92.55539, 26.95761], [92.54354, 26.95992], [92.54214, 26.96019], [92.53358, 26.96186], [92.51728, 26.96299], [92.51264, 26.96405], [92.50687, 26.96536], [92.49251, 26.96333], [92.48761, 26.96334], [92.48561, 26.96335], [92.46817, 26.96169], [92.46147, 26.96194], [92.45824, 26.9613], [92.45054, 26.95977], [92.44807, 26.95928], [92.44408, 26.95366], [92.4298, 26.94362], [92.42864, 26.9428], [92.42851, 26.94271], [92.42768, 26.94212], [92.42735, 26.94214], [92.42701, 26.94216], [92.421, 26.94247], [92.41717, 26.94267], [92.41633, 26.94271], [92.41381, 26.94285], [92.40166, 26.92495], [92.39539, 26.92598], [92.39353, 26.92628], [92.39327, 26.92632], [92.38545, 26.9276], [92.36924, 26.93025], [92.36639, 26.93141]]]}}]}