{"type": "FeatureCollection", "features": [{"type": "Feature", "properties": {"Name": "South Salmara-Mankachar"}, "geometry": {"type": "Polygon", "coordinates": [[[90.17858480295993, 26.0745751289749], [90.17518620300007, 26.07244464000007], [90.17452412400007, 26.071451524000054], [90.15633699000006, 26.06951672200006], [90.14627602100006, 26.063325357000053], [90.13814985400006, 26.060229674000027], [90.13389329100005, 26.062164476000078], [90.12847584600007, 26.061003595000045], [90.11930631200005, 26.061837189000073], [90.08396716300007, 26.047285774000045], [90.02266569400007, 26.009337247000076], [89.97887893100005, 25.97138871800007], [89.88571609600007, 25.90256138700005], [89.87855702700006, 25.89867719600005], [89.86662006400007, 25.893943857000068], [89.86319, 25.8925], [89.86268, 25.89183], [89.86209, 25.89129], [89.86168, 25.89053], [89.86086, 25.88873], [89.86071232900008, 25.88821986100004], [89.86061685300007, 25.887955301000034], [89.86052194700005, 25.88757567600004], [89.86038137900005, 25.88730280900006], [89.86032989300008, 25.887160142000027], [89.86026, 25.88701], [89.86022, 25.88692], [89.85852, 25.88533], [89.85737, 25.88412], [89.85527, 25.88285], [89.85414, 25.88157], [89.85202, 25.88034], [89.84893, 25.87894], [89.84554, 25.8763], [89.84376, 25.87458], [89.84009, 25.87226], [89.83837, 25.86838], [89.83855111800005, 25.86568809700003], [89.84085951300005, 25.862864436000052], [89.84072492900003, 25.862780068000063], [89.84095990100008, 25.862708272000077], [89.84038145300008, 25.858764310000026], [89.83749597700006, 25.85551242500003], [89.83742045700006, 25.85531850800004], [89.83731, 25.85519], [89.83494, 25.85209], [89.83214, 25.84685], [89.83214, 25.84201], [89.83129, 25.83619], [89.83049, 25.83518], [89.82764, 25.83163], [89.82741, 25.83134], [89.82577, 25.82906], [89.82505, 25.82805], [89.82225, 25.82204], [89.82311, 25.81609], [89.82334, 25.81448], [89.82571, 25.80963], [89.82808, 25.80712], [89.82836, 25.80658], [89.8287, 25.80604], [89.83161, 25.80152], [89.8327, 25.79909], [89.83539, 25.79313], [89.83573, 25.79233], [89.8372, 25.78887], [89.83925, 25.78407], [89.83934, 25.78345], [89.84002, 25.77883], [89.84038, 25.7764], [89.84023, 25.76695], [89.83889, 25.76134], [89.83796, 25.75791], [89.8373, 25.75551], [89.83393, 25.74723], [89.83282, 25.74026], [89.83398, 25.7344], [89.83585, 25.72903], [89.83954, 25.72649], [89.84606, 25.7219], [89.85066, 25.71667], [89.85163, 25.71496], [89.85171, 25.71471], [89.85178, 25.7146], [89.85216, 25.714], [89.85206, 25.71393], [89.85189, 25.71373], [89.8518, 25.71354], [89.85195, 25.71347], [89.85199, 25.71327], [89.85237, 25.71229], [89.85289, 25.71051], [89.85316, 25.70933], [89.85328, 25.70867], [89.85334, 25.70793], [89.85332, 25.70676], [89.85327, 25.70647], [89.85291, 25.70577], [89.8528, 25.70542], [89.85263, 25.70464], [89.85247, 25.7041], [89.85198, 25.70305], [89.85149, 25.70221], [89.85136, 25.70205], [89.85062, 25.70145], [89.85059, 25.70137], [89.85057, 25.7008], [89.85043, 25.70005], [89.85008, 25.69862], [89.84989, 25.69811], [89.84971, 25.69775], [89.84929, 25.6971], [89.8483, 25.69591], [89.84821, 25.6957], [89.84825, 25.69548], [89.84848, 25.6949], [89.84871, 25.69443], [89.85126, 25.6905], [89.85146, 25.69013], [89.8517, 25.68965], [89.85188, 25.6893], [89.85211, 25.68879], [89.85232, 25.68844], [89.8538, 25.68637], [89.85445, 25.68556], [89.85618, 25.68379], [89.85695, 25.68291], [89.85771, 25.68225], [89.85902, 25.68124], [89.85935, 25.6808], [89.85978, 25.68012], [89.86012, 25.67919], [89.86051, 25.67786], [89.86065, 25.67731], [89.86101, 25.67533], [89.86167, 25.67258], [89.86193, 25.67176], [89.86214, 25.67119], [89.86321, 25.66885], [89.86393, 25.66738], [89.86468, 25.66623], [89.86505, 25.66576], [89.8659, 25.66491], [89.86635, 25.66453], [89.86649, 25.66448], [89.86672, 25.66446], [89.86687, 25.66448], [89.86737, 25.66471], [89.8676, 25.66477], [89.86814, 25.66483], [89.86912, 25.66451], [89.86935, 25.66448], [89.86964, 25.66453], [89.86996, 25.66466], [89.87014, 25.6647], [89.87044, 25.66468], [89.87058, 25.66463], [89.87196, 25.6636], [89.87216, 25.66334], [89.8723, 25.66308], [89.87242, 25.6627], [89.8727, 25.66107], [89.87301, 25.65995], [89.87323, 25.65931], [89.87352, 25.65861], [89.87374, 25.65817], [89.87415, 25.65748], [89.87492, 25.65568], [89.87564, 25.65298], [89.87619, 25.65214], [89.87651, 25.65166], [89.87658, 25.65156], [89.87657, 25.65135], [89.87634, 25.65084], [89.87636, 25.65025], [89.87688, 25.64836], [89.87696, 25.64821], [89.87713, 25.648], [89.87763, 25.64744], [89.87769, 25.64731], [89.87774, 25.64698], [89.87774, 25.64654], [89.87768, 25.6455], [89.87774, 25.64517], [89.87789, 25.64472], [89.87837, 25.64294], [89.8787, 25.64225], [89.87899, 25.6412], [89.87931, 25.64081], [89.87977, 25.64058], [89.88005, 25.64039], [89.88019, 25.64019], [89.88038, 25.63977], [89.88059, 25.63925], [89.88085, 25.63809], [89.88085, 25.63792], [89.88119, 25.63709], [89.88154, 25.63586], [89.88227, 25.63238], [89.88274, 25.62896], [89.88291, 25.62732], [89.88306, 25.62688], [89.88321, 25.62658], [89.88322, 25.62647], [89.88308, 25.62609], [89.88316, 25.62506], [89.88309, 25.62319], [89.88309, 25.62144], [89.88305, 25.62022], [89.88307, 25.61981], [89.8831, 25.61957], [89.88378, 25.61754], [89.88382, 25.61722], [89.88256, 25.61464], [89.88235, 25.61391], [89.88208, 25.61254], [89.882, 25.61164], [89.88194, 25.61109], [89.8819, 25.61069], [89.88183, 25.60857], [89.88171, 25.60788], [89.88109, 25.60554], [89.88108, 25.60538], [89.8811, 25.6053], [89.88112, 25.60523], [89.88123, 25.60494], [89.88137, 25.60466], [89.88154, 25.60433], [89.88157, 25.60425], [89.88155, 25.60418], [89.88141, 25.60406], [89.88092, 25.60379], [89.88075, 25.60365], [89.88061, 25.60345], [89.88048, 25.6031], [89.88, 25.60145], [89.87912, 25.59931], [89.87806, 25.59707], [89.87748, 25.59592], [89.87726, 25.5954], [89.87709, 25.59481], [89.87614, 25.5934], [89.87561, 25.59164], [89.87536, 25.59057], [89.87468, 25.58814], [89.87471, 25.58769], [89.87491, 25.58739], [89.87535, 25.58703], [89.87581, 25.58658], [89.87622, 25.58631], [89.87676, 25.58607], [89.8773, 25.58571], [89.87739, 25.58563], [89.87751, 25.58541], [89.87755, 25.58529], [89.87755, 25.58513], [89.87752, 25.58489], [89.8775, 25.58483], [89.87746, 25.58472], [89.87717, 25.58453], [89.87685, 25.58433], [89.87678, 25.58425], [89.87674, 25.58415], [89.87678, 25.58378], [89.87689, 25.58331], [89.87692, 25.58294], [89.87692, 25.58159], [89.87681, 25.58082], [89.87654, 25.57982], [89.87629, 25.57905], [89.87483, 25.57567], [89.87451, 25.57453], [89.87438, 25.57406], [89.87427, 25.57366], [89.87413, 25.57336], [89.87406, 25.57311], [89.87405, 25.57299], [89.87408, 25.57286], [89.87448, 25.57184], [89.87455, 25.5716], [89.87452, 25.57065], [89.87448, 25.57023], [89.8744, 25.5699], [89.87419, 25.56935], [89.87395, 25.56888], [89.87382, 25.56866], [89.87362, 25.56845], [89.87247, 25.56785], [89.87142, 25.56734], [89.87116, 25.56714], [89.87034, 25.56593], [89.86982, 25.56501], [89.86856, 25.56205], [89.8684, 25.56137], [89.8683, 25.56069], [89.86824, 25.55999], [89.86806, 25.55855], [89.86784, 25.55732], [89.86766, 25.55549], [89.86751, 25.55446], [89.86751, 25.55398], [89.86761, 25.553], [89.86667, 25.55027], [89.86656, 25.54987], [89.86651, 25.54958], [89.86647, 25.54893], [89.86648, 25.54769], [89.86617, 25.54677], [89.86057, 25.54341], [89.8575, 25.54166], [89.8557, 25.53921], [89.85532, 25.53899], [89.85481, 25.53891], [89.85371, 25.53849], [89.85349, 25.53837], [89.8533, 25.53823], [89.85318, 25.53808], [89.85317, 25.53792], [89.85322, 25.53767], [89.85334, 25.5374], [89.85358, 25.53697], [89.85545, 25.53294], [89.85649, 25.53061], [89.85658, 25.53035], [89.85684, 25.52961], [89.85756, 25.52766], [89.85892, 25.52369], [89.85944, 25.52253], [89.8607, 25.51989], [89.86114, 25.51886], [89.8618, 25.51715], [89.86187, 25.51694], [89.86197, 25.5165], [89.86209, 25.51618], [89.86219, 25.51603], [89.86296, 25.51537], [89.86401, 25.51463], [89.86467, 25.51424], [89.86523, 25.51401], [89.86539, 25.51396], [89.86555, 25.51399], [89.86648, 25.51364], [89.86725, 25.51334], [89.86743, 25.51316], [89.86794, 25.51304], [89.86807, 25.51291], [89.86867, 25.51269], [89.86918, 25.51214], [89.86948, 25.51179], [89.86953, 25.51167], [89.86955, 25.51124], [89.86952, 25.511], [89.86936, 25.51095], [89.86936, 25.51074], [89.86919, 25.51015], [89.86872, 25.50926], [89.86815, 25.50864], [89.8669, 25.50809], [89.86661, 25.50798], [89.86573, 25.50781], [89.86496, 25.50773], [89.86418, 25.50768], [89.86283, 25.50748], [89.86147, 25.5071], [89.86119, 25.507], [89.86072, 25.50662], [89.86053, 25.50643], [89.86021, 25.5061], [89.85965, 25.50578], [89.85885, 25.50543], [89.85877, 25.50536], [89.8579, 25.50418], [89.85732, 25.50353], [89.85691, 25.50305], [89.85619, 25.50255], [89.85541, 25.50231], [89.85523, 25.5022], [89.85515, 25.50187], [89.85514, 25.50152], [89.85614, 25.49912], [89.8565, 25.49789], [89.85654, 25.49759], [89.85651, 25.49732], [89.85637, 25.49705], [89.85533, 25.4956], [89.85472, 25.49483], [89.85415, 25.49422], [89.85374, 25.49393], [89.85295, 25.49346], [89.85252, 25.49324], [89.85118, 25.49264], [89.85098, 25.49248], [89.85089, 25.49231], [89.8506, 25.49118], [89.85043, 25.4895], [89.85041, 25.4891], [89.85052, 25.48871], [89.85103, 25.48734], [89.85133, 25.48683], [89.85164, 25.48641], [89.85167, 25.48624], [89.85165, 25.48398], [89.85128, 25.48327], [89.85116, 25.4829], [89.85102, 25.48208], [89.851, 25.48178], [89.85097, 25.47894], [89.85086, 25.47755], [89.85084, 25.47688], [89.86256, 25.47598], [89.86406, 25.4771], [89.86633, 25.4788], [89.86678, 25.47914], [89.86724, 25.47948], [89.87028, 25.48201], [89.87503, 25.48765], [89.87849, 25.49176], [89.87855, 25.49606], [89.87858, 25.4987], [89.87594, 25.50456], [89.87476, 25.50718], [89.87474, 25.50722], [89.87414, 25.50858], [89.87392, 25.50923], [89.87343, 25.51223], [89.87341, 25.51235], [89.8727, 25.5153], [89.8724, 25.51667], [89.87033, 25.52136], [89.87015, 25.52176], [89.86957, 25.52309], [89.8689, 25.5246], [89.86899, 25.52486], [89.8692, 25.52545], [89.86941, 25.52603], [89.87058, 25.52929], [89.87076, 25.52979], [89.87163, 25.53222], [89.87156, 25.53251], [89.87142, 25.53312], [89.87129, 25.53367], [89.87092, 25.53522], [89.87052, 25.53686], [89.87023, 25.53809], [89.86994, 25.53931], [89.86978, 25.54002], [89.87022, 25.54065], [89.87046, 25.54097], [89.87066, 25.54125], [89.87181, 25.54282], [89.87207, 25.54317], [89.87292, 25.54434], [89.87303, 25.54449], [89.87325, 25.54479], [89.8748, 25.5469], [89.87492, 25.54706], [89.87498, 25.54715], [89.87504, 25.54723], [89.87686, 25.54971], [89.87874, 25.54953], [89.88063, 25.54936], [89.88195, 25.5507], [89.88327, 25.55204], [89.88941, 25.55829], [89.8932, 25.55863], [89.8948, 25.55877], [89.89997, 25.55924], [89.90296, 25.55951], [89.90743, 25.55991], [89.90955, 25.5604], [89.90963, 25.56042], [89.91038, 25.56059], [89.91266, 25.56111], [89.91429, 25.56148], [89.9177, 25.56226], [89.92111, 25.56303], [89.92296, 25.56324], [89.92325, 25.56327], [89.92451, 25.56342], [89.92878, 25.5639], [89.92905, 25.56393], [89.93251, 25.56364], [89.93416, 25.5635], [89.93464, 25.56346], [89.9352, 25.56341], [89.93701, 25.56326], [89.93873, 25.56311], [89.93882, 25.5631], [89.94197, 25.56577], [89.94463, 25.56801], [89.95214, 25.56861], [89.95238, 25.56863], [89.95348, 25.56896], [89.95715, 25.57006], [89.95975, 25.57084], [89.96082, 25.57098], [89.96178, 25.5711], [89.96262, 25.57121], [89.96288, 25.57125], [89.96346, 25.57132], [89.9656, 25.57159], [89.9694, 25.57208], [89.97022, 25.57245], [89.97087, 25.57275], [89.97123, 25.57291], [89.97265, 25.57356], [89.97577, 25.57499], [89.97618, 25.57658], [89.97628, 25.57699], [89.97641, 25.57752], [89.97721, 25.5807], [89.97802, 25.58388], [89.97838, 25.58451], [89.97897, 25.58554], [89.9791, 25.58578], [89.97977, 25.58693], [89.98214, 25.5911], [89.99246, 25.58917], [89.99831, 25.58671], [90.00169, 25.58563], [90.00507, 25.58455], [90.00876, 25.58873], [90.00993, 25.59095], [90.01063, 25.59228], [90.01399, 25.5987], [90.01877, 25.60163], [90.02024, 25.60254], [90.02094, 25.60632], [90.021, 25.60665], [90.02136, 25.60865], [90.02138, 25.60874], [90.02115, 25.60899], [90.02092, 25.60925], [90.02017, 25.61008], [90.01942, 25.61092], [90.01875, 25.61166], [90.01522, 25.61559], [90.00938, 25.62209], [90.00752, 25.62416], [90.00435, 25.62478], [90.00315, 25.62325], [90.00231, 25.62219], [90.00042, 25.62275], [89.99965, 25.62298], [89.99826, 25.62338], [89.99768, 25.62357], [89.99559, 25.6242], [89.99471, 25.62447], [89.98952, 25.62607], [89.98936, 25.62612], [89.987, 25.62684], [89.98636, 25.62704], [89.98532, 25.62878], [89.98527, 25.62901], [89.98425, 25.63404], [89.98365, 25.63697], [89.98346, 25.63791], [89.98296, 25.63822], [89.98247, 25.63854], [89.97526, 25.64312], [89.96751, 25.64805], [89.96445, 25.64999], [89.96226, 25.65138], [89.96192, 25.6516], [89.95443, 25.65636], [89.95237, 25.65767], [89.95001, 25.65917], [89.94987, 25.65957], [89.94948, 25.66072], [89.94871, 25.66297], [89.94652, 25.66939], [89.94597, 25.671], [89.94572, 25.67173], [89.94556, 25.67221], [89.94537, 25.67276], [89.94495, 25.67399], [89.94487, 25.67743], [89.94486, 25.67773], [89.94485, 25.67846], [89.94461, 25.6789], [89.94418, 25.67967], [89.94313, 25.68158], [89.94015, 25.68697], [89.93549, 25.6903], [89.92818, 25.69321], [89.9265, 25.69388], [89.92428, 25.69475], [89.92334, 25.69617], [89.92322, 25.69635], [89.92271, 25.69711], [89.92262, 25.69761], [89.92254, 25.69808], [89.92125, 25.70193], [89.91956, 25.70368], [89.91971, 25.70458], [89.91929, 25.70592], [89.91865, 25.70943], [89.91804, 25.71248], [89.91721, 25.71661], [89.91424, 25.7232], [89.91117, 25.72587], [89.90916, 25.72762], [89.90872, 25.728], [89.9081, 25.72827], [89.90425, 25.72994], [89.90376, 25.73012], [89.90175, 25.73114], [89.90129, 25.73127], [89.89974, 25.73154], [89.89921, 25.73179], [89.89833, 25.73198], [89.89757, 25.73231], [89.89645, 25.73356], [89.89615, 25.7339], [89.89585, 25.73533], [89.89635, 25.73695], [89.89644, 25.73737], [89.89658, 25.73783], [89.89672, 25.73823], [89.89686, 25.73859], [89.89757, 25.74091], [89.89763, 25.74109], [89.89783, 25.74176], [89.89793, 25.74208], [89.89854, 25.74406], [89.89866, 25.74445], [89.90097, 25.7444], [89.90164, 25.74439], [89.90231, 25.74438], [89.91437, 25.74193], [89.91461, 25.74188], [89.91573, 25.74132], [89.91697, 25.7407], [89.91933, 25.73951], [89.92118, 25.7395], [89.92451, 25.73949], [89.92507, 25.73949], [89.93066, 25.7415], [89.93074, 25.74153], [89.93114, 25.74167], [89.93392, 25.74327], [89.9367, 25.74487], [89.93784, 25.74785], [89.93783, 25.74788], [89.93769, 25.74867], [89.93758, 25.74926], [89.93746, 25.74991], [89.93705, 25.75217], [89.93692, 25.75284], [89.93999, 25.75534], [89.94212, 25.75707], [89.94425, 25.75881], [89.94533, 25.75969], [89.94673, 25.76084], [89.94744, 25.76178], [89.94989, 25.76502], [89.95046, 25.76566], [89.95076, 25.76595], [89.95135, 25.76671], [89.95389, 25.76884], [89.95559, 25.77046], [89.95845, 25.77475], [89.95839, 25.77662], [89.95835, 25.77799], [89.95832, 25.77891], [89.95823, 25.78193], [89.95683, 25.78297], [89.95584, 25.78371], [89.95525, 25.78652], [89.95509, 25.78728], [89.95491, 25.78812], [89.95469, 25.78916], [89.95404, 25.79226], [89.95413, 25.79367], [89.95429, 25.79622], [89.9544, 25.79783], [89.95516, 25.80979], [89.95525, 25.81119], [89.95449, 25.8122], [89.95374, 25.8132], [89.95317, 25.81395], [89.95261, 25.8147], [89.95201, 25.81497], [89.94889, 25.81638], [89.94905, 25.81946], [89.9491, 25.8205], [89.94848, 25.82261], [89.94824, 25.82343], [89.94785, 25.82475], [89.94891, 25.82482], [89.95385, 25.82514], [89.95632, 25.82565], [89.95847, 25.82609], [89.96212, 25.82684], [89.96396, 25.82675], [89.96454, 25.82673], [89.96906, 25.82651], [89.97122, 25.82641], [89.974, 25.82741], [89.97678, 25.8284], [89.97793, 25.83127], [89.97796, 25.83135], [89.97914, 25.8343], [89.97971, 25.83436], [89.98233, 25.83461], [89.99405, 25.83576], [89.99583, 25.83725], [89.99794, 25.83901], [89.99948, 25.83947], [90.00103, 25.83992], [90.00234, 25.84081], [90.00483, 25.84249], [90.00327, 25.84377], [90.00306, 25.84394], [90.00325, 25.84516], [90.00338, 25.84619], [90.00609, 25.84809], [90.00996, 25.84742], [90.01155, 25.84707], [90.01474, 25.84991], [90.01498, 25.85022], [90.01522, 25.85053], [90.01933, 25.85613], [90.02004, 25.85697], [90.02036, 25.85755], [90.02045, 25.8577], [90.02076, 25.85808], [90.02247, 25.85989], [90.02279, 25.86054], [90.02289, 25.8607], [90.02387, 25.86236], [90.024, 25.86271], [90.02513, 25.86575], [90.02501, 25.86648], [90.02463, 25.86872], [90.02451, 25.86884], [90.02196, 25.87159], [90.01762, 25.87202], [90.01639, 25.87308], [90.01549, 25.87385], [90.01304, 25.87596], [90.01091, 25.87721], [90.00865, 25.87854], [90.00802, 25.87891], [90.00864, 25.8795], [90.00887, 25.87972], [90.00927, 25.88009], [90.01264, 25.88329], [90.01284, 25.88348], [90.01324, 25.88385], [90.01852, 25.88885], [90.02032, 25.89022], [90.02211, 25.89102], [90.02259, 25.89194], [90.02349, 25.89278], [90.02452, 25.89342], [90.03051, 25.89442], [90.03117, 25.89453], [90.03166, 25.89447], [90.03666, 25.89386], [90.03777, 25.89373], [90.04533, 25.89096], [90.05166, 25.89594], [90.05439, 25.89809], [90.05542, 25.8989], [90.05547, 25.89906], [90.05655, 25.90259], [90.05792, 25.90705], [90.0583, 25.90829], [90.05882, 25.90859], [90.06173, 25.91024], [90.06216, 25.91047], [90.06361, 25.91222], [90.06372, 25.91236], [90.06388, 25.91255], [90.06441, 25.91318], [90.06494, 25.91381], [90.06559, 25.9146], [90.06655, 25.91575], [90.0671, 25.91583], [90.0674, 25.91587], [90.06751, 25.91588], [90.06763, 25.9159], [90.0677, 25.91591], [90.06791, 25.91594], [90.06796, 25.91595], [90.06836, 25.916], [90.06851, 25.91603], [90.06958, 25.91617], [90.06972, 25.9162], [90.06979, 25.91621], [90.07086, 25.91636], [90.07565, 25.91953], [90.07815, 25.91878], [90.07956, 25.91836], [90.08053, 25.91807], [90.0812, 25.91787], [90.08266, 25.91946], [90.08286, 25.92027], [90.08396, 25.92472], [90.08846, 25.92589], [90.09062, 25.92645], [90.09346, 25.92801], [90.09516, 25.92894], [90.09396, 25.9312], [90.09338, 25.93228], [90.0912, 25.93638], [90.09597, 25.93832], [90.09869, 25.93943], [90.09934, 25.9397], [90.10236, 25.93944], [90.10305, 25.94084], [90.10371, 25.94215], [90.10375, 25.94224], [90.10383, 25.94224], [90.10586, 25.94218], [90.10617, 25.94217], [90.10857, 25.9421], [90.11031, 25.94828], [90.11108, 25.95063], [90.11112, 25.95076], [90.11317, 25.95313], [90.11415, 25.95427], [90.11701, 25.9576], [90.12188, 25.96142], [90.1217, 25.9641], [90.1217, 25.96484], [90.1217, 25.96628], [90.12616, 25.96987], [90.12621, 25.96985], [90.12972, 25.96847], [90.13031, 25.96816], [90.13045, 25.9681], [90.13076, 25.96797], [90.13405, 25.96822], [90.13748, 25.97253], [90.1375, 25.97256], [90.1393, 25.97314], [90.13953, 25.97368], [90.14047, 25.97583], [90.1414, 25.97579], [90.14191, 25.97575], [90.14656, 25.97548], [90.14697, 25.9769], [90.14709, 25.9773], [90.14744, 25.97851], [90.14777, 25.97966], [90.14791, 25.98014], [90.14837, 25.98022], [90.14917, 25.98036], [90.14963, 25.98044], [90.15126, 25.98073], [90.15231, 25.98109], [90.1527, 25.98123], [90.15289, 25.98127], [90.15478, 25.98258], [90.15598, 25.98355], [90.15688, 25.98427], [90.15839, 25.9855], [90.16033, 25.98707], [90.16194, 25.98734], [90.16273, 25.98746], [90.16299, 25.9875], [90.16349, 25.98758], [90.16371, 25.98762], [90.16694, 25.98816], [90.16733, 25.98822], [90.16821, 25.98834], [90.17196, 25.98894], [90.17248, 25.98929], [90.17332, 25.98986], [90.17388, 25.99024], [90.17428, 25.99031], [90.17535, 25.99049], [90.1769, 25.99076], [90.17738, 25.99084], [90.17948, 25.9912], [90.17942, 25.99284], [90.17939, 25.99373], [90.17932, 25.99572], [90.17919, 25.99599], [90.1767, 26.00104], [90.177, 26.00223], [90.17762, 26.00468], [90.1795, 26.00703], [90.18176, 26.00985], [90.1818, 26.0099], [90.1824, 26.01277], [90.18077, 26.01176], [90.18053, 26.01161], [90.17754, 26.00974], [90.17816, 26.01362], [90.17725, 26.01439], [90.17662, 26.01493], [90.17544, 26.01593], [90.17532, 26.01603], [90.17476, 26.01651], [90.17443, 26.01679], [90.17482, 26.01703], [90.1749, 26.01707], [90.17807, 26.01896], [90.17871, 26.01913], [90.18286, 26.02019], [90.1831, 26.02025], [90.18841, 26.0227], [90.18873, 26.02293], [90.19135, 26.0253], [90.19165, 26.02591], [90.19291, 26.02848], [90.19263, 26.02927], [90.1922, 26.03049], [90.19215, 26.03062], [90.19188, 26.03139], [90.19168, 26.03195], [90.19143, 26.03226], [90.19118, 26.03258], [90.191, 26.03279], [90.18986, 26.03423], [90.18771, 26.03692], [90.18004, 26.03813], [90.17891, 26.03831], [90.17849, 26.03837], [90.17711, 26.03859], [90.1756, 26.03942], [90.17427, 26.04015], [90.17395, 26.04033], [90.17203, 26.04269], [90.17137, 26.04351], [90.17172, 26.04794], [90.17195, 26.04855], [90.17284, 26.05093], [90.17614, 26.05696], [90.17865, 26.05988], [90.18017, 26.06546], [90.18184, 26.06642], [90.18239, 26.06776], [90.18229, 26.06802], [90.18194, 26.06889], [90.17949, 26.07216], [90.1792, 26.07294], [90.17858480295993, 26.0745751289749]]]}}]}