{"type": "FeatureCollection", "features": [{"type": "Feature", "properties": {"Name": "Tinsukia"}, "geometry": {"type": "Polygon", "coordinates": [[[95.97719, 27.96294], [95.95667, 27.96363], [95.9453, 27.96437], [95.93977, 27.96473], [95.93179, 27.96525], [95.92352, 27.96579], [95.9201, 27.96601], [95.90183, 27.9672], [95.82581, 27.97216], [95.81822, 27.9715], [95.77996, 27.96816], [95.76939, 27.96724], [95.76613, 27.96695], [95.75755, 27.9662], [95.7571, 27.96616], [95.75392, 27.96588], [95.7537, 27.96586], [95.75301, 27.9658], [95.75206, 27.96572], [95.75001, 27.96554], [95.74974, 27.96552], [95.74859, 27.96542], [95.74598, 27.96519], [95.74491, 27.9651], [95.74322, 27.96495], [95.73546, 27.96427], [95.67964, 27.95938], [95.66762, 27.95833], [95.62309, 27.9544], [95.60688, 27.95297], [95.60587, 27.95228], [95.59711, 27.94634], [95.58877, 27.93683], [95.58127, 27.93864], [95.58068, 27.93878], [95.57722, 27.93835], [95.57147, 27.93762], [95.57136, 27.93761], [95.56638, 27.92682], [95.56516, 27.91773], [95.54392, 27.90869], [95.54445, 27.90099], [95.54362, 27.89753], [95.53313, 27.89566], [95.52634, 27.89313], [95.52596451700003, 27.892542352000078], [95.52498763000006, 27.89101347500008], [95.52095542300003, 27.884702876000063], [95.51603536900006, 27.877014839000026], [95.51556406400005, 27.876866931000052], [95.51319364800008, 27.876154368000073], [95.51131489600004, 27.875589603000037], [95.50097764000009, 27.872482157000036], [95.48966, 27.86908], [95.48531, 27.86777], [95.48391156800005, 27.867350471000066], [95.47861, 27.86576], [95.47737, 27.86539], [95.47498, 27.86467], [95.47403, 27.86438], [95.46773, 27.86248], [95.46106, 27.84581], [95.45878, 27.83442], [95.45346, 27.82683], [95.42846, 27.80709], [95.4246, 27.80404], [95.41593, 27.79733], [95.41566, 27.79712], [95.40106, 27.78582], [95.39768, 27.7827], [95.36232, 27.75012], [95.29853, 27.70759], [95.27156, 27.69012], [95.23891, 27.66202], [95.22182, 27.64873], [95.22713, 27.64911], [95.23523, 27.6518], [95.23568, 27.65195], [95.25087, 27.65879], [95.26169, 27.66164], [95.27062, 27.66107], [95.27271, 27.65991], [95.27582, 27.65818], [95.27619, 27.65797], [95.27752, 27.65723], [95.28242, 27.65451], [95.28258, 27.65442], [95.28737, 27.65155], [95.28827, 27.65101], [95.29397, 27.64531], [95.29864, 27.63512], [95.30202, 27.62773], [95.30232, 27.62708], [95.30346, 27.61911], [95.30369, 27.61149], [95.30384, 27.60657], [95.30254, 27.6039], [95.30202, 27.60284], [95.30118, 27.60112], [95.29625, 27.59101], [95.28827, 27.58417], [95.28334, 27.58227], [95.27616, 27.58075], [95.27644, 27.57988], [95.27627, 27.57876], [95.27525, 27.57778], [95.27389, 27.57727], [95.27396, 27.57561], [95.2745, 27.57443], [95.27767, 27.57279], [95.28414, 27.56879], [95.2843, 27.56767], [95.28456, 27.5659], [95.28481, 27.56416], [95.28516, 27.56175], [95.28537, 27.56027], [95.28715, 27.55595], [95.28795, 27.554], [95.288, 27.55387], [95.28886, 27.55139], [95.29024, 27.54745], [95.28815, 27.54672], [95.287, 27.54632], [95.28628, 27.54604], [95.28584, 27.54587], [95.28189, 27.54649], [95.28025, 27.54675], [95.27408, 27.5497], [95.27334, 27.55005], [95.27179, 27.54864], [95.26967, 27.54672], [95.26957, 27.54651], [95.26914, 27.54555], [95.2688, 27.54479], [95.2682, 27.54346], [95.26739, 27.54166], [95.26649, 27.53965], [95.26607, 27.53872], [95.26544, 27.53732], [95.265, 27.53633], [95.26589, 27.53464], [95.26632, 27.53382], [95.26677, 27.53296], [95.26682, 27.53287], [95.26831, 27.53003], [95.26833, 27.52999], [95.26843, 27.5298], [95.2707, 27.52549], [95.27077, 27.52535], [95.27053, 27.52527], [95.26674, 27.52399], [95.26597, 27.52373], [95.26575, 27.52365], [95.26573, 27.52305], [95.26568, 27.52131], [95.26562, 27.51943], [95.26559, 27.51848], [95.26554, 27.51668], [95.26553, 27.51653], [95.26551, 27.51593], [95.26262, 27.5103], [95.25983, 27.50892], [95.25802, 27.50802], [95.25754, 27.50794], [95.25736, 27.50791], [95.25733, 27.50791], [95.25611, 27.50771], [95.25494, 27.50752], [95.25461, 27.50747], [95.2529, 27.50719], [95.25179, 27.50701], [95.25147, 27.50696], [95.25087, 27.50678], [95.25015, 27.50657], [95.25028, 27.5046], [95.2504, 27.50292], [95.24962, 27.50169], [95.24961, 27.50168], [95.24728, 27.49958], [95.24485, 27.49807], [95.24444, 27.49792], [95.24308, 27.49743], [95.24197, 27.49702], [95.24168, 27.49685], [95.24005, 27.49623], [95.23973, 27.49601], [95.23798, 27.49482], [95.23739, 27.4942], [95.23581, 27.49255], [95.23562, 27.49249], [95.2331, 27.49198], [95.23214, 27.49179], [95.23126, 27.49223], [95.23049, 27.49262], [95.22999, 27.49283], [95.22991, 27.49229], [95.22931, 27.48805], [95.22909, 27.4865], [95.22902, 27.48604], [95.22901, 27.48558], [95.22884, 27.48116], [95.22884, 27.48108], [95.22902, 27.47793], [95.22905, 27.47733], [95.22934, 27.47221], [95.22897, 27.47163], [95.22799, 27.4701], [95.22688, 27.46837], [95.22679, 27.46823], [95.22581, 27.46665], [95.2248, 27.46511], [95.22024, 27.45798], [95.22409, 27.45315], [95.22765, 27.44871], [95.22895, 27.44707], [95.2291, 27.44688], [95.22948, 27.44619], [95.23008, 27.44512], [95.2306, 27.44418], [95.23273, 27.44034], [95.2317, 27.44107], [95.23158, 27.44111], [95.22877, 27.44028], [95.22764, 27.43904], [95.22717, 27.43852], [95.22584, 27.43706], [95.22556, 27.43673], [95.22278, 27.43514], [95.22031, 27.43372], [95.21849, 27.43527], [95.21727, 27.43631], [95.2149, 27.43644], [95.21463, 27.43526], [95.21403, 27.43259], [95.21574, 27.42964], [95.2163, 27.42678], [95.21659, 27.42528], [95.21717, 27.4223], [95.21749, 27.42065], [95.21739, 27.42049], [95.21961, 27.42011], [95.22074, 27.42096], [95.2227, 27.42086], [95.22491, 27.42228], [95.22544, 27.42262], [95.22612, 27.42306], [95.22835, 27.42328], [95.22951, 27.42335], [95.2302, 27.4234], [95.23137, 27.42505], [95.2346, 27.42289], [95.23543, 27.42233], [95.23816, 27.42187], [95.2385, 27.42182], [95.23884, 27.42157], [95.23904, 27.42142], [95.24142, 27.41967], [95.2437, 27.41935], [95.24395, 27.41903], [95.24437, 27.4185], [95.24771, 27.41427], [95.24805, 27.41322], [95.24795, 27.41187], [95.24938, 27.41278], [95.24993, 27.41351], [95.2515, 27.41558], [95.25355, 27.41531], [95.25433, 27.41521], [95.25524, 27.41629], [95.25557, 27.41668], [95.25564, 27.41676], [95.25767, 27.41916], [95.25893, 27.41789], [95.2586, 27.4163], [95.25801, 27.41346], [95.2574, 27.41053], [95.26089, 27.40907], [95.26774, 27.40621], [95.26839, 27.40594], [95.26912, 27.40564], [95.27078, 27.40698], [95.2737, 27.40935], [95.27647, 27.41159], [95.27982, 27.40983], [95.28349, 27.4079], [95.28534, 27.40853], [95.28551, 27.40859], [95.29365, 27.41139], [95.2948, 27.41178], [95.29512, 27.41161], [95.29952, 27.40924], [95.30033, 27.4088], [95.30216, 27.40566], [95.3029, 27.4044], [95.3039, 27.40269], [95.30522, 27.40044], [95.30593, 27.39922], [95.30633, 27.39854], [95.3065, 27.39837], [95.3069, 27.39799], [95.30973, 27.39527], [95.31063, 27.3944], [95.31087, 27.39416], [95.3132, 27.39192], [95.31376, 27.39139], [95.31606, 27.3909], [95.32105, 27.39004], [95.32112, 27.39003], [95.32242, 27.3898], [95.32484, 27.39001], [95.32718, 27.39022], [95.32947, 27.39036], [95.33021, 27.3904], [95.33025, 27.3904], [95.33321, 27.39047], [95.33505, 27.39127], [95.33595, 27.39167], [95.33699, 27.39212], [95.33712, 27.39218], [95.338, 27.39226], [95.33826, 27.39229], [95.33999, 27.39246], [95.34066, 27.39253], [95.34295, 27.39275], [95.34314, 27.39277], [95.34342, 27.39317], [95.34389, 27.39403], [95.34861, 27.39446], [95.34903, 27.39435], [95.35269, 27.39337], [95.3551, 27.39272], [95.35872, 27.39175], [95.35959, 27.39152], [95.35993, 27.39143], [95.3617, 27.39089], [95.36325, 27.39042], [95.36565, 27.38969], [95.36814, 27.38893], [95.36894, 27.38869], [95.36985, 27.38841], [95.37014, 27.38862], [95.37262, 27.38703], [95.37419, 27.38603], [95.37444, 27.386], [95.37461, 27.38601], [95.37669, 27.38607], [95.37836, 27.38496], [95.3786, 27.38527], [95.37877, 27.38549], [95.37779, 27.38895], [95.37698, 27.39181], [95.3807, 27.39175], [95.383, 27.39171], [95.38513, 27.39167], [95.38668, 27.39164], [95.38693, 27.39164], [95.38825, 27.39162], [95.38834, 27.39162], [95.39016, 27.39159], [95.3932, 27.39153], [95.39579, 27.39148], [95.39748, 27.39076], [95.39735, 27.3913], [95.39766, 27.39164], [95.3995, 27.39361], [95.40025, 27.39514], [95.40044, 27.39553], [95.40079, 27.39628], [95.40255, 27.39622], [95.40372, 27.39618], [95.40373, 27.39609], [95.40388, 27.39394], [95.40428, 27.39358], [95.40489, 27.39302], [95.40481, 27.39294], [95.40411, 27.39121], [95.40299, 27.38843], [95.40523, 27.38748], [95.40685, 27.38679], [95.40804, 27.38629], [95.40831, 27.38618], [95.40882, 27.38596], [95.41485, 27.3834], [95.41711, 27.38244], [95.41743, 27.3823], [95.41782, 27.38214], [95.4184, 27.38189], [95.41892, 27.38118], [95.41903, 27.38103], [95.41946, 27.38043], [95.41963, 27.38019], [95.4212, 27.37804], [95.42192, 27.37704], [95.42198, 27.37699], [95.42317, 27.37533], [95.42338, 27.37503], [95.42909, 27.37252], [95.42953, 27.37233], [95.42995, 27.37214], [95.43009, 27.37208], [95.43059, 27.3716], [95.43094, 27.37128], [95.43354, 27.36883], [95.43435, 27.36806], [95.43634, 27.36619], [95.43757, 27.36503], [95.43722, 27.36496], [95.43687, 27.3642], [95.43648, 27.36337], [95.43646, 27.36318], [95.43647, 27.36314], [95.43661, 27.3627], [95.43694, 27.36092], [95.43705, 27.36034], [95.43687, 27.35814], [95.43644, 27.3574], [95.43575, 27.3562], [95.43661, 27.35496], [95.43957, 27.35124], [95.43968, 27.3511], [95.43972, 27.35066], [95.43981, 27.34943], [95.43987, 27.34857], [95.43992, 27.34775], [95.43996, 27.34711], [95.44008, 27.34536], [95.44108, 27.34435], [95.4414, 27.34389], [95.44454, 27.33944], [95.44677, 27.33826], [95.44718, 27.33768], [95.44806, 27.33645], [95.44823, 27.33663], [95.44902, 27.33745], [95.4506, 27.3391], [95.45075, 27.34046], [95.4508, 27.3409], [95.45092, 27.34204], [95.44768, 27.3445], [95.44603, 27.34575], [95.4454, 27.34875], [95.44533, 27.3491], [95.44479, 27.3517], [95.44444, 27.35184], [95.44339, 27.35226], [95.44246, 27.35236], [95.44082, 27.35253], [95.44071, 27.35288], [95.44022, 27.35441], [95.43966, 27.35614], [95.43944, 27.35952], [95.4394, 27.35989], [95.43935, 27.36032], [95.43918, 27.36169], [95.439, 27.36233], [95.43873, 27.36332], [95.43914, 27.36355], [95.43962, 27.3631], [95.43968, 27.36314], [95.44138, 27.3642], [95.44152, 27.36429], [95.4427, 27.36502], [95.44439, 27.36608], [95.44467, 27.36626], [95.44614, 27.36718], [95.44706, 27.36775], [95.44919, 27.36909], [95.46053, 27.36686], [95.4634, 27.3663], [95.46532, 27.36592], [95.46656, 27.36568], [95.46685, 27.36562], [95.46706, 27.36558], [95.46958, 27.36508], [95.47163, 27.36468], [95.4726, 27.36449], [95.473, 27.36096], [95.47304, 27.3606], [95.47307, 27.36035], [95.47397, 27.35238], [95.47452, 27.34748], [95.47482, 27.34463], [95.47504, 27.34288], [95.47508, 27.34256], [95.47213, 27.3418], [95.4689, 27.34097], [95.46484, 27.33992], [95.46141, 27.33903], [95.45957, 27.33856], [95.45386, 27.33266], [95.45341, 27.33219], [95.45274, 27.33151], [95.45251, 27.33127], [95.45149, 27.33022], [95.45146, 27.33019], [95.45147, 27.33018], [95.45385, 27.32833], [95.4556, 27.32696], [95.45814, 27.32499], [95.45944, 27.32398], [95.46008, 27.32348], [95.46271, 27.32143], [95.46309, 27.32049], [95.46345, 27.3196], [95.46439, 27.31728], [95.46473, 27.31644], [95.46474, 27.31641], [95.46501, 27.31575], [95.46722, 27.31033], [95.46734, 27.31003], [95.46746, 27.30973], [95.46778, 27.30893], [95.46885, 27.30629], [95.46763, 27.30419], [95.46622, 27.30097], [95.47209, 27.3052], [95.47988, 27.3127], [95.48227, 27.32462], [95.48562, 27.3296], [95.48649, 27.33206], [95.48685, 27.33308], [95.4878, 27.33575], [95.49129, 27.33921], [95.4935, 27.34234], [95.50145, 27.34668], [95.50538, 27.34853], [95.50727, 27.34919], [95.51142, 27.34949], [95.50965, 27.34904], [95.5072, 27.34741], [95.50588, 27.34373], [95.50602, 27.34084], [95.50728, 27.33864], [95.51272, 27.3343], [95.51423, 27.33383], [95.51966, 27.33423], [95.52008, 27.3335], [95.51953, 27.33237], [95.51499, 27.32663], [95.5145, 27.32362], [95.51544, 27.32159], [95.51994, 27.31617], [95.5194, 27.31475], [95.51805, 27.31478], [95.51308, 27.31689], [95.51172, 27.31648], [95.50753, 27.31434], [95.49969, 27.30816], [95.49744, 27.30691], [95.49702, 27.30556], [95.49662, 27.30244], [95.49594, 27.30122], [95.49299, 27.2997], [95.49227, 27.29849], [95.49104, 27.29329], [95.48799, 27.28997], [95.48477, 27.2889], [95.48372, 27.28536], [95.48313, 27.28219], [95.48253, 27.28068], [95.48161, 27.27951], [95.47869, 27.27969], [95.47705, 27.27753], [95.47461, 27.27494], [95.47181, 27.27345], [95.46934, 27.2718], [95.46559, 27.27196], [95.46443, 27.27166], [95.46425, 27.27153], [95.46367, 27.26678], [95.44552, 27.25247], [95.44788, 27.24681], [95.45021, 27.24286], [95.4534, 27.23746], [95.45393, 27.23655], [95.45484, 27.23501], [95.4555, 27.23388], [95.45642, 27.23233], [95.46106, 27.24009], [95.46088, 27.24052], [95.45983, 27.24299], [95.45786, 27.24762], [95.46218, 27.25283], [95.46243, 27.25313], [95.46461, 27.25576], [95.46785, 27.25966], [95.46813, 27.25987], [95.46937, 27.26083], [95.47042, 27.26164], [95.47194, 27.26282], [95.47221, 27.26303], [95.47316, 27.26188], [95.47985, 27.25382], [95.4806, 27.25292], [95.483, 27.25191], [95.48577, 27.25074], [95.48783, 27.2467], [95.4891, 27.24422], [95.48951, 27.24342], [95.48977207100006, 27.24290404900006], [95.48983, 27.24279], [95.49023, 27.24295], [95.49154, 27.24345], [95.49378, 27.24432], [95.4939, 27.24437], [95.49484859700004, 27.244733481000026], [95.49497, 27.24478], [95.49598, 27.24517], [95.49993, 27.24669], [95.5004, 27.24687], [95.50237, 27.24763], [95.50508, 27.24868], [95.50604, 27.24964], [95.50673354100007, 27.250333541000032], [95.50726, 27.25086], [95.50944, 27.25304], [95.50959, 27.25669], [95.5097, 27.25926], [95.50974, 27.26035], [95.50988063000005, 27.260412279000036], [95.51044, 27.26066], [95.51501, 27.26269], [95.51508303400004, 27.262606065000057], [95.51679611400004, 27.26063730100003], [95.51903, 27.25807], [95.51925442300006, 27.25780966900004], [95.51928, 27.25778], [95.52204804700006, 27.259055020000062], [95.52468873900006, 27.26023219500007], [95.52500898700004, 27.260492018000036], [95.52854, 27.26311], [95.53234, 27.26426], [95.53363, 27.26464], [95.53477, 27.26397], [95.53528, 27.26367], [95.54021331800004, 27.260775935000026], [95.55294, 27.25331], [95.5549, 27.24832], [95.55497, 27.2483], [95.55499396800008, 27.248293586000045], [95.55568, 27.24811], [95.55706671300004, 27.247739504000037], [95.55961, 27.24706], [95.56017, 27.24691], [95.56199, 27.24642], [95.56721, 27.24574], [95.56762, 27.24569], [95.57319217300005, 27.24497101000003], [95.57369, 27.24447], [95.57411, 27.24403], [95.57549, 27.24261], [95.57586, 27.24223], [95.57702, 27.24103], [95.57685, 27.23904], [95.57682, 27.23868], [95.57667, 27.23697], [95.57664977900004, 27.236757674000046], [95.57663, 27.23655], [95.57659, 27.23603], [95.57661905100008, 27.23599972200003], [95.58819, 27.22394], [95.58865877800008, 27.223446109000065], [95.58875, 27.22335], [95.5951, 27.2234], [95.59703, 27.22341], [95.59784, 27.22342], [95.59796266400008, 27.223446109000065], [95.59801575700004, 27.223457410000037], [95.60033, 27.22395], [95.60554, 27.22506], [95.60601, 27.22516], [95.60643541700006, 27.225346385000023], [95.61603, 27.22955], [95.61779, 27.23032], [95.6224, 27.23131], [95.62424, 27.23171], [95.625, 27.23187], [95.62507, 27.23189], [95.62691617300004, 27.232287489000043], [95.63261063200008, 27.233513534000053], [95.63278, 27.23355], [95.63413991900006, 27.232166306000067], [95.63564, 27.23064], [95.6523, 27.23733], [95.65762, 27.23947], [95.66938, 27.24419], [95.67783, 27.24758], [95.67802, 27.24983], [95.68304, 27.25107], [95.68875, 27.25144], [95.69404, 27.25179], [95.70048, 27.24925], [95.70431, 27.25021], [95.70494, 27.25037], [95.70506, 27.2504], [95.71036, 27.25174], [95.71407, 27.25268], [95.71748, 27.25177], [95.71967, 27.25118], [95.72405, 27.25281], [95.72595, 27.25497], [95.72928, 27.25876], [95.73046, 27.2601], [95.73497, 27.26031], [95.73851, 27.26344], [95.7388, 27.26352], [95.7536, 27.26736], [95.75417, 27.26751], [95.75556, 27.26787], [95.75968, 27.26858], [95.78323, 27.2726], [95.78624, 27.27572], [95.78934, 27.27892], [95.79037, 27.27925], [95.79116, 27.27951], [95.7993, 27.28214], [95.80483, 27.28518], [95.80493, 27.28331], [95.80503, 27.28143], [95.80703, 27.27886], [95.80833, 27.27538], [95.80872, 27.27433], [95.83644, 27.28042], [95.84055, 27.28245], [95.84873, 27.28649], [95.85897, 27.28748], [95.86039, 27.28333], [95.85992, 27.28088], [95.85912, 27.27676], [95.85911, 27.27671], [95.85921, 27.27489], [95.85931, 27.27308], [95.86268, 27.27077], [95.86389, 27.26994], [95.86891, 27.26282], [95.8708, 27.26014], [95.87601, 27.26064], [95.8792, 27.26031], [95.88084, 27.26014], [95.886, 27.25653], [95.88605, 27.2565], [95.89236, 27.25618], [95.89333, 27.25649], [95.89384, 27.25664], [95.89648, 27.25747], [95.89903, 27.26754], [95.89955, 27.26957], [95.90112, 27.27131], [95.90229, 27.27259], [95.90269, 27.27304], [95.90295, 27.27943], [95.90082, 27.28103], [95.90486, 27.28507], [95.90864, 27.28588], [95.90981, 27.28612], [95.91073, 27.28632], [95.91086, 27.28644], [95.91305, 27.28851], [95.91515, 27.29049], [95.91717, 27.2924], [95.93901, 27.30273], [95.94049, 27.30322], [95.94196, 27.3037], [95.94214, 27.30376], [95.95188, 27.30697], [95.96162, 27.31017], [95.9638, 27.31441], [95.96399, 27.31477], [95.96195, 27.31662], [95.96103, 27.31745], [95.96337, 27.31755], [95.96468, 27.31761], [95.96626, 27.31768], [95.96686, 27.3196], [95.96746, 27.32152], [95.96744, 27.32171], [95.96739, 27.32227], [95.96732, 27.32299], [95.96725, 27.32379], [95.96715, 27.32486], [95.96714, 27.32495], [95.97645, 27.32579], [95.97656, 27.32582], [95.97784, 27.32616], [95.98263, 27.32743], [95.97724, 27.32757], [95.97559, 27.32762], [95.97141, 27.32773], [95.97072, 27.32775], [95.97015, 27.32834], [95.96847, 27.3301], [95.97265, 27.33248], [95.97579, 27.33543], [95.99212, 27.34454], [95.99333, 27.35335], [95.99542, 27.3566], [95.99886, 27.35695], [95.99995, 27.35711], [96.00056, 27.35724], [96.00091, 27.35735], [96.0016, 27.35756], [96.00378, 27.35746], [96.00937, 27.35721], [96.00953, 27.35721], [96.0097, 27.3572], [96.00992, 27.35719], [96.01007, 27.35718], [96.01164, 27.35711], [96.01174, 27.35719], [96.01297, 27.3581], [96.0131, 27.3582], [96.0139, 27.3588], [96.01431, 27.3591], [96.01444, 27.3592], [96.01472, 27.3594], [96.01683, 27.36097], [96.01739, 27.36171], [96.0181, 27.36265], [96.01886, 27.36365], [96.01937, 27.36433], [96.0164, 27.36645], [96.01342, 27.36856], [96.00905, 27.3744], [96.00686, 27.38035], [96.00445, 27.38277], [96.00423, 27.38298], [96.00056, 27.38666], [96.00036, 27.38708], [95.99859, 27.39075], [95.99916, 27.39416], [95.99957, 27.39666], [95.9985, 27.39815], [95.99809, 27.39873], [95.99697, 27.40029], [95.99678, 27.40055], [95.99606, 27.40155], [95.99531, 27.4026], [95.99316, 27.40558], [95.99183, 27.40639], [95.9904, 27.40726], [95.98951, 27.4078], [95.98952, 27.40793], [95.98958, 27.40886], [95.98961, 27.40934], [95.98967, 27.41026], [95.98972, 27.41112], [95.98977, 27.41198], [95.98979, 27.41239], [95.98981, 27.41264], [95.98806, 27.41497], [95.98313, 27.41505], [95.97812, 27.41513], [95.97763, 27.4163], [95.97756, 27.41646], [95.97701, 27.41779], [95.97691, 27.41803], [95.97667, 27.41861], [95.97722, 27.41876], [95.97954, 27.4194], [95.97885, 27.42351], [95.97739, 27.42476], [95.97697, 27.42512], [95.97644, 27.42558], [95.97643, 27.4266], [95.97644, 27.42672], [95.97643, 27.42679], [95.97643, 27.42771], [95.97642, 27.42881], [95.97375, 27.42956], [95.97193, 27.43007], [95.97119, 27.42697], [95.97111, 27.42663], [95.9704, 27.42368], [95.96983, 27.42274], [95.9697, 27.42252], [95.96943, 27.42208], [95.96787, 27.41949], [95.96738, 27.41867], [95.96663, 27.41742], [95.96646, 27.41964], [95.96621, 27.42291], [95.96617, 27.42349], [95.96609, 27.42447], [95.96588, 27.42719], [95.96567, 27.43], [95.96395, 27.42941], [95.96232, 27.42884], [95.96223, 27.42881], [95.96106, 27.4257], [95.95968, 27.42205], [95.95832, 27.42357], [95.9568, 27.42527], [95.95594, 27.42623], [95.95163, 27.42664], [95.95038, 27.42866], [95.94917, 27.43062], [95.95055, 27.43223], [95.95218, 27.43415], [95.95206, 27.43491], [95.95205, 27.43498], [95.95176, 27.43684], [95.94857, 27.43841], [95.94241, 27.43966], [95.94169, 27.4398], [95.941, 27.43982], [95.94067, 27.43983], [95.93867, 27.4399], [95.93736, 27.43994], [95.93681, 27.43996], [95.93197, 27.44013], [95.92947, 27.4396], [95.92933, 27.43957], [95.9293, 27.43956], [95.9287, 27.43943], [95.92244, 27.4381], [95.91942, 27.43746], [95.91887, 27.43734], [95.91768, 27.43708], [95.91616, 27.43676], [95.91555, 27.43663], [95.91467, 27.43613], [95.91417, 27.43585], [95.91406, 27.43579], [95.91263, 27.43498], [95.91002, 27.43351], [95.90996, 27.43348], [95.90989, 27.43344], [95.90744, 27.42788], [95.90667, 27.42611], [95.90482, 27.41672], [95.90118, 27.40954], [95.9006, 27.4084], [95.89877, 27.40478], [95.89172, 27.3995], [95.89142, 27.40052], [95.89099, 27.40183], [95.89056, 27.40323], [95.89086, 27.40382], [95.891, 27.40409], [95.89187, 27.40577], [95.89294, 27.40785], [95.89297, 27.40886], [95.89298, 27.40911], [95.89299, 27.40929], [95.89306, 27.41176], [95.8911, 27.41545], [95.8909, 27.41583], [95.88873, 27.4199], [95.88847, 27.42222], [95.88815, 27.42514], [95.88893, 27.43173], [95.8891, 27.4332], [95.88892, 27.43367], [95.88826, 27.4354], [95.88824, 27.43544], [95.88761, 27.43709], [95.88741, 27.43761], [95.88511, 27.43762], [95.8818, 27.43763], [95.88135, 27.43764], [95.88109, 27.43729], [95.88105, 27.43724], [95.88002, 27.43593], [95.87462, 27.42902], [95.87453, 27.42891], [95.87307, 27.42806], [95.87203, 27.42746], [95.86365, 27.42258], [95.86271, 27.42023], [95.86198, 27.41842], [95.86295, 27.41487], [95.86372, 27.4142], [95.86472, 27.41334], [95.86535, 27.41279], [95.8654, 27.41275], [95.86605, 27.41068], [95.86346, 27.41167], [95.86299, 27.41185], [95.86258, 27.412], [95.86083, 27.41267], [95.86017, 27.41292], [95.8567, 27.41425], [95.85653, 27.41632], [95.8565, 27.41672], [95.85637, 27.41839], [95.85615, 27.41873], [95.8545, 27.42125], [95.84811, 27.42392], [95.84824, 27.42852], [95.84939, 27.43179], [95.85171, 27.43838], [95.85264, 27.43946], [95.85396, 27.44098], [95.85446, 27.44117], [95.85465, 27.44124], [95.85797, 27.44252], [95.85835, 27.44267], [95.85892, 27.44307], [95.86081, 27.44439], [95.86259, 27.44563], [95.86251, 27.44583], [95.86152, 27.44826], [95.85998, 27.45206], [95.85915, 27.45409], [95.85894, 27.45461], [95.85877, 27.45502], [95.85827, 27.45625], [95.85913, 27.45809], [95.85915, 27.45814], [95.85921, 27.45827], [95.85999, 27.45994], [95.86151, 27.46079], [95.86432, 27.46235], [95.86489, 27.46266], [95.86656, 27.463], [95.87111, 27.46393], [95.87506, 27.46473], [95.87611, 27.46688], [95.87657, 27.46782], [95.87725, 27.46923], [95.87934, 27.47788], [95.88011, 27.48107], [95.87996, 27.48147], [95.87865, 27.48506], [95.87821, 27.48627], [95.87802, 27.48658], [95.87799, 27.48861], [95.87796, 27.49041], [95.87793, 27.4922], [95.87792, 27.49253], [95.87792, 27.49286], [95.87932, 27.49476], [95.87952, 27.49485], [95.88163, 27.49578], [95.88298, 27.49638], [95.88422, 27.49693], [95.88492, 27.49724], [95.88506, 27.49734], [95.8865, 27.49839], [95.88693, 27.4987], [95.88778, 27.49931], [95.88851, 27.49983], [95.88789, 27.50108], [95.88777, 27.50133], [95.88728, 27.50233], [95.88705, 27.50278], [95.88676, 27.50337], [95.88599, 27.50495], [95.8807, 27.50878], [95.87904, 27.51116], [95.87739, 27.51354], [95.87814, 27.5144], [95.87848, 27.51479], [95.87941, 27.51586], [95.87955, 27.51602], [95.87972, 27.51622], [95.87953, 27.51782], [95.87949, 27.51817], [95.87944, 27.51856], [95.87931, 27.51971], [95.87921, 27.5206], [95.87914, 27.52119], [95.87905, 27.5219], [95.87905, 27.52192], [95.879, 27.52237], [95.87894, 27.5229], [95.87887, 27.52343], [95.87886, 27.52353], [95.87894, 27.52433], [95.87919, 27.52689], [95.8794, 27.52913], [95.87954, 27.53062], [95.88018, 27.53719], [95.88041, 27.53959], [95.8804, 27.54033], [95.8804, 27.54047], [95.88039, 27.54109], [95.88039, 27.54135], [95.88039, 27.5414], [95.88037105200004, 27.54317168400007], [95.88035081400005, 27.54506387400005], [95.88033, 27.54701], [95.87770734000009, 27.54631558400007], [95.8761, 27.54589], [95.87261, 27.54496], [95.86977, 27.54494], [95.86601, 27.54491], [95.86368, 27.54566], [95.86136, 27.54641], [95.85670951700007, 27.552374930000042], [95.85577, 27.55358], [95.8542, 27.55559], [95.85218, 27.55818], [95.85113, 27.55952], [95.85102924600005, 27.559557423000058], [95.85078, 27.55965], [95.84937081400005, 27.560197879000043], [95.84507, 27.56187], [95.84241, 27.56128], [95.83896, 27.56052], [95.83857, 27.56102], [95.83708, 27.5629], [95.83624, 27.56395], [95.83534, 27.56509], [95.83303090800007, 27.569236722000028], [95.83103, 27.57283], [95.83088, 27.57293], [95.82993051500006, 27.573580139000057], [95.82682, 27.57571], [95.82446, 27.5757], [95.82334, 27.5757], [95.82094, 27.57569], [95.82039178500008, 27.57569], [95.82034, 27.57569], [95.82011, 27.57711], [95.81963, 27.58004], [95.81948093100004, 27.580940803000033], [95.81894806600008, 27.584160826000073], [95.81893, 27.58427], [95.81906, 27.58569], [95.81918, 27.58711], [95.81925, 27.58794], [95.81930133200007, 27.588541316000033], [95.81937345000006, 27.589386125000033], [95.81939, 27.58958], [95.82136, 27.5933], [95.82333, 27.59703], [95.81837, 27.59895], [95.81485064800006, 27.599081975000047], [95.80882362700004, 27.599307989000067], [95.80877, 27.59931], [95.80864, 27.59934], [95.80825, 27.59943], [95.80564, 27.60001], [95.80269, 27.60067], [95.80196, 27.60083], [95.80043, 27.60117], [95.79947, 27.60139], [95.79722, 27.60189], [95.79614, 27.60765], [95.79610939500009, 27.607813583000052], [95.79527, 27.6123], [95.78894, 27.61601], [95.78635, 27.61753], [95.78581, 27.61858], [95.78430823900004, 27.621495183000036], [95.78428, 27.62155], [95.78491, 27.62287], [95.78517404800004, 27.62343916900005], [95.78536, 27.62384], [95.78585, 27.62486], [95.7866, 27.62645], [95.7894, 27.62745], [95.79666990500004, 27.63002500400006], [95.7966, 27.6337], [95.79773122100005, 27.635414428000047], [95.79879550900006, 27.637027416000024], [95.79885, 27.63711], [95.79952, 27.63928], [95.79964, 27.63966], [95.80018, 27.64141], [95.80072, 27.64316], [95.80065849600004, 27.643195974000037], [95.79966, 27.64378], [95.79766285300008, 27.644930143000067], [95.79742, 27.64507], [95.79413, 27.64698], [95.79402, 27.64701], [95.79392, 27.64705], [95.79039754300004, 27.648225552000042], [95.78553, 27.64985], [95.78363, 27.65119], [95.78267180900008, 27.65186257700003], [95.78259, 27.65192], [95.78154, 27.65265], [95.7808, 27.65317], [95.77987, 27.65382], [95.77857592600009, 27.65473460800007], [95.77854, 27.65476], [95.77786, 27.65762], [95.77718, 27.66049], [95.77726515000006, 27.661307432000058], [95.77743, 27.66289], [95.77781, 27.66659], [95.77865, 27.66948], [95.77979601800007, 27.673436252000045], [95.7798, 27.67345], [95.78154564600004, 27.674859678000075], [95.78484, 27.67752], [95.78936, 27.67798], [95.78974, 27.67802], [95.79387, 27.67843], [95.7932, 27.68245], [95.79315, 27.68264], [95.79251, 27.68654], [95.79248192700004, 27.686544206000065], [95.78657, 27.68743], [95.77816, 27.68869], [95.77459402100004, 27.690655638000067], [95.77406, 27.69095], [95.77398716700009, 27.690986417000033], [95.77394, 27.69101], [95.77314219600004, 27.69240082500005], [95.77207, 27.69427], [95.77228364000007, 27.69592418900004], [95.77242, 27.69698], [95.77277, 27.69968], [95.77242431000008, 27.702551149000044], [95.77205, 27.70566], [95.77183, 27.70617], [95.77141, 27.70711], [95.76996, 27.71036], [95.76942, 27.71085], [95.7685, 27.71168], [95.76719, 27.71286], [95.76653, 27.71345], [95.76252, 27.71704], [95.75995, 27.71943], [95.75866, 27.72064], [95.75817, 27.72109], [95.75813, 27.72154], [95.75792451300003, 27.72348723600004], [95.75792, 27.72353], [95.75772, 27.72552], [95.75778967700006, 27.725548306000064], [95.75804, 27.72565], [95.76217, 27.72733], [95.7653, 27.72786], [95.76566207800005, 27.727922541000055], [95.7664, 27.72805], [95.76953, 27.72858], [95.77135, 27.72889], [95.77986128700007, 27.73235902400006], [95.78159280100004, 27.733064754000054], [95.78419773800005, 27.73412647200007], [95.78428, 27.73416], [95.78426966200004, 27.73420520600007], [95.78309056400008, 27.739361173000077], [95.782, 27.74413], [95.78155, 27.74609], [95.7812, 27.74763], [95.78032, 27.75147], [95.78006, 27.75264], [95.78835, 27.75947], [95.79065, 27.76212], [95.7934, 27.76529], [95.79493, 27.76705], [95.79694, 27.76858], [95.79934, 27.77041], [95.80048, 27.77128], [95.80309, 27.77451], [95.8059, 27.77805], [95.80668, 27.78203], [95.80713, 27.78438], [95.81087, 27.78814], [95.81839, 27.79803], [95.8227, 27.80369], [95.82852, 27.80809], [95.82979, 27.80853], [95.83455, 27.8102], [95.84295, 27.81589], [95.84328, 27.81696], [95.8456, 27.82453], [95.84864, 27.82653], [95.85169, 27.82854], [95.86243, 27.83181], [95.8646, 27.83247], [95.86593, 27.83288], [95.87213, 27.83398], [95.87287, 27.83411], [95.87332, 27.83419], [95.87526, 27.83601], [95.87747, 27.83808], [95.87896, 27.83948], [95.88424, 27.84444], [95.88527, 27.84541], [95.88655, 27.84665], [95.88789, 27.8487], [95.88833, 27.84902], [95.89169, 27.85143], [95.89288, 27.85549], [95.89304, 27.85604], [95.8935, 27.85764], [95.89359, 27.85794], [95.89406, 27.85955], [95.89428, 27.86028], [95.89467, 27.86162], [95.89498, 27.86159], [95.89603, 27.86149], [95.89673, 27.86142], [95.89682, 27.86141], [95.90017, 27.86108], [95.90116, 27.86166], [95.90136, 27.86178], [95.90253, 27.86246], [95.90346, 27.86301], [95.90393, 27.86329], [95.90503, 27.86393], [95.90662, 27.86485], [95.90613, 27.86891], [95.90602, 27.86983], [95.9058, 27.87163], [95.91099, 27.86741], [95.91253, 27.87253], [95.91363, 27.87524], [95.91829, 27.87716], [95.92027, 27.87886], [95.92224, 27.88057], [95.92159, 27.88272], [95.92093, 27.88487], [95.9234, 27.88472], [95.92547, 27.88293], [95.92762, 27.88449], [95.9282, 27.88491], [95.92358, 27.89041], [95.92467, 27.89535], [95.9283, 27.89726], [95.93314, 27.89746], [95.93799, 27.89765], [95.93826, 27.89945], [95.93899, 27.90421], [95.94311, 27.90699], [95.94318, 27.90704], [95.94753, 27.91197], [95.95216, 27.91722], [95.95259, 27.91783], [95.95357, 27.91922], [95.95499, 27.92123], [95.95351, 27.92465], [95.95725, 27.92729], [95.95647, 27.92793], [95.9557, 27.92858], [95.95472, 27.9294], [95.95285, 27.93096], [95.95267, 27.93111], [95.95207, 27.93161], [95.95126, 27.93361], [95.95202, 27.93628], [95.96493, 27.94707], [95.9657, 27.94807], [95.96681, 27.94951], [95.96854, 27.95174], [95.96924, 27.95265], [95.97011, 27.95378], [95.97719, 27.96294]]]}}]}