{"type": "FeatureCollection", "features": [{"type": "Feature", "properties": {"Name": "Udalguri"}, "geometry": {"type": "Polygon", "coordinates": [[[92.10413, 26.88634], [92.10083, 26.88081], [92.10065, 26.87887], [92.10019, 26.87392], [92.09961, 26.86753], [92.0911, 26.85991], [92.08652, 26.86072], [92.08466, 26.86105], [92.08401, 26.86056], [92.0791, 26.85686], [92.07874, 26.85659], [92.07851, 26.85655], [92.07312, 26.85566], [92.07249, 26.85526], [92.06462, 26.85011], [92.06309, 26.84911], [92.05737, 26.84701], [92.04772, 26.8465], [92.0313, 26.84894], [92.02637, 26.8494], [92.02265, 26.84973], [92.01921, 26.85005], [92.00551, 26.85268], [92.00286, 26.85314], [91.99644, 26.85426], [91.98787, 26.85727], [91.98089, 26.86193], [91.97512, 26.86596], [91.97217, 26.86955], [91.96774, 26.87271], [91.96226, 26.87662], [91.96192, 26.8772], [91.95634, 26.88679], [91.95147, 26.88971], [91.94441, 26.89394], [91.94226, 26.89495], [91.93778, 26.89705], [91.92582, 26.90267], [91.92344, 26.90382], [91.91177, 26.90945], [91.89975, 26.91524], [91.89139, 26.91564], [91.88677, 26.91537], [91.88595, 26.91533], [91.8827, 26.91493], [91.86874, 26.91342], [91.86029, 26.91317], [91.85598, 26.91143], [91.85177, 26.90445], [91.85108, 26.90331], [91.84197, 26.8882], [91.83925, 26.88369], [91.83602, 26.87833], [91.8348, 26.8763], [91.83433, 26.87554], [91.83391, 26.87516], [91.83059, 26.87224], [91.83033, 26.87201], [91.82779, 26.86978], [91.8254, 26.86768], [91.82106, 26.86389], [91.82061, 26.86347], [91.819, 26.86217], [91.81638, 26.8602], [91.80445, 26.85123], [91.78603, 26.84218], [91.7774, 26.83794], [91.77591, 26.83706], [91.76935, 26.83324], [91.76558, 26.83099], [91.76159, 26.82862], [91.75832, 26.8269], [91.75491, 26.82512], [91.74769, 26.82133], [91.74326, 26.81901], [91.72945, 26.81176], [91.72151, 26.81072], [91.71273, 26.81115], [91.70674, 26.81108], [91.70721, 26.80879], [91.70737, 26.80804], [91.70843, 26.80293], [91.70845, 26.80284], [91.70884, 26.80096], [91.70957, 26.79747], [91.70971, 26.79678], [91.71046, 26.79387], [91.71108, 26.79141], [91.71118, 26.79115], [91.71128, 26.79089], [91.71155, 26.78967], [91.71421, 26.78401], [91.71425, 26.78316], [91.71426, 26.78309], [91.7143, 26.78223], [91.71439, 26.7802], [91.71455, 26.77692], [91.71474, 26.77615], [91.71521, 26.7742], [91.71592, 26.77127], [91.71956, 26.75623], [91.71966, 26.75581], [91.7201, 26.75398], [91.72021, 26.75353], [91.72026, 26.75331], [91.72027, 26.75327], [91.72201, 26.74965], [91.72218, 26.74931], [91.72231, 26.74904], [91.72365, 26.74626], [91.72529, 26.74285], [91.72702, 26.74024], [91.72752, 26.73949], [91.72826, 26.73836], [91.72986, 26.73595], [91.73105, 26.73466], [91.73424, 26.73121], [91.73583, 26.72949], [91.73574, 26.72783], [91.73567, 26.72652], [91.73565, 26.72606], [91.7354, 26.7214], [91.73518, 26.71717], [91.73498, 26.71341], [91.73493, 26.71236], [91.7376, 26.70746], [91.73814, 26.70647], [91.73856, 26.70569], [91.74198, 26.69944], [91.74233, 26.6988], [91.74147, 26.6957], [91.74056, 26.69244], [91.74293, 26.68939], [91.7437, 26.6884], [91.74477, 26.68703], [91.74496, 26.68611], [91.74539, 26.68407], [91.74554, 26.68335], [91.7455, 26.683], [91.74509, 26.67884], [91.74453, 26.67771], [91.74421, 26.67708], [91.74317, 26.67503], [91.74309, 26.67403], [91.74282, 26.67055], [91.7427, 26.66896], [91.74269, 26.66889], [91.73915, 26.66853], [91.73705, 26.66833], [91.73553, 26.66467], [91.73536, 26.66307], [91.73519, 26.66156], [91.73498, 26.65955], [91.73479, 26.65784], [91.73569, 26.65398], [91.73598, 26.65271], [91.74063, 26.65178], [91.74257, 26.64841], [91.74352, 26.64799], [91.7444, 26.64761], [91.74684, 26.64654], [91.74701, 26.64646], [91.74688, 26.64624], [91.7454, 26.64376], [91.74504, 26.64315], [91.74363, 26.64244], [91.74076, 26.64101], [91.74021, 26.64074], [91.74027, 26.64014], [91.74049, 26.63769], [91.74534, 26.63756], [91.74693, 26.63718], [91.74966, 26.63652], [91.74971, 26.63509], [91.74972, 26.63481], [91.74975, 26.63394], [91.74901, 26.63324], [91.74775, 26.63205], [91.74736, 26.63167], [91.74524, 26.63097], [91.74486, 26.63084], [91.7402, 26.63188], [91.73806, 26.62989], [91.7389, 26.62603], [91.74382, 26.62676], [91.74629, 26.62713], [91.74747, 26.6273], [91.74802, 26.62557], [91.74691, 26.6245], [91.74604, 26.62368], [91.74577, 26.62343], [91.74497, 26.62267], [91.74471, 26.62185], [91.74421, 26.62029], [91.74384, 26.61912], [91.74367, 26.61887], [91.74168, 26.61587], [91.74155, 26.61225], [91.74366, 26.61144], [91.74512, 26.61088], [91.74491, 26.61059], [91.74382, 26.60906], [91.74233, 26.60698], [91.74196, 26.60646], [91.74081, 26.60484], [91.74095, 26.60411], [91.74133, 26.60225], [91.74135, 26.60216], [91.74152, 26.60132], [91.74534, 26.60317], [91.74628, 26.60362], [91.74817, 26.60388], [91.74894, 26.60393], [91.75107, 26.60419], [91.75182, 26.60226], [91.75188, 26.6021], [91.74953, 26.59932], [91.7487, 26.59524], [91.74598, 26.59174], [91.74592, 26.59165], [91.74582, 26.59153], [91.74473, 26.59012], [91.74556, 26.5894], [91.74605, 26.58898], [91.74657, 26.58853], [91.74697, 26.58818], [91.74781, 26.58745], [91.74854, 26.58682], [91.7488, 26.5866], [91.74887, 26.58653], [91.74907, 26.58636], [91.74939, 26.58609], [91.74928, 26.58498], [91.74909, 26.58287], [91.74936, 26.58205], [91.74987, 26.58046], [91.75001, 26.58004], [91.75037, 26.57895], [91.75486, 26.576], [91.75679, 26.57619], [91.7573, 26.57624], [91.75799, 26.57631], [91.75809, 26.57632], [91.75816, 26.57632], [91.7586, 26.57636], [91.75918, 26.57642], [91.76004, 26.57651], [91.76281, 26.57411], [91.76573, 26.57033], [91.76725, 26.56836], [91.76716, 26.56653], [91.76711, 26.56553], [91.76707, 26.56474], [91.76727, 26.56438], [91.76735, 26.56424], [91.76741, 26.56413], [91.76802, 26.56305], [91.77224, 26.55561], [91.77253, 26.5551], [91.77283, 26.55457], [91.77397, 26.55257], [91.77419, 26.55232], [91.77559, 26.55071], [91.77692, 26.54919], [91.77978, 26.54835], [91.7806, 26.54811], [91.77991, 26.54467], [91.78041, 26.54314], [91.78074, 26.54212], [91.78137, 26.54022], [91.78151, 26.5401], [91.78338, 26.53857], [91.78494, 26.5373], [91.78532, 26.53666], [91.78246, 26.53295], [91.78229, 26.53274], [91.77999, 26.52994], [91.77882, 26.52852], [91.78299, 26.52938], [91.7861, 26.52894], [91.78523, 26.52573], [91.78119, 26.5248], [91.78034, 26.52412], [91.77899, 26.52305], [91.7805, 26.5223], [91.78435, 26.52038], [91.78526, 26.51992], [91.7848, 26.51789], [91.78458, 26.51694], [91.78437, 26.51677], [91.78421, 26.51664], [91.78351, 26.51608], [91.78313, 26.51576], [91.78186, 26.51473], [91.78168, 26.5115], [91.78242, 26.51045], [91.78491, 26.5069], [91.7851, 26.50663], [91.78531, 26.50634], [91.78564, 26.50587], [91.78624, 26.50501], [91.78644, 26.50438], [91.78662, 26.5038], [91.78684, 26.50313], [91.78691, 26.5029], [91.78742, 26.50128], [91.78806, 26.50112], [91.78843, 26.50102], [91.79465, 26.49989], [91.79873, 26.49947], [91.80167, 26.49916], [91.80212, 26.50067], [91.80224, 26.50111], [91.80242, 26.50173], [91.80255, 26.50272], [91.80195, 26.50309], [91.80196, 26.50321], [91.80219, 26.50552], [91.80219, 26.50574], [91.80219, 26.5066], [91.80198, 26.50742], [91.80187, 26.50806], [91.80163, 26.50924], [91.80138, 26.50953], [91.801, 26.50997], [91.80107, 26.51133], [91.80036, 26.51225], [91.80019, 26.51377], [91.80019, 26.5138], [91.80004, 26.51533], [91.80045, 26.51591], [91.80067, 26.51622], [91.80081, 26.51688], [91.801, 26.51691], [91.80178, 26.51701], [91.80623, 26.51657], [91.80713, 26.51639], [91.8079, 26.51631], [91.80842, 26.51642], [91.80951, 26.51664], [91.81169, 26.51668], [91.81341, 26.51693], [91.81344, 26.51693], [91.81419, 26.517], [91.81517, 26.51707], [91.81675, 26.5172], [91.81787, 26.51742], [91.81836, 26.51758], [91.81881, 26.5176], [91.82121, 26.5177], [91.82214, 26.51753], [91.82339, 26.51713], [91.82395, 26.51631], [91.82436, 26.51627], [91.82539, 26.51617], [91.82605, 26.51604], [91.82631, 26.51599], [91.82859, 26.51552], [91.8298, 26.5155], [91.8317, 26.51548], [91.83188, 26.51553], [91.83229, 26.51492], [91.83283, 26.51495], [91.833, 26.51496], [91.83345, 26.51499], [91.83359, 26.515], [91.83446, 26.51514], [91.83523, 26.51535], [91.83566, 26.51537], [91.83603, 26.5154], [91.83609, 26.5154], [91.83641, 26.51526], [91.83637, 26.51427], [91.83514, 26.51375], [91.8349, 26.51349], [91.83543, 26.51303], [91.83618, 26.5125], [91.83661, 26.51236], [91.83715, 26.51198], [91.8368, 26.51147], [91.83579, 26.51118], [91.8351, 26.51065], [91.8343, 26.51013], [91.83449, 26.50949], [91.83503, 26.50887], [91.83546, 26.50841], [91.83602, 26.5083], [91.83646, 26.50821], [91.83713, 26.50816], [91.83791, 26.50828], [91.83859, 26.50855], [91.83928, 26.50874], [91.84107, 26.50882], [91.84174, 26.50877], [91.84267, 26.50868], [91.84299, 26.50857], [91.84298, 26.50846], [91.84643, 26.5085], [91.84952, 26.50854], [91.85334, 26.50857], [91.85334, 26.50864], [91.85358, 26.51128], [91.85367, 26.51326], [91.85394, 26.51326], [91.85551, 26.51443], [91.85614, 26.5149], [91.85806, 26.51667], [91.85865, 26.51721], [91.86064, 26.51937], [91.86073, 26.51944], [91.86148, 26.52006], [91.86197, 26.52099], [91.86195, 26.52215], [91.86211, 26.52268], [91.8611, 26.52354], [91.86025, 26.52453], [91.85975, 26.52516], [91.85947, 26.5253], [91.85908, 26.52551], [91.85757, 26.52582], [91.85641, 26.52641], [91.85574, 26.52664], [91.85525, 26.52726], [91.85493, 26.52815], [91.85444, 26.5289], [91.85436, 26.52935], [91.85429, 26.5298], [91.85397, 26.53057], [91.85516, 26.53363], [91.85664, 26.53397], [91.85813, 26.53458], [91.8583, 26.53564], [91.8583, 26.53616], [91.8588, 26.53697], [91.86302, 26.53796], [91.86345, 26.53806], [91.86802, 26.53913], [91.87247, 26.54086], [91.87574, 26.54213], [91.88074, 26.5425], [91.88454, 26.54278], [91.88506, 26.54282], [91.88607, 26.5429], [91.88731, 26.54299], [91.88944, 26.54327], [91.89374, 26.54385], [91.89676, 26.54509], [91.90042, 26.5466], [91.90102, 26.54685], [91.90745, 26.55242], [91.90935, 26.55396], [91.90982, 26.55434], [91.91508, 26.55859], [91.91645, 26.5597], [91.92039, 26.56387], [91.92259, 26.5662], [91.92279, 26.56641], [91.92336, 26.56702], [91.92374, 26.56742], [91.92621, 26.56901], [91.92723, 26.56967], [91.92974, 26.57128], [91.93057, 26.57133], [91.93271, 26.57147], [91.93617, 26.5717], [91.93713, 26.5711], [91.94012, 26.56923], [91.94302, 26.56742], [91.9484, 26.56185], [91.94981, 26.5604], [91.95214, 26.55798], [91.95545, 26.55456], [91.95888, 26.55377], [91.9666, 26.55199], [91.97217, 26.55456], [91.97391, 26.5555], [91.97672, 26.55701], [91.97774, 26.55756], [91.97871, 26.558], [91.97984, 26.5585], [91.98024, 26.55868], [91.98031, 26.55871], [91.98154, 26.55925], [91.98545, 26.56099], [91.98644, 26.5612], [91.99286, 26.56254], [91.9936, 26.5627], [91.9966, 26.5627], [91.99975, 26.5627], [92.00191, 26.5627], [92.00345, 26.5627], [92.00689, 26.5615], [92.01203, 26.5597], [92.01843, 26.5565], [92.01869, 26.55637], [92.01888, 26.55628], [92.02105, 26.55411], [92.02445, 26.5507], [92.025, 26.54994], [92.02823, 26.54547], [92.02857, 26.5451], [92.03059, 26.54288], [92.03173, 26.54145], [92.03156, 26.53985], [92.03504, 26.539], [92.03601, 26.53876], [92.03804, 26.53595], [92.04088, 26.53203], [92.04518, 26.52609], [92.04863, 26.52132], [92.04607, 26.5181], [92.04404, 26.51556], [92.04642, 26.51536], [92.04783, 26.51549], [92.049, 26.51551], [92.05083, 26.51496], [92.05094, 26.51477], [92.05006, 26.51378], [92.04918, 26.51362], [92.04835, 26.51302], [92.04825, 26.51191], [92.04804, 26.5087], [92.04827, 26.50656], [92.04842, 26.50507], [92.04877, 26.50348], [92.04885, 26.50276], [92.04794, 26.5013], [92.04788, 26.50028], [92.04795, 26.50018], [92.04851, 26.49942], [92.04894, 26.49871], [92.0492, 26.49845], [92.04994, 26.49771], [92.04985, 26.49699], [92.04976, 26.49627], [92.05061, 26.49498], [92.05071, 26.49477], [92.05147, 26.4946], [92.05333, 26.49383], [92.05361, 26.49387], [92.05449, 26.49401], [92.05723, 26.49347], [92.05832, 26.49325], [92.06037, 26.49248], [92.06082, 26.49201], [92.06131, 26.49122], [92.0613, 26.49114], [92.06127, 26.49068], [92.06319, 26.49026], [92.06387, 26.48934], [92.06515, 26.48826], [92.06613, 26.48811], [92.06617, 26.4881], [92.06907, 26.48766], [92.06915, 26.48767], [92.06982, 26.48772], [92.07031, 26.48736], [92.07046, 26.4869], [92.07067, 26.48622], [92.07072, 26.48606], [92.07064, 26.48465], [92.07061, 26.48279], [92.071, 26.4798], [92.07096, 26.4782], [92.07052, 26.47693], [92.07051, 26.47691], [92.07052, 26.47591], [92.07808, 26.4786], [92.07971, 26.47835], [92.08154, 26.47807], [92.08322, 26.47781], [92.08434, 26.47757], [92.08742, 26.47691], [92.08875, 26.47662], [92.08997, 26.47845], [92.09114, 26.48021], [92.0927, 26.48255], [92.09265, 26.48371], [92.09256, 26.48544], [92.09255, 26.48567], [92.09253, 26.48616], [92.09245, 26.4883], [92.09233, 26.49149], [92.09231, 26.49203], [92.09185, 26.4936], [92.08966, 26.50116], [92.08886, 26.5039], [92.08875, 26.50428], [92.08778, 26.51308], [92.08757, 26.51495], [92.08923, 26.52013], [92.09053, 26.52418], [92.0908, 26.52501], [92.09112, 26.52601], [92.09233, 26.53018], [92.0924, 26.53043], [92.09317, 26.53305], [92.09429, 26.53691], [92.09518, 26.53995], [92.09665, 26.54498], [92.09623, 26.5508], [92.09623, 26.55087], [92.09587, 26.55588], [92.09586, 26.55604], [92.09369, 26.55757], [92.09121, 26.55933], [92.08915, 26.56078], [92.08164, 26.55999], [92.07941, 26.55888], [92.0753, 26.55682], [92.07466, 26.5565], [92.07295, 26.55565], [92.0696, 26.55436], [92.06267, 26.5517], [92.05888, 26.55043], [92.05556, 26.54932], [92.05535, 26.54957], [92.05452, 26.55056], [92.05126, 26.55448], [92.04963, 26.55644], [92.04903, 26.55734], [92.04625, 26.56152], [92.04614, 26.56169], [92.0441, 26.56474], [92.04054, 26.57276], [92.03778, 26.57896], [92.03726, 26.5801], [92.03682, 26.58106], [92.03664, 26.58145], [92.03342, 26.58849], [92.03406, 26.58902], [92.03451, 26.58939], [92.03541, 26.58981], [92.03562, 26.58991], [92.03651, 26.59032], [92.03684, 26.59043], [92.0372, 26.59227], [92.03669, 26.59341], [92.03586, 26.59416], [92.03458, 26.5948], [92.03455, 26.59547], [92.03447, 26.59591], [92.0344, 26.59634], [92.03413, 26.5972], [92.034, 26.59758], [92.03366, 26.59761], [92.0332, 26.59765], [92.03272, 26.59764], [92.03251, 26.59763], [92.03218, 26.59762], [92.03081, 26.59786], [92.03001, 26.59813], [92.02886, 26.59847], [92.02702, 26.60055], [92.02668, 26.60047], [92.02623, 26.60133], [92.02564, 26.60191], [92.02492, 26.60237], [92.02488, 26.60322], [92.02521, 26.60529], [92.02538, 26.60696], [92.0255, 26.60822], [92.02552, 26.60835], [92.02653, 26.60827], [92.02663, 26.60826], [92.02869, 26.60942], [92.0295, 26.61031], [92.03031, 26.61107], [92.03094, 26.61304], [92.03155, 26.61514], [92.03345, 26.61749], [92.03367, 26.61776], [92.03369, 26.61778], [92.03395, 26.61828], [92.03473, 26.61978], [92.0354, 26.62066], [92.03607, 26.62188], [92.0371, 26.62166], [92.03715, 26.62167], [92.0382, 26.62289], [92.03932, 26.62313], [92.0398, 26.62358], [92.03997, 26.62374], [92.04136, 26.62537], [92.04286, 26.627], [92.0436, 26.62811], [92.04423, 26.62848], [92.04558, 26.62927], [92.0476, 26.62936], [92.04912, 26.62972], [92.0496, 26.62983], [92.05089, 26.63036], [92.05148, 26.6306], [92.0523, 26.63089], [92.0537, 26.63138], [92.05622, 26.63277], [92.05631, 26.63327], [92.05631, 26.63405], [92.05631, 26.63585], [92.05737, 26.63748], [92.05745, 26.63762], [92.05796, 26.63847], [92.05852, 26.63941], [92.05836, 26.64109], [92.06076, 26.64119], [92.06325, 26.6413], [92.0634, 26.64545], [92.06344, 26.64667], [92.06353, 26.64931], [92.0637, 26.64925], [92.06408, 26.65232], [92.06469, 26.65552], [92.06496, 26.6569], [92.06577, 26.65941], [92.0658, 26.65977], [92.06596, 26.6619], [92.06687, 26.66249], [92.0674, 26.66242], [92.06792, 26.66235], [92.06842, 26.66229], [92.07, 26.66181], [92.07217, 26.6615], [92.07359, 26.66088], [92.07428, 26.65967], [92.07469, 26.65967], [92.07675, 26.65965], [92.07793, 26.65932], [92.078, 26.6593], [92.08111, 26.65929], [92.08327, 26.65928], [92.08395, 26.65907], [92.08656, 26.65825], [92.08557, 26.6572], [92.08499, 26.65649], [92.08511, 26.65415], [92.08574, 26.6539], [92.08713, 26.65397], [92.08777, 26.65358], [92.08849, 26.65244], [92.08878, 26.65198], [92.08962, 26.6505], [92.09018, 26.64697], [92.0903, 26.64625], [92.09287, 26.64196], [92.09351, 26.64196], [92.09702, 26.64193], [92.09769, 26.64193], [92.10289, 26.64195], [92.10461, 26.64196], [92.10509, 26.64196], [92.10703, 26.64197], [92.10848, 26.64153], [92.10854, 26.64151], [92.10859, 26.6415], [92.1087, 26.6414], [92.10972, 26.64046], [92.11025, 26.63827], [92.11031, 26.63804], [92.1103, 26.63556], [92.1103, 26.63517], [92.10922, 26.63431], [92.11129, 26.63361], [92.1137, 26.63402], [92.11425, 26.63426], [92.11742, 26.63567], [92.11847, 26.63614], [92.12268, 26.63652], [92.12574, 26.63679], [92.12635, 26.63701], [92.1286, 26.63781], [92.12973, 26.63865], [92.12985, 26.63874], [92.13041, 26.64008], [92.13032, 26.64169], [92.13031, 26.64195], [92.13055, 26.64349], [92.12703, 26.64551], [92.12682, 26.64648], [92.1271, 26.64722], [92.13198, 26.6493], [92.1339, 26.65012], [92.13557, 26.65057], [92.13711, 26.65099], [92.14068, 26.65206], [92.14085, 26.65211], [92.142, 26.65234], [92.14643, 26.6528], [92.14733, 26.65289], [92.1501, 26.65378], [92.15091, 26.65405], [92.15113, 26.65412], [92.15287, 26.65517], [92.15598, 26.65705], [92.16017, 26.65958], [92.16295, 26.66097], [92.16369, 26.66134], [92.16505, 26.66202], [92.1658, 26.66239], [92.1663, 26.66249], [92.16686, 26.66261], [92.17059, 26.66339], [92.17092, 26.66346], [92.17824, 26.665], [92.17836, 26.66503], [92.17965, 26.6653], [92.1802, 26.66546], [92.18369, 26.66646], [92.18481, 26.66678], [92.18594, 26.66711], [92.18947, 26.66449], [92.19208, 26.66256], [92.19255, 26.66225], [92.19358, 26.66156], [92.19843, 26.65833], [92.20266, 26.65198], [92.2087, 26.64919], [92.20901, 26.64669], [92.21165, 26.64325], [92.2143, 26.63981], [92.21455, 26.63847], [92.21589, 26.63135], [92.21694, 26.63088], [92.21892, 26.63], [92.22065, 26.62923], [92.22409, 26.62406], [92.22594, 26.62129], [92.22736, 26.61901], [92.22792, 26.61812], [92.22977, 26.61517], [92.2327, 26.61047], [92.2336, 26.60904], [92.23387, 26.6086], [92.23756, 26.60417], [92.2376, 26.60412], [92.24082, 26.60026], [92.24181, 26.59907], [92.24328, 26.58581], [92.24382, 26.58091], [92.24392, 26.58003], [92.24442, 26.57854], [92.24551, 26.57527], [92.25715, 26.57104], [92.26207, 26.5732], [92.26838, 26.57597], [92.27038, 26.57685], [92.27057, 26.58107], [92.27084, 26.58694], [92.27091, 26.58849], [92.27111, 26.59517], [92.27003, 26.59895], [92.26998, 26.60273], [92.27143, 26.60595], [92.27317, 26.6119], [92.27514, 26.61865], [92.27935, 26.62076], [92.28254, 26.62235], [92.28978, 26.62182], [92.29231, 26.62161], [92.29496, 26.6214], [92.29513, 26.61954], [92.29512, 26.61937], [92.29347, 26.61904], [92.29337, 26.61898], [92.29129, 26.61781], [92.29025, 26.61743], [92.28873, 26.61688], [92.28875, 26.61619], [92.28644, 26.61488], [92.28531, 26.61414], [92.28445, 26.61334], [92.28261, 26.61163], [92.28079, 26.61095], [92.27854, 26.60925], [92.27883, 26.60886], [92.2815, 26.60617], [92.28183, 26.60581], [92.28211, 26.60549], [92.28225, 26.60523], [92.28291, 26.60399], [92.28292, 26.60361], [92.28399, 26.60429], [92.28869, 26.60728], [92.29215, 26.61026], [92.29273, 26.61076], [92.29275, 26.61077], [92.29444, 26.61124], [92.295, 26.61161], [92.29514, 26.6117], [92.29648, 26.61257], [92.29691, 26.61278], [92.29903, 26.61379], [92.30161, 26.61436], [92.3023, 26.61446], [92.30506, 26.61484], [92.30639, 26.61528], [92.30891, 26.61245], [92.31083, 26.60995], [92.31275, 26.60975], [92.31553, 26.60729], [92.31827, 26.6066], [92.31981, 26.60674], [92.32016, 26.60677], [92.32053, 26.60691], [92.32088, 26.60704], [92.32182, 26.60739], [92.32292, 26.6078], [92.32379, 26.60913], [92.32431, 26.61122], [92.32443, 26.61234], [92.32341, 26.6144], [92.32318, 26.61515], [92.32288, 26.61615], [92.32265, 26.61654], [92.32263, 26.61658], [92.32171, 26.61704], [92.3212, 26.6176], [92.32136, 26.61842], [92.32152, 26.61928], [92.32181, 26.62255], [92.32199, 26.62362], [92.32346, 26.62447], [92.32389, 26.62484], [92.32579, 26.62648], [92.32585, 26.62653], [92.32591, 26.62658], [92.32728, 26.62672], [92.32875, 26.62629], [92.32861, 26.6246], [92.32745, 26.62166], [92.32738, 26.62149], [92.32476, 26.6196], [92.32474, 26.61903], [92.32498, 26.61883], [92.32606, 26.61846], [92.32512, 26.61736], [92.32465, 26.6168], [92.3245, 26.61663], [92.32438, 26.61615], [92.32388, 26.61414], [92.32451, 26.61339], [92.32507, 26.61272], [92.33019, 26.61116], [92.33084, 26.61096], [92.33076, 26.61033], [92.33054, 26.60859], [92.33048, 26.60807], [92.32985, 26.60775], [92.32685, 26.60625], [92.32854, 26.60463], [92.33662, 26.60186], [92.33733, 26.60162], [92.33743, 26.60158], [92.33977, 26.60078], [92.34068, 26.60047], [92.34127, 26.59835], [92.34154, 26.59738], [92.34069, 26.59701], [92.33943, 26.59646], [92.33904, 26.59629], [92.33903, 26.59628], [92.33628, 26.59622], [92.33616, 26.59602], [92.33584, 26.59503], [92.33612, 26.59422], [92.33761, 26.59326], [92.33849, 26.59269], [92.33973, 26.59174], [92.34076, 26.59095], [92.34105, 26.59073], [92.3415, 26.59038], [92.34426, 26.58986], [92.34677, 26.5889], [92.34855, 26.58822], [92.35025, 26.58787], [92.35216, 26.58748], [92.35583, 26.58532], [92.35749, 26.58544], [92.3593, 26.58558], [92.36227, 26.5858], [92.3626, 26.58582], [92.36441, 26.5829], [92.36535269400008, 26.583157880000044], [92.3677, 26.5838], [92.37223, 26.58437], [92.37271, 26.58506], [92.37532, 26.58883], [92.37688, 26.59108], [92.37732, 26.59172], [92.37741, 26.59186], [92.37797, 26.59275], [92.37883, 26.59413], [92.37886, 26.59418], [92.37932, 26.59492], [92.38051, 26.59683], [92.38254, 26.60008], [92.38284, 26.60056], [92.38298, 26.60078], [92.3836, 26.60208], [92.38408, 26.6031], [92.38459, 26.60418], [92.38568, 26.60647], [92.38603, 26.60721], [92.38703, 26.60932], [92.38808, 26.61153], [92.38827, 26.61195], [92.38901, 26.61355], [92.39052, 26.61683], [92.39069, 26.6172], [92.39147, 26.61889], [92.39674, 26.61942], [92.39713, 26.61946], [92.4011, 26.62314], [92.40505, 26.62681], [92.40685, 26.62841], [92.40842, 26.6298], [92.41015, 26.63134], [92.41044, 26.63176], [92.41235, 26.63456], [92.41566, 26.63942], [92.41586, 26.63972], [92.41864, 26.64379], [92.41735, 26.64851], [92.4173, 26.64871], [92.41694, 26.65002], [92.40752, 26.65051], [92.40619, 26.65058], [92.40186, 26.65082], [92.396, 26.65115], [92.3926, 26.65172], [92.38921, 26.65228], [92.38834, 26.65423], [92.38808, 26.65481], [92.38694, 26.65737], [92.38679, 26.65836], [92.38534, 26.66776], [92.38531, 26.66798], [92.38502, 26.66985], [92.38468, 26.67209], [92.38464, 26.67231], [92.38414, 26.67481], [92.38326, 26.67918], [92.38242, 26.68341], [92.38229, 26.6859], [92.38221, 26.68732], [92.38202, 26.69098], [92.38188, 26.69366], [92.38185, 26.69416], [92.37929, 26.69672], [92.37833, 26.69768], [92.37676, 26.69925], [92.36997, 26.69982], [92.36921, 26.69754], [92.36852, 26.69547], [92.36829, 26.69479], [92.36618, 26.68845], [92.36487, 26.68454], [92.36442, 26.68259], [92.36041, 26.66537], [92.3604, 26.66532], [92.35921, 26.6602], [92.35579, 26.65849], [92.35242, 26.65681], [92.34814, 26.65815], [92.34337, 26.65964], [92.33807313200003, 26.664770520000047], [92.33732, 26.6655], [92.33533, 26.66798], [92.33442, 26.66912], [92.33401, 26.66963], [92.33545, 26.67176], [92.3356, 26.67198], [92.33701, 26.67408], [92.33593, 26.68554], [92.33593, 26.68557], [92.33585, 26.68645], [92.33564, 26.68873], [92.33605, 26.69021], [92.33613, 26.69049], [92.33651, 26.6919], [92.33654, 26.69201], [92.33698, 26.69359], [92.3371, 26.69404], [92.33714, 26.69419], [92.33726, 26.69461], [92.33727, 26.69466], [92.33729, 26.69471], [92.3373, 26.69477], [92.33732, 26.69484], [92.33733, 26.69488], [92.33743, 26.69524], [92.33762, 26.69591], [92.33818, 26.69796], [92.33823, 26.69854], [92.33826, 26.69896], [92.33828, 26.69918], [92.33838, 26.70058], [92.3384, 26.7008], [92.33841, 26.70101], [92.33838, 26.70119], [92.33827, 26.70179], [92.33815, 26.70242], [92.33805, 26.7029], [92.33791, 26.70365], [92.33744, 26.70612], [92.33813, 26.70813], [92.33819, 26.70831], [92.33846, 26.7091], [92.33906, 26.71086], [92.33911, 26.711], [92.33928, 26.71148], [92.33953, 26.71223], [92.33957, 26.71233], [92.33975, 26.71286], [92.3399, 26.71329], [92.33979, 26.71393], [92.33973, 26.71423], [92.3394, 26.71592], [92.33939, 26.71598], [92.33932, 26.71632], [92.33927, 26.71658], [92.3391, 26.71744], [92.33866, 26.71967], [92.33858, 26.72009], [92.33837, 26.72115], [92.33833, 26.72132], [92.33751, 26.72322], [92.33705, 26.72428], [92.33696, 26.72448], [92.33691, 26.72461], [92.33695, 26.72677], [92.33786854100003, 26.72707618100003], [92.33872, 26.72736], [92.34257, 26.72571], [92.34363, 26.72521], [92.34615, 26.72404], [92.34628, 26.72398], [92.34772, 26.72419], [92.35041, 26.72682], [92.35181, 26.72833], [92.35354, 26.72742], [92.35473, 26.72697], [92.3547, 26.72718], [92.35451, 26.72743], [92.35598, 26.72725], [92.35629, 26.72721], [92.35761, 26.72685], [92.35808, 26.72691], [92.35829, 26.72755], [92.35779, 26.72881], [92.35669, 26.7298], [92.35577, 26.73182], [92.35575, 26.73182], [92.35133, 26.73286], [92.34883, 26.73357], [92.34738, 26.73393], [92.34232, 26.73519], [92.33975, 26.73562], [92.33928, 26.7357], [92.33757, 26.73598], [92.33646, 26.73595], [92.33515, 26.73593], [92.33504, 26.73593], [92.33466, 26.73548], [92.33411, 26.73574], [92.33276, 26.73637], [92.33257, 26.73655], [92.33116, 26.73791], [92.33047, 26.73857], [92.3297, 26.74103], [92.33069, 26.74258], [92.3317, 26.74419], [92.3319, 26.7445], [92.33198, 26.74462], [92.33244, 26.74535], [92.33242, 26.74544], [92.33189, 26.74765], [92.33187, 26.74775], [92.33129, 26.75016], [92.33103, 26.75125], [92.33041, 26.75383], [92.33043, 26.75392], [92.33087, 26.75569], [92.33221, 26.75851], [92.33299, 26.76016], [92.33385780900005, 26.759256874000073], [92.33471, 26.75837], [92.33543, 26.75749], [92.33585, 26.75698], [92.33647, 26.75628], [92.33717, 26.75548], [92.33827, 26.75623], [92.34044, 26.75697], [92.3431, 26.7574], [92.34265, 26.75812], [92.34172, 26.75882], [92.34114, 26.7594], [92.34059, 26.76005], [92.34059, 26.76058], [92.34047, 26.761], [92.33929, 26.76134], [92.338, 26.7628], [92.33827, 26.7633], [92.3388, 26.76356], [92.3392, 26.76404], [92.33921, 26.7648], [92.3386, 26.76648], [92.33871, 26.76681], [92.33849, 26.76676], [92.33454, 26.76574], [92.33222, 26.77088], [92.33189, 26.77161], [92.33324, 26.7716], [92.33654, 26.77156], [92.33667, 26.77155], [92.33749826900004, 26.771382584000037], [92.34231, 26.77041], [92.34230184700004, 26.77048686300003], [92.34217, 26.77173], [92.34213, 26.77214], [92.34168, 26.7728], [92.33958, 26.77587], [92.3384, 26.7776], [92.33814, 26.77798], [92.3381, 26.77815], [92.33783, 26.77934], [92.33739, 26.78127], [92.33722, 26.782], [92.33716, 26.78225], [92.33705, 26.78274], [92.33742, 26.78307], [92.3391, 26.78459], [92.33979, 26.78522], [92.33962, 26.78715], [92.33959, 26.78746], [92.33732, 26.78967], [92.33618, 26.79077], [92.33508, 26.79184], [92.33565, 26.79305], [92.33615, 26.7941], [92.33658, 26.79499], [92.33655, 26.79504], [92.3337, 26.79929], [92.33265, 26.80086], [92.33206, 26.80174], [92.33149, 26.80571], [92.33442, 26.80894], [92.33531, 26.80992], [92.33581, 26.81048], [92.3365, 26.81124], [92.33517, 26.81317], [92.33359, 26.81418], [92.33264, 26.81479], [92.3329, 26.81577], [92.33368, 26.81873], [92.33334, 26.8216], [92.3336, 26.82203], [92.33382, 26.82239], [92.33401, 26.82271], [92.3346, 26.82274], [92.33617, 26.82281], [92.33642, 26.82293], [92.33763, 26.82349], [92.33859, 26.82394], [92.33869, 26.82398], [92.33981, 26.8245], [92.33914, 26.82518], [92.33823, 26.82609], [92.33662, 26.82771], [92.33631, 26.82802], [92.33546, 26.82887], [92.3354, 26.82894], [92.33352, 26.83082], [92.33428, 26.83332], [92.33422, 26.83359], [92.33414, 26.834], [92.33383, 26.83549], [92.33446, 26.83665], [92.33507, 26.83779], [92.33564, 26.83885], [92.33649, 26.84044], [92.33653, 26.84055], [92.33709, 26.84244], [92.33718, 26.84275], [92.33724, 26.84294], [92.33755, 26.84401], [92.33819, 26.84614], [92.34187, 26.84881], [92.34173, 26.85171], [92.34171, 26.85215], [92.34216, 26.85252], [92.34343, 26.85357], [92.34382, 26.85389], [92.34508, 26.85494], [92.3451, 26.8566], [92.34663, 26.85843], [92.34744, 26.86161], [92.34519, 26.86444], [92.34521, 26.86488], [92.34522, 26.86507], [92.34532, 26.86865], [92.34638, 26.8723], [92.34666, 26.87329], [92.34565, 26.87615], [92.3456, 26.87628], [92.34479, 26.87857], [92.34444, 26.87957], [92.34404, 26.88227], [92.34368, 26.8847], [92.34358, 26.88537], [92.34383, 26.8856], [92.34519, 26.88687], [92.34579, 26.88743], [92.34892, 26.89034], [92.35007, 26.89731], [92.35036, 26.89908], [92.35065, 26.90082], [92.3509, 26.90231], [92.35162, 26.90479], [92.35186, 26.90564], [92.35315, 26.90759], [92.35485, 26.91092], [92.35492, 26.91135], [92.35522, 26.91335], [92.35743, 26.91646], [92.35763, 26.91693], [92.35877, 26.91956], [92.35942, 26.92105], [92.36103, 26.92478], [92.3619, 26.92586], [92.3628, 26.92697], [92.36294, 26.92714], [92.36639, 26.93141], [92.36381, 26.93206], [92.36275, 26.93233], [92.35502, 26.93429], [92.34877, 26.93218], [92.3447, 26.93141], [92.34284, 26.93106], [92.34269, 26.93103], [92.34106, 26.93072], [92.34084, 26.93068], [92.33956, 26.93044], [92.33155, 26.92893], [92.32205, 26.92713], [92.31631, 26.92574], [92.31379, 26.92513], [92.31346, 26.92505], [92.31247, 26.92481], [92.3114, 26.92455], [92.30488, 26.92297], [92.30517, 26.91811], [92.30527, 26.91635], [92.30558, 26.91114], [92.30561, 26.91058], [92.30575, 26.90829], [92.30448, 26.90774], [92.30322, 26.9072], [92.30253, 26.9069], [92.30182, 26.90672], [92.2994, 26.9061], [92.29695, 26.90547], [92.29208, 26.90423], [92.28946, 26.90383], [92.28351, 26.90292], [92.28095, 26.90208], [92.27839, 26.90125], [92.27739, 26.90155], [92.27639, 26.90186], [92.26989, 26.90386], [92.26734, 26.90621], [92.26714, 26.90639], [92.26681, 26.90649], [92.26649, 26.90659], [92.26488, 26.90708], [92.26328, 26.90757], [92.25661, 26.91103], [92.2494, 26.90859], [92.24825, 26.9082], [92.23712, 26.90443], [92.22168, 26.8992], [92.21229, 26.89602], [92.21144, 26.89573], [92.20805, 26.89436], [92.20519, 26.8932], [92.20509, 26.89316], [92.20411, 26.89276], [92.19836, 26.89042], [92.19694, 26.88984], [92.19477, 26.89003], [92.18702, 26.89068], [92.17928, 26.89134], [92.17243, 26.89088], [92.17169, 26.89083], [92.17094, 26.89078], [92.16453, 26.89154], [92.15008, 26.88978], [92.1459, 26.88974], [92.14025, 26.88969], [92.13171, 26.88962], [92.12638, 26.88868], [92.12492, 26.88888], [92.12402, 26.88901], [92.12262, 26.88921], [92.12228, 26.8893], [92.1222, 26.88932], [92.12194, 26.88939], [92.11972, 26.89002], [92.11719, 26.89073], [92.1149, 26.89138], [92.11298, 26.89193], [92.11008, 26.89275], [92.10445, 26.88669], [92.10413, 26.88634]]]}}]}