{
"type": "FeatureCollection",
"name": "kamrup",
"crs": { "type": "name", "properties": { "name": "urn:ogc:def:crs:OGC:1.3:CRS84" } },
"features": [
{ "type": "Feature", "properties": { "Name": "Kamrup", "Level": "ADM2", "id": 270, "feature_id": "IND_ADM2_010300_270" }, "geometry": { "type": "Polygon", "coordinates": [ [ [ 91.582775913708915, 26.572244939728485 ], [ 91.588571902336312, 26.568211675783484 ], [ 91.591738078465056, 26.565759242766465 ], [ 91.593808813653794, 26.561447484439167 ], [ 91.595295444638765, 26.554129629016131 ], [ 91.597189071906698, 26.547890371797159 ], [ 91.598113605653253, 26.541168519075494 ], [ 91.597684252972272, 26.53648763594073 ], [ 91.599523973448655, 26.533024444775219 ], [ 91.605418718092466, 26.530091804426185 ], [ 91.614512845965805, 26.528317558463392 ], [ 91.618664925662586, 26.524312556879469 ], [ 91.620776237562524, 26.520459189382784 ], [ 91.622003767402518, 26.515932227134382 ], [ 91.623568626326957, 26.51507654819067 ], [ 91.628398100573335, 26.513977933903838 ], [ 91.636219121405318, 26.514134984554907 ], [ 91.641456523229181, 26.513005576526389 ], [ 91.642857215918411, 26.501442140459535 ], [ 91.642825917696399, 26.49663902066083 ], [ 91.645619243286035, 26.486819841158965 ], [ 91.655685597703467, 26.480154550185024 ], [ 91.662964795180116, 26.46999999504111 ], [ 91.672143883408395, 26.467096309651915 ], [ 91.688529157404901, 26.462174220548711 ], [ 91.704810943945404, 26.460585148185384 ], [ 91.711405102199848, 26.460830155763993 ], [ 91.716775714550423, 26.465602824638243 ], [ 91.722214765119148, 26.471109536544173 ], [ 91.723711020907544, 26.478390752279186 ], [ 91.728471158317745, 26.485426894481709 ], [ 91.732857237703485, 26.488424581697505 ], [ 91.737379789621997, 26.492890591926376 ], [ 91.741902659154832, 26.497356453548431 ], [ 91.747819198592438, 26.499129691053618 ], [ 91.75720319899844, 26.498423753068124 ], [ 91.770224861720067, 26.497073537215726 ], [ 91.779913999534585, 26.495234182425129 ], [ 91.783114748202294, 26.493667796975142 ], [ 91.7812332003856, 26.491389166722282 ], [ 91.780457138035572, 26.4868008322692 ], [ 91.782318387861324, 26.483439427719762 ], [ 91.780912612695545, 26.479027733069049 ], [ 91.781209494527587, 26.473846194567383 ], [ 91.779732609777184, 26.469495208068725 ], [ 91.777388614622154, 26.466183290916721 ], [ 91.76685472532948, 26.466160434017606 ], [ 91.769261796563796, 26.460949074855801 ], [ 91.768935387388979, 26.459492424310117 ], [ 91.768104603656354, 26.455784767560843 ], [ 91.770912677376629, 26.45224135701292 ], [ 91.77226479425353, 26.448369147466952 ], [ 91.772031312097198, 26.446245571147809 ], [ 91.774856411293584, 26.443439064581497 ], [ 91.773080374585433, 26.439558176050049 ], [ 91.774826115835822, 26.436943747853771 ], [ 91.773658722807838, 26.431669372614561 ], [ 91.775486974553104, 26.430548546641806 ], [ 91.776575004449484, 26.426156264337923 ], [ 91.778844303594411, 26.425039015019639 ], [ 91.781022434388746, 26.425696138090654 ], [ 91.780101580076746, 26.419327892665525 ], [ 91.783064955877279, 26.417959751464949 ], [ 91.783155431761287, 26.41116903124551 ], [ 91.785726000826102, 26.408667528108122 ], [ 91.797063420663051, 26.407243508498112 ], [ 91.800082274307044, 26.400812811484769 ], [ 91.800682543672096, 26.398566055308205 ], [ 91.800308039816443, 26.394768487556703 ], [ 91.80165442284229, 26.390960834960261 ], [ 91.804688574750287, 26.389591482241066 ], [ 91.807013886914064, 26.387491122395208 ], [ 91.806392187484761, 26.38450601437879 ], [ 91.809274970295689, 26.381241962358857 ], [ 91.814411658355851, 26.383188464041513 ], [ 91.820586546859573, 26.379019542605299 ], [ 91.822813391944919, 26.370875866084472 ], [ 91.822117010116287, 26.367204153498978 ], [ 91.824041912818316, 26.363730733045958 ], [ 91.822767957229843, 26.351952250778098 ], [ 91.822578848841644, 26.336537662567004 ], [ 91.824293323030972, 26.331912406984024 ], [ 91.822016538458129, 26.324806548527874 ], [ 91.816858943973813, 26.325631195798806 ], [ 91.813954656445418, 26.323488120094343 ], [ 91.813567208675138, 26.319059026770738 ], [ 91.811229025551086, 26.316448393506846 ], [ 91.807462749188815, 26.316207390007737 ], [ 91.802406949168358, 26.314439261546397 ], [ 91.799544854777821, 26.314997367741629 ], [ 91.7971800868727, 26.31842080144321 ], [ 91.794348845831664, 26.308914977449174 ], [ 91.791417872796089, 26.309007394158979 ], [ 91.790033833474737, 26.3056366619881 ], [ 91.786700184506486, 26.304647095993726 ], [ 91.788640795529474, 26.302718905723069 ], [ 91.787138454471304, 26.300386323174433 ], [ 91.787075459804171, 26.296241870627714 ], [ 91.791017992365539, 26.283417589478731 ], [ 91.79057316633039, 26.275831110159366 ], [ 91.793178685934706, 26.271424749443039 ], [ 91.793195653204762, 26.268086452372682 ], [ 91.788615398257278, 26.260784910501965 ], [ 91.786597277225113, 26.253561890723184 ], [ 91.787662916228655, 26.248838057671804 ], [ 91.786953147138604, 26.244013076306292 ], [ 91.781747431287059, 26.241092612589203 ], [ 91.777971319302864, 26.240279495596418 ], [ 91.773265284626092, 26.240916506410933 ], [ 91.770502800049158, 26.239168162357441 ], [ 91.766360676502259, 26.230771308850478 ], [ 91.755454183024781, 26.225746350273109 ], [ 91.750754604842157, 26.22188852090499 ], [ 91.749449807673273, 26.220817360134362 ], [ 91.74836522604825, 26.216292784651838 ], [ 91.750122372257337, 26.21051543948731 ], [ 91.755318615763045, 26.204690949934299 ], [ 91.761589261334791, 26.199950069036365 ], [ 91.747060667314969, 26.194392282261692 ], [ 91.726126084871424, 26.183404813873029 ], [ 91.72210927761148, 26.180939633524961 ], [ 91.713269852015287, 26.177046320778615 ], [ 91.703938216422259, 26.173677888986155 ], [ 91.697697605530848, 26.170565223206882 ], [ 91.690695953755949, 26.16702106740782 ], [ 91.686008832613666, 26.16314020943982 ], [ 91.682949244374257, 26.159299949507179 ], [ 91.677666239124534, 26.152858896451246 ], [ 91.675771837341486, 26.147954390224218 ], [ 91.673175939515275, 26.14326522251913 ], [ 91.670968222793718, 26.13887250387705 ], [ 91.664522043678133, 26.133494930703165 ], [ 91.661269035935817, 26.131459459896174 ], [ 91.657955852693789, 26.13073076631018 ], [ 91.655821342290665, 26.131053332381569 ], [ 91.65362742511762, 26.130729148181882 ], [ 91.651314754633106, 26.129111486857113 ], [ 91.649717591230228, 26.129393766642217 ], [ 91.647970990296272, 26.130012788514385 ], [ 91.644895116253124, 26.12886010380527 ], [ 91.641598041398254, 26.126339169948974 ], [ 91.639181796625806, 26.123589547358343 ], [ 91.638183639777054, 26.120571118159667 ], [ 91.634859702723816, 26.113819478789775 ], [ 91.630071240138975, 26.110758582671842 ], [ 91.620687456101024, 26.106738255017238 ], [ 91.600687248029544, 26.110834294986866 ], [ 91.594295338566127, 26.115868444801279 ], [ 91.592932669795417, 26.12069073306942 ], [ 91.592332530770648, 26.123991144073056 ], [ 91.590068290264938, 26.126914985331368 ], [ 91.58429923781074, 26.129273540641059 ], [ 91.578280234313411, 26.133579738366901 ], [ 91.575552805891164, 26.136483482613503 ], [ 91.565391751125816, 26.142254457258414 ], [ 91.557358722274287, 26.143236591888723 ], [ 91.552123549350455, 26.14208156972213 ], [ 91.551127741179101, 26.141401255479281 ], [ 91.551130031961009, 26.14139683156861 ], [ 91.551020403506811, 26.141279886137919 ], [ 91.549180194456497, 26.140148539269624 ], [ 91.545499415558581, 26.138345987078946 ], [ 91.542950670596255, 26.135604861012023 ], [ 91.542315976945801, 26.133088107983617 ], [ 91.541449687488168, 26.128024712577457 ], [ 91.541198011758624, 26.123770351662237 ], [ 91.540734825250041, 26.118677046777005 ], [ 91.5402275683293, 26.113098640515275 ], [ 91.539328422472025, 26.107671341521876 ], [ 91.537520186945287, 26.104142707117724 ], [ 91.5345465952268, 26.098128610228436 ], [ 91.534433335380996, 26.097210951699598 ], [ 91.534444736403387, 26.09720945634238 ], [ 91.534319588634332, 26.09671291247648 ], [ 91.533303083299643, 26.09022859201653 ], [ 91.532425955456276, 26.085277365886654 ], [ 91.531625170601856, 26.076461820442454 ], [ 91.531207413877112, 26.071862380123338 ], [ 91.531958402708455, 26.066018735687607 ], [ 91.527894462462214, 26.0400805409311 ], [ 91.526878735709388, 26.03359589551205 ], [ 91.524020074725144, 26.030334739902276 ], [ 91.51773276880553, 26.026941489898324 ], [ 91.512078487102713, 26.025816423616515 ], [ 91.505749419747175, 26.026670429215137 ], [ 91.501715118200522, 26.029283926048027 ], [ 91.496901495841797, 26.032726622925566 ], [ 91.493533927160982, 26.037991685088372 ], [ 91.485992258537976, 26.044336492577013 ], [ 91.480216509404812, 26.051322320262877 ], [ 91.470880890741995, 26.052010669044865 ], [ 91.463918268217498, 26.050594392784138 ], [ 91.456748311648951, 26.046877939242211 ], [ 91.455267847598009, 26.044671774931498 ], [ 91.454463214323908, 26.04048656456953 ], [ 91.453303467784764, 26.037099194817625 ], [ 91.4528541054149, 26.032116090456782 ], [ 91.454412971963364, 26.030457906266935 ], [ 91.457851115517713, 26.025960292610822 ], [ 91.461289017223976, 26.021462588649612 ], [ 91.462215860573977, 26.01753565095283 ], [ 91.4619391535131, 26.014469097585252 ], [ 91.463117188581009, 26.008594276120792 ], [ 91.466164842176696, 26.004510982950762 ], [ 91.470079011369236, 26.001159580848103 ], [ 91.469767543890853, 25.997709681385555 ], [ 91.471423200842736, 25.994765887558675 ], [ 91.472898609831503, 25.9924865257716 ], [ 91.47507023074597, 25.989938728080961 ], [ 91.474797601442361, 25.986920049588356 ], [ 91.474344832407979, 25.984565825531789 ], [ 91.473862970547884, 25.976570239793684 ], [ 91.472996492662077, 25.972292988742495 ], [ 91.470737768791622, 25.968552533745122 ], [ 91.469988219116402, 25.965568985345669 ], [ 91.471662917302496, 25.962840744323582 ], [ 91.472982224502942, 25.958836328059732 ], [ 91.469833056922326, 25.953207981635728 ], [ 91.468927959610156, 25.948499379751855 ], [ 91.466616480555516, 25.941506789947663 ], [ 91.467025754921465, 25.935398829713293 ], [ 91.468491148920819, 25.927693480674016 ], [ 91.471353107268328, 25.916846073583795 ], [ 91.473805743028123, 25.912106638300919 ], [ 91.473577147479673, 25.90691385829183 ], [ 91.473431322190194, 25.899978388279681 ], [ 91.475309452198218, 25.894195893092419 ], [ 91.476428463801042, 25.89064012017764 ], [ 91.475898168211657, 25.887423191437929 ], [ 91.474137078772699, 25.883862985217743 ], [ 91.474185802587641, 25.879083774671162 ], [ 91.472614759648934, 25.869648498552873 ], [ 91.471768499777326, 25.865586547395537 ], [ 91.471121739147094, 25.861075704231553 ], [ 91.472266171775104, 25.857834136492588 ], [ 91.471310669205124, 25.858116672702366 ], [ 91.457554916557712, 25.850407212857206 ], [ 91.449990943727371, 25.844760827826008 ], [ 91.446987905912991, 25.84013060942868 ], [ 91.443813401916856, 25.840738386502686 ], [ 91.433463351189062, 25.846873439963279 ], [ 91.42692970270032, 25.852680994428116 ], [ 91.421524733214412, 25.853849229340835 ], [ 91.415371745706821, 25.853050467371883 ], [ 91.407734711521627, 25.849013867970868 ], [ 91.403849980732346, 25.850240561839257 ], [ 91.391185548741788, 25.846452223738289 ], [ 91.384787463718979, 25.846099554185717 ], [ 91.379543267073814, 25.844046503919813 ], [ 91.37319199235111, 25.843472967299078 ], [ 91.366378712874607, 25.839669622896885 ], [ 91.359579543700505, 25.840646890114243 ], [ 91.356008167818999, 25.836924515440209 ], [ 91.351272928725407, 25.83953691275164 ], [ 91.347090963150819, 25.8386329146573 ], [ 91.345197381876886, 25.835300283718038 ], [ 91.339150148307226, 25.837615720625454 ], [ 91.336286121445212, 25.838046303946712 ], [ 91.334879775260745, 25.83290996894829 ], [ 91.3351492671827, 25.831297823631434 ], [ 91.333480184368213, 25.829441915678448 ], [ 91.327693550747227, 25.823006990674759 ], [ 91.309018722116932, 25.795601849631147 ], [ 91.299578730150571, 25.777493111795543 ], [ 91.289968673560651, 25.763356622957101 ], [ 91.28225881151414, 25.755913051276995 ], [ 91.279146089511059, 25.750927859166058 ], [ 91.278303997282237, 25.746197701590241 ], [ 91.2649596529142, 25.748555928336909 ], [ 91.258062328952988, 25.747103751576994 ], [ 91.235193312505729, 25.728459894849202 ], [ 91.226569731749166, 25.722727772449559 ], [ 91.224136074664813, 25.725354819581991 ], [ 91.218571949872825, 25.723222943273157 ], [ 91.200737294294626, 25.730303713298959 ], [ 91.194723937923627, 25.728914253450831 ], [ 91.195092376335907, 25.735423652613115 ], [ 91.191448595459732, 25.738266568901501 ], [ 91.191964144484928, 25.762803313225682 ], [ 91.188492294908187, 25.766219878604307 ], [ 91.188715201924737, 25.769277836252996 ], [ 91.183977884909396, 25.772683879134753 ], [ 91.182735290247322, 25.775658117969172 ], [ 91.186782876338469, 25.781920705944557 ], [ 91.187580645447554, 25.79436221372108 ], [ 91.190081386466815, 25.802623863948 ], [ 91.193792406717662, 25.810032091401236 ], [ 91.191007823590397, 25.814898993020954 ], [ 91.192729658097562, 25.820096632492032 ], [ 91.197156194253225, 25.825717750648543 ], [ 91.197358673082476, 25.829930908695196 ], [ 91.205495196832629, 25.839853723819644 ], [ 91.201535136737363, 25.846956255648994 ], [ 91.201004967836582, 25.854143658871575 ], [ 91.199363910292575, 25.858332739762169 ], [ 91.195919737364946, 25.854556324094368 ], [ 91.188366390606021, 25.849294230226814 ], [ 91.184628598888679, 25.843447913975979 ], [ 91.181913233075576, 25.842092602810656 ], [ 91.171082899695236, 25.84497621978451 ], [ 91.164560401787924, 25.848652654548737 ], [ 91.155793609717335, 25.849425353283333 ], [ 91.148332232237109, 25.846702403376511 ], [ 91.140842660727202, 25.841498187242578 ], [ 91.134635145219718, 25.841320098168701 ], [ 91.129283805778229, 25.837577441312852 ], [ 91.123716757247479, 25.830720936356311 ], [ 91.084326630334317, 25.828750125587685 ], [ 91.069523016811303, 25.825185799361471 ], [ 91.066234493721723, 25.819798849191983 ], [ 91.062009724326444, 25.821705736933886 ], [ 91.052902072954453, 25.828339767301706 ], [ 91.0602273728135, 25.831473611924626 ], [ 91.064815762116154, 25.835503600881221 ], [ 91.070517232968911, 25.835734339562201 ], [ 91.075889761591995, 25.837751340982834 ], [ 91.076021028164561, 25.841895573117171 ], [ 91.081545697337248, 25.85203797186853 ], [ 91.068923638420117, 25.845848798098196 ], [ 91.052137540654272, 25.848248103456804 ], [ 91.045016709103393, 25.838841328636452 ], [ 91.027977421794589, 25.827014159962964 ], [ 91.02384795314498, 25.822083021911237 ], [ 91.015755040026903, 25.820547988423165 ], [ 91.009160548873638, 25.820240096186566 ], [ 91.003832404104713, 25.821720553658277 ], [ 91.004654878027338, 25.825275828150758 ], [ 91.011759454352344, 25.83772205686676 ], [ 91.015811587892401, 25.848298441131583 ], [ 91.016198285554339, 25.856651692135433 ], [ 91.018206266156426, 25.85851684234536 ], [ 91.0249112565849, 25.860782603545225 ], [ 91.029598414504576, 25.866070974294406 ], [ 91.032204394140237, 25.879296919752047 ], [ 91.032338429186439, 25.887487971653218 ], [ 91.033038255541058, 25.893908317774287 ], [ 91.03610822812513, 25.902121701983319 ], [ 91.03988583557873, 25.90890029081099 ], [ 91.043786493522674, 25.921203178976711 ], [ 91.047949096817149, 25.927820377898342 ], [ 91.053957901185726, 25.933300242491004 ], [ 91.054722020140062, 25.937274581360999 ], [ 91.051108805782221, 25.940978596335775 ], [ 91.070517274629196, 25.964448497397125 ], [ 91.077180313177237, 25.971076182845383 ], [ 91.083564117417595, 25.973616375987511 ], [ 91.084052609326235, 25.979040728289149 ], [ 91.087910793966429, 25.982180646460883 ], [ 91.091963084696019, 26.000235025350484 ], [ 91.100619439606163, 26.004799931724662 ], [ 91.100689857649158, 26.009229571265337 ], [ 91.097420029527356, 26.011903909754601 ], [ 91.097252118860666, 26.015127637358294 ], [ 91.09343297752946, 26.019760720671407 ], [ 91.091763814190159, 26.023691267044214 ], [ 91.091782390824747, 26.028641351453476 ], [ 91.08618072060176, 26.030240228831971 ], [ 91.081332855793207, 26.03696727699603 ], [ 91.072707405190855, 26.036464435767105 ], [ 91.069214110197223, 26.043916027632164 ], [ 91.05834499246626, 26.044577824410126 ], [ 91.052748052242123, 26.040254843270329 ], [ 91.04554269027831, 26.04198452833565 ], [ 91.039855063212769, 26.04483822378425 ], [ 91.034496115462304, 26.041600583620951 ], [ 91.029788431241016, 26.039742458749384 ], [ 91.018224472571646, 26.047935056757982 ], [ 91.012967248472762, 26.052639852184292 ], [ 91.005988484972363, 26.052810409763513 ], [ 91.000046238155178, 26.054803850800109 ], [ 90.994596431227237, 26.056882248015246 ], [ 90.989278789063249, 26.057419187286705 ], [ 90.987009992569952, 26.060010973738503 ], [ 90.98136755710641, 26.061165808454668 ], [ 90.96440820935949, 26.075151266922855 ], [ 90.961258372327109, 26.080153197384764 ], [ 90.961216139771395, 26.081854124778676 ], [ 90.953455767281412, 26.080979092859781 ], [ 90.948836445727096, 26.089447582277618 ], [ 90.943597566457299, 26.088247096722043 ], [ 90.939272727998542, 26.091960647868824 ], [ 90.939097107649403, 26.093777036766685 ], [ 90.953494347563023, 26.094988893755389 ], [ 90.958294809442734, 26.096907449886483 ], [ 90.972175292852157, 26.107091263018877 ], [ 90.975763857272383, 26.111475350278564 ], [ 90.987286477736077, 26.120010790937627 ], [ 90.9918308595159, 26.124207249826448 ], [ 91.000134575499061, 26.127012327880323 ], [ 91.005215514429494, 26.129371001129925 ], [ 91.009155601592099, 26.128594268868621 ], [ 91.021380772114426, 26.123157380388751 ], [ 91.027966630036275, 26.119419901588 ], [ 91.034287777949899, 26.120813228994294 ], [ 91.039162879560379, 26.125031105456138 ], [ 91.045736568794709, 26.128030210688991 ], [ 91.051722893596363, 26.128329969910826 ], [ 91.054741919404265, 26.13112411868185 ], [ 91.055291628567517, 26.135145475627144 ], [ 91.058829089988649, 26.139310057874592 ], [ 91.076686964573909, 26.156073025831191 ], [ 91.083849082369426, 26.159923930895378 ], [ 91.093934079328179, 26.163806390468615 ], [ 91.103016751658856, 26.161719932146411 ], [ 91.119157210132286, 26.153412393843677 ], [ 91.133645387134038, 26.158343885656905 ], [ 91.148981304313494, 26.159351318592947 ], [ 91.16817796941325, 26.169359727118749 ], [ 91.183739373697193, 26.173656161568616 ], [ 91.228160626154974, 26.179911753779784 ], [ 91.23676311038075, 26.182166339456209 ], [ 91.23263092742738, 26.177028549652341 ], [ 91.249714665096946, 26.168057796796933 ], [ 91.257554197108277, 26.163158607159144 ], [ 91.288853051689571, 26.158189805022573 ], [ 91.29972477151864, 26.157503208524659 ], [ 91.306178430993981, 26.159859134343208 ], [ 91.311027055649674, 26.160785428283738 ], [ 91.321515823286475, 26.160618874204729 ], [ 91.333303961604372, 26.161944611020111 ], [ 91.338506162683828, 26.165336236732902 ], [ 91.34200644974031, 26.165247613645484 ], [ 91.345980319828683, 26.162733990129585 ], [ 91.351262432403317, 26.163013748305836 ], [ 91.355546216426376, 26.164879721959529 ], [ 91.358656485341982, 26.164376124257334 ], [ 91.372114462076681, 26.15659218971496 ], [ 91.393786010576591, 26.139216649753944 ], [ 91.39986289068986, 26.136626029234062 ], [ 91.409416116495109, 26.137444868891038 ], [ 91.415881727448379, 26.136223521106057 ], [ 91.421799496239316, 26.166123705685539 ], [ 91.422200348502258, 26.172222860156129 ], [ 91.421561952254862, 26.181776250835657 ], [ 91.419190573401224, 26.186172595068768 ], [ 91.415390142861284, 26.197369628860642 ], [ 91.414890593944179, 26.202731629254377 ], [ 91.418918983273613, 26.204120919271254 ], [ 91.421403582348646, 26.209554968123843 ], [ 91.422860380097802, 26.2141413961767 ], [ 91.423406491729381, 26.226620994908533 ], [ 91.425709220134507, 26.232981991736352 ], [ 91.427671155375776, 26.236128420558266 ], [ 91.433730018878919, 26.237151610084794 ], [ 91.433392639893327, 26.240900381488974 ], [ 91.431129125888305, 26.242584574904352 ], [ 91.426682525172737, 26.243441221633113 ], [ 91.420128108619707, 26.243395411884986 ], [ 91.415753563968934, 26.245109381758663 ], [ 91.413230517120937, 26.252155961958742 ], [ 91.415443131107736, 26.260586241495279 ], [ 91.420458643050139, 26.26495808236664 ], [ 91.427079964408023, 26.264200746869832 ], [ 91.440644754967892, 26.259735924132542 ], [ 91.444437805647027, 26.262632434748451 ], [ 91.453619370764073, 26.272594908051232 ], [ 91.451807713107371, 26.290443185033919 ], [ 91.452163112756722, 26.303042237648135 ], [ 91.454137905532207, 26.307387077540572 ], [ 91.458194648470396, 26.311085251655051 ], [ 91.451192298360269, 26.311391791715668 ], [ 91.450319096035258, 26.312890974062068 ], [ 91.459186399840689, 26.318030942391495 ], [ 91.480200861635169, 26.317801023474097 ], [ 91.494234414165845, 26.31896417789212 ], [ 91.499576399706001, 26.322981949892664 ], [ 91.503953869689653, 26.321731743127046 ], [ 91.508035890703866, 26.321739824421677 ], [ 91.51031966998373, 26.326135083451014 ], [ 91.513964802312657, 26.32725046115721 ], [ 91.520022222419257, 26.327241689819441 ], [ 91.5279561611882, 26.329788932204615 ], [ 91.531373558458583, 26.33233738938474 ], [ 91.536487207879915, 26.333546755433687 ], [ 91.534365407834358, 26.336453940750605 ], [ 91.529459376445161, 26.336964205131956 ], [ 91.523686856910871, 26.338590453774088 ], [ 91.521370907936287, 26.342351529509873 ], [ 91.522042769094341, 26.34855451329658 ], [ 91.524926337758487, 26.35536475928631 ], [ 91.528775871664322, 26.361471388528056 ], [ 91.534834535199948, 26.366238016556288 ], [ 91.538527795227466, 26.370620993924874 ], [ 91.535247796600899, 26.373249047944782 ], [ 91.528754960096293, 26.374014866606807 ], [ 91.527862201436548, 26.377938423858751 ], [ 91.536098432865813, 26.388602776209652 ], [ 91.53590733140463, 26.393028224058533 ], [ 91.543345305347046, 26.40059494370519 ], [ 91.546736322388483, 26.406481168712599 ], [ 91.545948527069257, 26.409192667352333 ], [ 91.542697590027387, 26.413835056119076 ], [ 91.544453401223947, 26.416510710260521 ], [ 91.550259077534108, 26.416671956399977 ], [ 91.554559983429172, 26.414383431324307 ], [ 91.5616752981595, 26.416371468639642 ], [ 91.561692867375328, 26.421893456197434 ], [ 91.564651970049098, 26.42432754201959 ], [ 91.5668844418405, 26.433164583513044 ], [ 91.565018701722849, 26.436809568098404 ], [ 91.562950875441359, 26.444022432390327 ], [ 91.556862633450308, 26.455487053993103 ], [ 91.555984026811515, 26.46180506568799 ], [ 91.554959654203984, 26.469170433010291 ], [ 91.554970317221816, 26.469164230556476 ], [ 91.554910881893761, 26.469303500485012 ], [ 91.553663598060183, 26.473178478483405 ], [ 91.554099328795061, 26.475758115210848 ], [ 91.554833298551443, 26.478315685581407 ], [ 91.555294939398252, 26.480082818599804 ], [ 91.555766114621946, 26.4808585394026 ], [ 91.557338968848711, 26.481642820534553 ], [ 91.559426558564837, 26.481488358166509 ], [ 91.562001713172947, 26.482288487592839 ], [ 91.562280999054693, 26.484249226079456 ], [ 91.562278410075507, 26.486410951913733 ], [ 91.561506334824372, 26.487819049048081 ], [ 91.560403297169273, 26.48889137654114 ], [ 91.559416005544364, 26.490135256779332 ], [ 91.55938066731548, 26.491939137844668 ], [ 91.559561833364825, 26.49282636535294 ], [ 91.560206080548767, 26.494399831865049 ], [ 91.559318163735185, 26.495636347945787 ], [ 91.558844263001575, 26.497022352382142 ], [ 91.55898323533404, 26.498543137224789 ], [ 91.559602977939022, 26.499848224708945 ], [ 91.560115132399687, 26.501071207277313 ], [ 91.55998986585081, 26.501891038341487 ], [ 91.558986118413827, 26.502955985945515 ], [ 91.557592821791104, 26.504139802577246 ], [ 91.556770201880482, 26.506091952705944 ], [ 91.556610870439158, 26.507634789318569 ], [ 91.556856091244157, 26.510318503568026 ], [ 91.557327388407714, 26.511094198428264 ], [ 91.557790516405277, 26.511780434742914 ], [ 91.55763936625614, 26.513412721708367 ], [ 91.557206254343981, 26.515245981341714 ], [ 91.557288002568697, 26.516140547016256 ], [ 91.55799089979358, 26.517259353261789 ], [ 91.557681744090701, 26.519353621711712 ], [ 91.556668321540442, 26.521409909173247 ], [ 91.556525319199039, 26.523131636512797 ], [ 91.556631592404912, 26.524294563000375 ], [ 91.557003497303512, 26.525077603752528 ], [ 91.557191531163738, 26.527135084582593 ], [ 91.556766541278563, 26.529057776134376 ], [ 91.556838778492505, 26.530943693690599 ], [ 91.55718483726281, 26.532539179878729 ], [ 91.558137114722683, 26.533099174817956 ], [ 91.558500877904805, 26.533792750936193 ], [ 91.559402784710329, 26.534896821634003 ], [ 91.559202561440415, 26.535992346852382 ], [ 91.558746189262521, 26.536476397141861 ], [ 91.557901511701175, 26.535998507618057 ], [ 91.557687590034178, 26.534753493411802 ], [ 91.556668554420682, 26.534558670582012 ], [ 91.555747622612941, 26.535437302290863 ], [ 91.556276234704868, 26.536839167890605 ], [ 91.557103219246926, 26.538218966780622 ], [ 91.55796292934329, 26.539956578518819 ], [ 91.556923475900376, 26.542825271934834 ], [ 91.557610164165609, 26.543765144523277 ], [ 91.55808159033532, 26.544540813355653 ], [ 91.557036606068635, 26.545158436931583 ], [ 91.554706811245623, 26.545961096042589 ], [ 91.554382544983469, 26.546795593033615 ], [ 91.555168696671174, 26.547728119592207 ], [ 91.556518924134508, 26.548258704675177 ], [ 91.558200259912809, 26.549125028745099 ], [ 91.559863944150152, 26.550893225748965 ], [ 91.560889988716198, 26.552258275909153 ], [ 91.562007339762062, 26.553526506658287 ], [ 91.56232898241629, 26.554853588942052 ], [ 91.561564672266414, 26.556351051828194 ], [ 91.56139715546999, 26.557804368671544 ], [ 91.562515853770421, 26.557991799156216 ], [ 91.564655066684452, 26.557293204030294 ], [ 91.565276424688292, 26.557517407268794 ], [ 91.566245292463719, 26.558256245783284 ], [ 91.566103642280922, 26.558897133245942 ], [ 91.564892370832439, 26.559887330201239 ], [ 91.564178435641907, 26.56084072514264 ], [ 91.563663432383208, 26.561779398913281 ], [ 91.56414314540865, 26.562644489611035 ], [ 91.565270074008907, 26.562921351640778 ], [ 91.566480112110128, 26.563011941697312 ], [ 91.567970950695013, 26.563982320718821 ], [ 91.568648407429833, 26.565913457354505 ], [ 91.569167866256564, 26.568306569490669 ], [ 91.569480200552718, 26.570624946306317 ], [ 91.570035227736184, 26.572602039046096 ], [ 91.570758104391231, 26.572303231745316 ], [ 91.575682670742395, 26.572215887993607 ], [ 91.582775913708915, 26.572244939728485 ] ] ] } }
]
}
